State,Name,Address,Phone
Alabama,SPANNS TRUE VALUE,"976 US Hwy 43
Winfield, AL 35594",(205) 487-2103
Alabama,PUGH TRUE VALUE,"201 Claiborne St
Camden, AL 36726-1713",(334) 682-9215
Alabama,CLOVERLAND TRUE VALUE HARDWARE,"3831 SOUTH COURT STREET
MONTGOMERY, AL 36105-2501",(334) 264-6876
Alabama,TALLASSEE TRUE VALUE HARDWARE,"1400 GILMER AVE
TALLASSEE, AL 36078-2322",(334) 283-6355
Alabama,KILLEN TRUE VALUE,"1929 HWY 72
KILLEN, AL 35645-8970",(256) 757-3012
Alabama,HELENA HARDWARE,"101 ACE PLACE
HELENA, AL 35080-1750",(205) 605-0600
Alabama,ELLIOTT TRUE VALUE,"1297 11th Avenue
Haleyville, AL 35565-5925",(205) 486-2312
Alabama,DUNNS TRUE VALUE,"804 Hwy 231 S
Troy, AL 36081-3121",(334) 566-3128
Alabama,SMITH'S TRUE VALUE,"16648 HWY 431 S
Headland, AL 36345-7924",(334) 693-0204
Alabama,LAFAYETTE TRUE VALUE,"Hwy 50 Byp
Lafayette, AL 36862",(334) 864-9842
Alabama,REHOBETH TRUE VALUE,"6270 South State HWY 605
Dothan, AL 36301",(334) 305-0482
Alabama,TRUE VALUE HARDWARE,"101 East Church St
Columbia, AL 36319-3659",(334) 696-4747
Alabama,SMITH'S TRUE VALUE OF ASHFORD,"20 Ashford Industrial Drive
Ashford, AL 36312",(334) 899-9100
Alabama,GREEN'S DEPENDABLE HARDWARE,"15220a Highway 43
Russellville, AL 35653-1939",(256) 331-0123
Alabama,UNDERWOOD TRUE VALUE HARDWARE,"1104 4th Street NW
Red Bay, AL 35582-3941",(256) 356-9556
Alabama,WEATHERS TRUE VALUE HARDWARE & APPLIANCE,"201 N Broad St
Albertville, AL 35950-1723",(256) 878-4311
Alaska,HAINES TRUE VALUE HOME CENTER,"1003 Haines Hwy
Haines, AK 99827",(907) 766-2595
Alaska,GOULD'S TRUE VALUE,"7 Heart Lake Dr
King Cove, AK 99612",(907) 497-2212
Alaska,BEEMUN'S VARIETY AND TRUE VALUE,"35277 Kenai Spur Rd
Soldotna, AK 99669-7623",(907) 262-1234
Alaska,"BTP, LLC","830 RIVER STREET
BETHEL, AK 99559-0001",(907) 543-0670
Alaska,SEAMAN'S TRUE VALUE HARDWARE,"516 First St
Cordova, AK 99574",(907) 424-3647
Alaska,SAMSON TRUE VALUE HARDWARE,"1990 Phillips Field Rd
Fairbanks, AK 99701-2707",(907) 452-3110
Alaska,BAY TRADERS TRUE VALUE,"1303 4th Ave
Seward, AK 99664",(907) 224-8286
Alaska,S O S TRUE VALUE HARDWARE,"Mile 1 5 Keku Rd
Kake, AK 99830",(907) 785-6444
Alaska,SITKA TRUE VALUE HARDWARE,"815 Halibut Point Rd
Sitka, AK 99835-7102",(907) 747-6292
Alaska,JS WAREHOUSE TRUE VALUE,"510 Port Bagail Blvd
Craig, AK 99921",(907) 826-3632
Alaska,OTTESENS TRUE VALUE HARDWARE,"104 Front St
Wrangell, AK 99929",(907) 874-3377
Alaska,WILLOW TRUE VALUE HARDWARE,"30988 W Parks Hwy
Willow, AK 99688",(907) 495-6231
Alaska,MADISON TRUE VALUE HARDWARE,"2557 Tongass Ave
Ketchikan, AK 99901-5841",(907) 225-9828
Arizona,JOHNSON LUMBER & TRUE VALUE HARDWARE,"188 East Yavapai St
Wickenburg, AZ 85390-2438",(928) 684-5439
Arizona,AJO TRUE VALUE HARDWARE,"1530 N Washington Ave
Ajo, AZ 85321-1643",(520) 387-6609
Arizona,JUST TRUE VALUE RENTAL,"846 MILLER VALLEY RD
PRESCOTT, AZ 86301-1816",(928) 775-6366
Arizona,TOTAL TRUE VALUE RENTAL,"1200 E RTE 66
FLAGSTAFF, AZ 86001-4749",(928) 774-2721
Arizona,TOTAL TRUE VALUE RENTAL,"2480 E HUNTINGTON DR
FLAGSTAFF, AZ 86004-8934",(928) 779-0677
Arizona,STANDARD PLUMBING - PEORIA,"9111 NW GRAND AVE
PEORIA, AZ 85345-8109",(480) 526-7735
Arizona,SONOITA HARDWARE,"3149 AZ-83
SONOITA, AZ 85637-9900",(520) 455-5523
Arizona,SUNWEST TRUE VALUE,"13599 W Camino Del Sol
Sun City West, AZ 85375",(623) 584-7888
Arizona,KINGMAN TRUE VALUE HOME CENTER,"3633 Stockton Hill Rd
Kingman, AZ 86409-3055",(928) 757-4018
Arizona,R & K BUILDING SUPPLIES - HEBER,"2950 HIGHWAY 260
HEBER, AZ 85928-0000",(928) 535-5356
Arizona,R & K BUILDING SUPPLIES - PAYSON,"202 N BEELINE HWY
PAYSON, AZ 85541-0000",(928) 468-0400
Arizona,WESTERNERS TRUE VALUE,"155 MAIN STREET
TUBA CITY, AZ 86045-0155",(928) 283-5204
Arizona,SAN CARLOS TRUE VALUE HARDWARE AND LUMBER,"HWY 70 AND MOON BASE ROAD
PERIDOT, AZ 85542-0780",(928) 475-2229
Arizona,STANDARD HARDWARE - MESA,"550 E BASELINE RD
MESA, AZ 85204-6504",(480) 507-2150
Arizona,ADR HARDWARE,"237 N Apache Trail
Apache Junction, AZ 85120",(480) 982-7461
Arizona,MCKAY'S TRUE VALUE,"4939 W Ray Rd
Chandler, AZ 85226",(480) 686-8064
Arizona,GREEN VALLEY TRUE VALUE,"220 W Continental Rd
Green Valley, AZ 85614-3555",(520) 648-7539
Arizona,SUN CITY TRUE VALUE,"15400 N 99th Ave
Sun City, AZ 85351-1972",(623) 815-5200
Arizona,PRESCOTT TRUE VALUE HARDWARE,"846 Miller Valley Rd
Prescott, AZ 86301-1816",(928) 445-6422
Arizona,OLD TRAILS TRUE VALUE,"616 N Airport Rd
Williams, AZ 86046-9701",(928) 635-2591
Arkansas,FARMERS COOPERATIVE - LINCOLN,"113 E PRIDEMORE DRIVE
LINCOLN, AR 72744-9014",(479) 824-3288
Arkansas,MARSHALL MILLING & TRUE VALUE,"230 N Hwy 65
Marshall, AR 72650",(870) 448-3358
Arkansas,FARMERS COOPERATIVE - DECATUR,"252 N MAIN STREET
DECATUR, AR 72722-0101",(479) 752-3399
Arkansas,KNOWLES TRUE VALUE HARDWARE & AUTO,"201 Main St
Calico Rock, AR 72519",(870) 297-3710
Arkansas,HUNTSVILLE LUMBER,"302 S HARRIS STREET
HUNTSVILLE, AR 72740-8568",(479) 738-2510
Arkansas,BERRY'S TRUE VALUE,"120 Hwy 65 N
Dumas, AR 71639-2227",(870) 382-5234
Arkansas,HIEGEL SUPPLY,"1310 Bruce St
Conway, AR 72034-6513",(501) 327-7755
Arkansas,GARNER TRUE VALUE HARDWARE,"125 E Locust St
Rogers, AR 72756-3831",(479) 636-4151
Arkansas,KEN'S DISCOUNT TRUE VALUE HOME CENTER,"1200 N West Ave
El Dorado, AR 71730-3852",(870) 862-4917
Arkansas,CROSSOVER TRUE VALUE,"1756 N Crossover Rd Ste 2
Fayetteville, AR 72701",(479) 445-6470
Arkansas,KEN'S DISCOUNT TRUE VALUE,"980 Cash Road
Camden, AR 71701",(870) 836-5367
Arkansas,PARKERS TRUE VALUE,"2810 HWY 290
Hot Springs, AR 71913-8794",(501) 262-9231
Arkansas,THE HOME CENTER AND LUMBER CO.,"1601 NORTH 7TH STREET
WEST MEMPHIS, AR 72301-9999",(870) 702-6000
Arkansas,IDEAL TRUE VALUE LUMBER,"801 W 1st Ave
Crossett, AR 71635-2707",(870) 364-4145
Arkansas,MAGAZINE TRUE VALUE HARDWARE & FARM,"9 N. State True Value
Magazine, AR 72943",(479) 969-8473
Arkansas,SCOTT COUNTY HARDWARE,"1359 West 2nd st
Waldron, AR 72958",(479) 637-0785
Arkansas,SOUTHTOWN TRUE VALUE HARDWARE,"550 E Wood St
Ashdown, AR 71822-3639",(870) 898-5079
Arkansas,HORNET HARDWARE,"305 HWY 70E
HAZEN, AR 72064",(870) 255-2424
Arkansas,JACKRABBIT HARDWARE,"604 N CENTER STREET
LONOKE, AR 72086-2546",(501) 676-0556
Arkansas,VILLAGE TRUE VALUE HOME CENTER BUILDING SUPPLY,"4650 N HWY 7
Hot Springs Village, AR 71909",(501) 984-6074
Arkansas,MEADORS LUMBER COMPANY,"1800 N 18th
Ozark, AR 72949-3642",(479) 667-9793
Arkansas,MILLER TRUE VALUE HARDWARE,"2 E Necessity Ave
Harrison, AR 72601-4455",(870) 741-3493
Arkansas,MILLER TRUE VALUE HARDWARE,"1609 MC Hwy 62 West
Yellville, AR 72687-7948",(870) 449-4255
Arkansas,MEADORS LUMBER COMPANY,"218 Commerce Drive
Alma, AR 72921-3608",(479) 632-2245
Arkansas,MEADORS LUMBER COMPANY,"1003 INTERSTATE DR
CLARKSVILLE, AR 72830-9021",(479) 705-0675
Arkansas,DANVILLE TRUE VALUE HARDWARE,"702 MAIN STREET
DANVILLE, AR 72833-6870",(479) 495-2960
Arkansas,MOUNT IDA TRUE VALUE HOME CENTER,"223 HWY 270 WEST
MOUNT IDA, AR 71957-0001",(870) 867-3131
California,HEALDSBURG TRUE VALUE HOME CENTER,"359 Hudson St
Healdsburg, CA 95448-4415",(707) 431-9663
California,TRITCH TRUE VALUE HARDWARE,"1620 Colorado Blvd
Los Angeles, CA 90041-1403",(323) 255-8222
California,KIPER & KIPER TRUE VALUE HARDWARE,"31939 E Kings Canyon Rd
Squaw Valley, CA 93675-9202",(559) 332-2310
California,MONTECITO VILLAGE TRUE VALUE HARDWARE,"1470 E Valley Rd Ste 1a
Santa Barbara, CA 93108-1220",(805) 969-4419
California,ERVINS TRUE VALUE HARDWARE,"735 Skyline Blvd
Avenal, CA 93204-1816",(559) 386-9740
California,SORENSEN TRUE VALUE HARDWARE,"837 Oller St
Mendota, CA 93640-2320",(559) 655-4251
California,CANYON FEED AND SUPPLY,"29533 AUBERRY RD
PRATHER, CA 93651-9719",(559) 855-7480
California,RANCHO MONTECITO TRUE VALUE,"763 Montecito Ctr
Santa Rosa, CA 95409-2914",(707) 539-4071
California,TOZIERS TRUE VALUE PAINT & HARDWARE,"2384 Durham Dayton Hwy
Durham, CA 95938-9601",(530) 345-5291
California,NELS TAHOE HARDWARE,"1050 FREMONT ST
SOUTH LAKE TAHOE, CA 96150-8135",(530) 544-4126
California,MILLS HARDWARE,"3936 PHELAN ROAD
PHELAN, CA 92371-4143",(760) 868-3335
California,BLAKES TRUE VALUE HARDWARE,"1701 Riverside Ave
Paso Robles, CA 93446-1747",(805) 238-3934
California,ENCINAL TRUE VALUE HARDWARE,"2801 Encinal Ave
Alameda, CA 94501-4726",(510) 523-4821
California,HOME HARDWARE TRUE VALUE,"335 CLEMENT ST
SAN FRANCISCO, CA 94118-2315",(415) 876-3678
California,LIVE OAK BUILDING SUPPLY & T V HDWE,"10480 LIVE OAK BLVD
LIVE OAK, CA 95953-2019",(530) 695-1851
California,VILLAGE TRUE VALUE HARDWARE,"4257 MONTGOMERY DRIVE
SANTA ROSA, CA 95405-5306",(707) 539-1600
California,TRUE VALUE HARDWARE OF COTATI,"7520 Commerce Blvd.
Cotati, CA 94931",(707) 795-5456
California,LINCOLN TRUE VALUE HARDWARE,"1609 Lincoln Blvd
Venice, CA 90291-3501",(310) 821-1027
California,MAC'S EQUIPMENT INC,"5586 JAMES RD
TRANQUILLITY, CA 93668-9736",(559) 846-6534
California,CHICO TRUE VALUE,"230 W. East Ave
Chico, CA 95926",(530) 801-6794
California,TELEGRAPH HARDWARE,"6640 Telegraph Ave
Oakland, CA 94609",(510) 849-3001
California,MT. AUKUM STORE,"8080 MT. AUKUM RD.
MT. AUKUM, CA 95656-9998",(530) 620-3015
California,TRINI'S PLUMBING & TRUE VALUE,"110 ALTA ST.
GONZALEZ, CA 93926-9501",(831) 675-5253
California,RIVERDALE TRUE VALUE,"3478 W Mt Whitney Ave
Riverdale, CA 93656",(559) 867-3729
California,TRUE VALUE EASTERN SUPPLIES,"2900 Shattuck Ave
Berkeley, CA 94705-1809",(510) 841-8606
California,WIN LONG TRUE VALUE HARDWARE & SUPPLY,"2244 Irving St
San Francisco, CA 94122-1619",(415) 753-6862
California,GRANGE CO-OP,"1262 STABLER LANE
YUBA CITY, CA 95993-2620",(530) 777-3551
California,E.K. WOOD LUMBER COMPANY,"56075 U.S. HIGHWAY 111
THERMAL, CA 92274-9602",(760) 399-5189
California,SOLEDAD TRUE VALUE HARDWARE,"601 Front St
Soledad, CA 93960-3016",(831) 678-0164
California,HAWTHORNE TRUE VALUE HARDWARE,"13532 Hawthorne Blvd
Hawthorne, CA 90250-5808",(310) 676-2253
California,GUALALA BUILDING SUPPLY,"38501 S Highway 1
Gualala, CA 95445-8592",(707) 884-3518
California,OJAI TRUE VALUE HARDWARE,"1115 MARICOPA HWY
OJAI, CA 93023-3126",(805) 646-8339
California,REDDING TRUE VALUE HDWE,"2620 CHURN CREEK RD
REDDING, CA 96002-1125",(530) 222-5111
California,AL CAL GLASS & SUPPLY,"1082 Hwy 4
Arnold, CA 95223",(209) 795-4038
California,VILLAGE TRUE VALUE HARDWARE 2,"1810 Sebastopol Rd
Santa Rosa, CA 95407-6819",(707) 570-1800
California,INGLEWOOD TRUE VALUE HARDWARE & SUPPLY,"10600 Hawthorne Blvd
Lennox, CA 90304-1910",(323) 678-6261
California,BOB'S GOT IT TRUE VALUE HARDWARE,"1118 Firestone Blvd
Los Angeles, CA 90001-3737",(323) 581-4263
California,WIN LONG OCEAN HARDWARE,"1556 OCEAN AVE
SAN FRANCISCO, CA 94112-1716",(415) 769-5318
California,COAST HARDWARE & RADIO SHACK,"300 N MAIN STREET
FORT BRAGG, CA 95437-3406",(707) 964-2318
California,RODEO TRUE VALUE HARDWARE,"670 Parker Ave
Rodeo, CA 94572-1435",(510) 799-6420
Colorado,TEDS RENTAL & SALES INC.,"999 College Drive
Durango, CO 81301",(970) 247-2930
Colorado,YOUNGER BROS. LUMBER & HARDWARE,"6350 E 72nd Pl
Commerce City, CO 80022-1701",(303) 288-2611
Colorado,TOMKINS HARDWARE AND LUMBER,"127 NORTH MAIN STREET
CREEDE, CO 81130-9990",(719) 658-2240
Colorado,OURAY HARDWARE & MERCANTILE,"700 Main St
Ouray, CO 81427",(970) 325-0555
Colorado,CLARK'S HARDWARE,"4100 Ute Hwy
Lyons, CO 80540",(303) 823-6531
Colorado,BUENA VISTA TRUE VALUE,"29785 US Hwy 24n
Buena Vista, CO 81211-2035",(719) 395-8067
Colorado,LEWIS TRUE VALUE MERCANTILE,"311 Bayfield Center Dr
Bayfield, CO 81122-8827",(970) 884-9502
Colorado,LAMAR BLDG. MATERIAL SUPPLY,"224 N Main St
Lamar, CO 81052-2526",(719) 336-7793
Colorado,SAMUELSON TRUE VALUE OF MEEKER,"43900 Highway 13
Meeker, CO 81641-9638",(970) 878-3528
Colorado,DENVER TRUE VALUE HARDWARE,"6420 E Colfax Ave
Denver, CO 80220-1604",(303) 393-0073
Colorado,TRUE VALUE TRAILERS AND POWER EQUIPMENT,"635 Shoop Dr
Penrose, CO 81240-9523",(719) 784-0123
Colorado,RIDGWAY TRUE VALUE HARDWARE,"276 S Lena St
Ridgway, CO 81432",(970) 626-5717
Colorado,GRAND JUNCTION TRUE VALUE,"1838 N 12th St
Grand Junction, CO 81501-7612",(970) 241-2778
Colorado,ROARING FORK VALLEY COOP,"0760 HWY. 133
CARBONDALE, CO 81623-1540",(970) 963-2220
Colorado,MONTROSE HARDWARE,"601 E MAIN ST
MONTROSE, CO 81401-0000",(970) 249-4850
Colorado,TRUE VALUE ELIZABETH,"175 W KIOWA AVE
ELIZABETH, CO 80107-7934",(303) 646-2845
Colorado,TRUE VALUE HARDWARE,"1000 E PLATTE AVENUE
FORT MORGAN, CO 80701-2965",(970) 370-2021
Colorado,PEACH TREE TRUE VALUE HARDWARE,"2963 North Ave
Grand Junction, CO 81504-4988",(970) 245-1736
Colorado,DEPENDABLE LUMBER,"415 SECOND STREET
PAONIA, CO 81428-0000",(970) 527-4197
Colorado,YUMA HARDWARE,"117 S Main Street
Yuma, CO 80759",(970) 848-2090
Colorado,ASHLEY TRUE VALUE HARDWARE,"40 Cambridge Ave
Pueblo, CO 81005",(719) 561-1282
Colorado,FRUITA TRUE VALUE,"1690 Hwy 6 & 50
Fruita, CO 81521-2549",(970) 858-3100
Colorado,RANGELY TRUE VALUE,"105 W Main
Rangely, CO 81648",(970) 675-2454
Colorado,HAXTUN BUILDING CENTER,"321 S Colorado
Haxtun, CO 80731",(970) 774-7655
Colorado,SAMUELSON TRUE VALUE HARDWARE,"456 Breeze St
Craig, CO 81625-2620",(970) 824-6683
Colorado,ESTES TRUE VALUE / RADIO SHACK,"461 E Wonderview Ave
Estes Park, CO 80517",(970) 586-3496
Colorado,OTERO TRUE VALUE,"224 South Main Street
Fowler, CO 81039",(719) 263-5232
Colorado,ARKANSAS VALLEY LUMBER & SUPPLY,"20363 Hwy 50
Rocky Ford, CO 81067",(719) 254-7451
Colorado,ORCHARD MESA TRUE VALUE HARDWARE,"2686 US Hwy 50
Grand Junction, CO 81503-1936",(970) 241-1617
Colorado,DARNELL TRUE VALUE HARDWARE,"1000 N Main St Suite 1
Gunnison, CO 81230-2469",(970) 641-3332
Colorado,OLATHE TRUE VALUE HARDWARE,"321 Main
Olathe, CO 81425-6705",(970) 323-5708
Colorado,V & V TRUE VALUE HARDWARE,"148 Adams
Monte Vista, CO 81144-1422",(719) 852-3266
Colorado,SLAVENS TRUE VALUE HARDWARE,"237 W Main St
Cortez, CO 81321-3135",(970) 565-8571
Colorado,MINERS BUILDING TRUE VALUE,"319 E Main St
Aspen, CO 81611-1929",(970) 925-5550
Colorado,HOFFMAN DRUG TRUE VALUE HARDWARE,"900 Main St
Limon, CO 80828",(719) 775-2371
Colorado,FONTANA TRUE VALUE,"1630 East Main Street
Canon City, CO 81212",(719) 275-6486
Colorado,FLORENCE TRUE VALUE,"950 E MAIN STREET
FLORENCE, CO 81226-1647",(719) 784-1956
Colorado,LAGREE'S MARKET & HARDWARE,"10100 HWY 50
PONCHA SPRINGS, CO 81242-0001",(719) 207-4564
Connecticut,GOODY'S TRUE VALUE HARDWARE,"540 Main St
East Haven, CT 06512",(203) 469-5335
Connecticut,TAYLOR TRUE VALUE RENTAL,"304 BOSTON POST RD
ORANGE, CT 06477-3505",(203) 795-5251
Connecticut,NORTHEAST BUILDING SUPPLY,"1460 BARNUM AVE
BRIDGEPORT, CT 06610-3201",(203) 366-4757
Connecticut,TAYLOR TRUE VALUE RENTAL,"150 ENFIELD ST
ENFIELD, CT 06082-1804",(860) 741-5999
Connecticut,TRUE VALUE OF WINCHESTER,"276 Main Street
Winsted, CT 06098-1641",(860) 379-6747
Connecticut,TAYLOR TRUE VALUE RENTAL,"160 N Branford Rd
Branford, CT 06405",(203) 488-1644
Connecticut,GREENWICH TRUE VALUE HARDWARE,"205 Railroad Avenue
Greenwich, CT 06830",(203) 869-6750
Connecticut,KAMCO TRUE VALUE,"14 INDUSTRIAL PLAZA ROAD
DANBURY, CT 06810-4142",(203) 791-2400
Connecticut,WEED & DURYEA,"21 GROVE ST
NEW CANAAN, CT 06840-5337",(203) 966-2673
Connecticut,TAYLOR TRUE VALUE RENTAL,"155 BOSTON POST ROAD
WESTBROOK, CT 06498-1738",(860) 669-2832
Connecticut,FAZZINO AUTO TRUE VALUE,"120 N Colony St
Wallingford, CT 06492-3651",(203) 269-8779
Connecticut,MONTVILLE TRUE VALUE HARDWARE,"907 A Norwich New London Tpk
Uncasville, CT 06382-1917",(860) 848-3616
Connecticut,CONYERS TRUE VALUE HARDWARE,"63 Tolland Tpke
Manchester, CT 06042-1737",(860) 646-5707
Connecticut,BACK TO BASICS TRUE VALUE,"31 MAIN ST
TERRYVILLE, CT 06786-5101",(860) 589-8858
Connecticut,JOHNSON TRUE VALUE HARDWARE,"40 Fort Hill Rd
Groton, CT 06340-4798",(860) 448-1769
Connecticut,ENGLAND TRUE VALUE HDW,"661 BOSTON TPKE-RT 44
BOLTON, CT 06043-7401",(860) 649-1320
Connecticut,CHATFIELD TRUE VALUE HARDWARE,"190 Main St South
Southbury, CT 06488-2299",(203) 264-4775
Connecticut,TAYLOR & SON TRUE VALUE HARDWARE,"85 Railroad St
New Milford, CT 06776-2717",(860) 354-4441
Connecticut,EASTFORD BUILDING SUPPLY TRUE VALUE,"189 Eastford Rd - Rt 198
Eastford, CT 06242",(860) 974-1924
Connecticut,BRONSON TRUE VALUE HARDWARE,"129 Beach Pond Rd
Voluntown, CT 06384-1805",(860) 376-0605
Connecticut,WILTON HARDWARE,"21 River Road
Wilton, CT 06897",(203) 529-3650
Connecticut,KILLINGWORTH TRUE VALUE HARDWARE,"228 Route 81
Killingworth, CT 06419-1435",(860) 663-2531
Connecticut,CARR HARDWARE,"481 Enfield Street
Enfield, CT 06082",(860) 265-3901
Connecticut,CARR HARDWARE,"320 WEST MAIN STREET
AVON, CT 06001-3639",(860) 470-3053
Connecticut,SCHMIDTS & SERAFINES TRUE VALUE,"464 Chase Ave
Waterbury, CT 06704",(203) 754-5186
Connecticut,NORTHEAST BUILDING SUPPLY TRUE,"26 KENT RD S
CORNWALL BRIDGE, CT 06754-0001",(860) 672-4000
Connecticut,PETERSEN'S HARDWARE,"850 SULLIVAN AVE
SOUTH WINDSOR, CT 06074-2008",(860) 644-8013
Connecticut,MODERN LUMBER TRUE VALUE,"72 Canal St
Putnam, CT 06260",(860) 928-5287
Connecticut,TRUE VALUE HOME HARDWARE & GARDEN CENTER,"16 Railroad St
Simsbury, CT 06070-2201",(860) 651-5646
Connecticut,WESTPORT TRUE VALUE HARDWARE,"616 POST ROAD EAST
WESTPORT, CT 06880-4520",(203) 227-1211
Connecticut,TAYLOR TRUE VALUE RENTAL,"620 N COLONY RD
WALLINGFORD, CT 06492-2408",(203) 265-2824
Connecticut,TRUE VALUE HOME CENTER,"300 Flanders Rd
East Lyme, CT 06333-1710",(860) 739-5496
Connecticut,TRUE VALUE HOME CENTER,"1561 Main St
Willimantic, CT 06226-1129",(860) 423-1649
Connecticut,TRUE VALUE HOME CENTER,"9 Hendel Dr
Mystic, CT 06355-1964",(860) 536-9601
Connecticut,SHAGBARK TRUE VALUE,"Mt Parnassus Rd & Rt 82
East Haddam, CT 06423",(860) 873-1946
Connecticut,WOODBRIDGE TRUE VALUE,"219 Amity Rd
Woodbridge, CT 06525-2206",(203) 397-7797
Connecticut,BEMAN TRUE VALUE HARDWARE,"20 Hartford Ave
Granby, CT 06035-2304",(860) 653-2598
Connecticut,HOLDRIDGE TRUE VALUE HARDWARE & HOME & GARDEN SHOW,"749 Colonel Ledyard Hwy
Ledyard, CT 06339",(860) 464-8400
Connecticut,COUNTRY PAINT AND HARDWARE,"2410 Foxon Rd
North Branford, CT 06471-1513",(203) 481-5255
Connecticut,CITY TRUE VALUE,"750 Farmington Ave
Bristol, CT 06010-3915",(860) 582-6366
Delaware,HOCKESSIN TRUE VALUE HARDWARE,"324 Lantana Drive, Lantana Square
Hockessin, DE 19707",(302) 234-4777
Delaware,TRUE VALUE HARDWARE,"1302 Centerville Rd
Wilmington, DE 19808-6220",(302) 999-0523
Florida,TUMA TRUE VALUE HARDWARE,"10969 SW 40TH ST
MIAMI, FL 33165-4412",(305) 220-8827
Florida,INTERCITY LUMBER,"5301 Causeway Blvd
Tampa, FL 33619-6123",(813) 626-5232
Florida,SOUTHERN HARDWARE,"2620 BLANDING BLVD
MIDDLEBURG, FL 32068-5185",(904) 406-0566
Florida,THE HOME TRUE VALUE HARDWARE,"5324 Marina Drive
Holmes Beach, FL 34217-1709",(941) 778-2811
Florida,SPECIALTY TRUE VALUE HARDWARE,"10730 Overseas Hwy
Marathon, FL 33050-3453",(305) 743-3382
Florida,A & B HARDWARE TRUE VALUE,"2652 NW 29th St
Miami, FL 33142-6538",(305) 633-6627
Florida,TAYLOR TRUE VALUE RENTAL,"523 N HIGHWAY 98
OKEECHOBEE, FL 34972-2309",(863) 467-2239
Florida,TRUE VALUE RENTAL OF TAMPA,"13113 N FLORIDA AVE
TAMPA, FL 33612-3498",(813) 932-5377
Florida,MIAMI HOME CENTERS,"7325 SW 57th Avenue
South Miami, FL 33143-5311",(305) 667-1195
Florida,OVERSEAS LUMBER TRUE VALUE,"30251 Overseas Highway
Big Pine Key, FL 33043",(305) 872-3787
Florida,GULF COAST LUMBER & SUPPLY,"9141 Woodville Hwy
Woodville, FL 32362",(850) 421-5295
Florida,TAYLOR TRUE VALUE RENTAL,"4611 US HWY 27 S
SEBRING, FL 33870-5527",(863) 385-2239
Florida,MIAMI HOME CENTERS,"13740 SW 8th St.
Miami, FL 33184-3000",(305) 221-6828
Florida,CROOK & CROOK MAR SUPPLIERS TRUE VALUE,"2795 SW 27th Ave
Miami, FL 33133-3048",(305) 854-1686
Florida,TRUE VALUE HARDWARE,"412 E Sugarland Hwy
Clewiston, FL 33440-3126",(863) 983-5138
Florida,LOWERY'S TRUE VALUE,"26407 CORTEZ BLVD
BROOKSVILLE, FL 34602",(352) 793-9083
Florida,TAYLOR TRUE VALUE RENTAL,"204 CORTEZ RD. E.
BRADENTON, FL 34203-3527",(941) 758-3818
Florida,APPLE INDUSTRIAL SUPPLY CO.,"5900 ORANGE AVE
FORT PIERCE, FL 34947-1550",(772) 466-3800
Florida,FOREST TEK LUMBER TRUE VALUE,"88521 Overseas Hwy
Tavernier, FL 33070-2048",(305) 852-4300
Florida,ANDY'S TAYLOR TRUE VALUE RENTA,"1005 POPE RD
SAINT AUGUSTINE, FL 32080-5995",(904) 471-2991
Florida,TRUE VALUE RENTAL OF CRYSTAL R,"8081 W GULF TO LAKE HWY
CRYSTAL RIVER, FL 34429-7959",(352) 795-5600
Florida,TRUE VALUE RENTAL OF LAKELAND,"2134 E EDGEWOOD DR
LAKELAND, FL 33803-3604",(863) 665-1505
Florida,TRUE VALUE RENTAL OF PLANT CIT,"601 S COLLINS ST
PLANT CITY, FL 33563-5513",(813) 754-1587
Florida,TAYLOR TRUE VALUE RENTAL,"12090 METRO PARKWAY
FORT MYERS, FL 33966-8365",(239) 768-6393
Florida,TRUE VALUE RENTAL OF TAMPA,"9901 EAST HILLSBOROUGH AVE
TAMPA, FL 33610-5933",(813) 685-4551
Florida,MOORE'S TRUE VALUE HARDWARE,"10126 W. Indiantown Rd.
Jupiter, FL 33478-4707",(561) 935-5548
Florida,TRUE VALUE OF BOCA RATON,"399 NE Spanish River Blvd
Boca Raton, FL 33431",(561) 489-5300
Florida,IRISH TRAILS FARM & PET SUPPLY,"102 S. Hwy 27
Clermont, FL 34714",(352) 243-0924
Florida,GLEN CASH HARDWARE,"6874 East Mt. Vernon St.
Glen St. Mary, FL 32040-1234",(904) 259-2381
Florida,BIG PINE TRUE VALUE BUILDERS SUPPLY,"30770 Overseas Hwy
Big Pine Key, FL 33043-3420",(305) 872-2337
Florida,DIXIE ALUM TRUE VALUE HARDWARE,"88509 Overseas Hwy
Tavernier, FL 33070-2048",(305) 852-5104
Florida,COLLIER TRUE VALUE HARDWARE,"1970 NE 45th St
Oakland Park, FL 33308-5113",(954) 771-8590
Florida,TRUE VALUE HARDWARE,"18493 High Springs Main Street
High Springs, FL 32643-2662",(386) 454-1717
Florida,GULF COAST LUMBER & SUPPLY INC.,"3361 Crawfordville Hwy
Crawfordville, FL 32327-3151",(850) 926-5559
Florida,HOWLAND'S BUILDING SUPPLY,"610 11th St Hwy 51
Live Oak, FL 32064-0700",(386) 362-1235
Florida,STURGIS LUMBER,"4645 US 1
Vero Beach, FL 32967",(772) 562-4171
Florida,D & E HARDWARE & OUTDOORS,"2800 N US Highway 1
Mims, FL 32754-4113",(321) 264-3173
Florida,LOWERY'S TRUE VALUE HARDWARE,"1305 WC-48
BUSHNELL, FL 33513",(352) 793-9083
Florida,WEKIVA TRUE VALUE,"2648 W SR 434
Longwood, FL 32779-4440",(407) 960-1855
Florida,GULF COAST LUMBER,"1400 S JEFFERSON STREET
MONTICELLO, FL 32344-1638",(850) 997-2519
Georgia,DENT TRUE VALUE HARDWARE,"122 GENEVA ROAD N
BUENA VISTA, GA 31803-1806",(229) 649-7887
Georgia,DENNARD TRUE VALUE HARDWARE,"794 Second Street
Soperton, GA 30457-2400",(912) 529-3737
Georgia,POWERHOUSE TRUE VALUE RENTAL,"703 S HOUSTON LAKE RD
WARNER ROBINS, GA 31088-9095",(478) 551-1040
Georgia,KING'S AUTO AND HARDWARE,"255 S CHURCH ST
HOMERVILLE, GA 31634-3008",(912) 487-5338
Georgia,JIMMY PAYNE COAST HOME & AUTO,"113 Court St
Calhoun, GA 30701-2233",(706) 629-3947
Georgia,HARRIS TRUE VALUE,"505 W Union St
Vienna, GA 31092-1460",(229) 268-6494
Georgia,THOMPSONS TRUE VALUE HOME CENTER,"382 E Parker St
Baxley, GA 31513-0030",(912) 367-7723
Georgia,BUY LOW TRUE VALUE HARDWARE,"308 Nathan Dean Parkway
Rockmart, GA 30153-1645",(770) 684-5748
Georgia,COBB HARDWARE CO. INC.,"380 Roswell St SE
Marietta, GA 30060",(770) 428-6491
Georgia,ALEXANDERS TRUE VALUE,"4966 Town Creek School Rd
Blairsville, GA 30512-6905",(706) 745-6450
Georgia,GLAZES TRUE VALUE HDWE,"698 PEACHTREE PARKWAY
CUMMING, GA 30041-7466",(770) 889-4769
Georgia,THOMAS COUNTY HARDWARE,"1401 E. JACKSON ST.
THOMASVILLE, GA 31792-0000",(229) 226-5474
Georgia,PHILLIPS TRUE VALUE AND RENTAL CENTER,"138 W Lee St
Dawson, GA 39842-1658",(229) 995-3252
Georgia,TRUE VALUE HARDWARE,"204 E Central Ave
Valdosta, GA 31601-5718",(229) 242-5945
Georgia,SOUTHERN TRUE VALUE HARDWARE,"3686 Moreland Ave
Conley, GA 30288-1510",(404) 363-1144
Georgia,MATHIS TRUE VALUE,"44 CARTER AVE
ROME, GA 30165-1111",(706) 237-6275
Georgia,SOUTHERN BUILDERS SUPPLY-DUBLIN YARD,"1010 ACADEMY AVE
DUBLIN, GA 31021-0000",(478) 272-2721
Georgia,B & D TRUE VALUE HARDWARE,"114 Kaolin Rd
Sandersville, GA 31082-6900",(478) 552-1444
Georgia,HOWARDS TRUE VALUE HARDWARE,"3616 Buford Hwy
Duluth, GA 30096-3890",(770) 476-3006
Georgia,HOWARDS TRUE VALUE HARDWARE,"6884 Buford Hwy NE
Doraville, GA 30340-9998",(770) 449-1819
Georgia,HAMMOND-JONES HARDWARE,"110 N Main St
La Fayette, GA 30728-2418",(706) 638-2152
Georgia,HOWARD'S TRUE VALUE HARDWARE,"4272 Mundy Mill Rd
Oakwood, GA 30566",(678) 450-0500
Georgia,GEORGETOWN TRUE VALUE HARDWARE,"782a King George Blvd
Savannah, GA 31419",(912) 925-1560
Georgia,MCKEITHEN TRUE VALUE HARDWARE,"58 Independence Way
Statesboro, GA 30458",(912) 259-9675
Georgia,PIGGLY WIGGLY TRUE VALUE,"2113 BEMISS RD
VALDOSTA, GA 31602-1940",(229) 333-0525
Georgia,HOWARDS TRUE VALUE HARDWARE,"4336 CORNELIA HWY
LULA, GA 30554-2514",(770) 869-3023
Georgia,JACKSON TRUE VALUE HARDWARE,"124 N. Mulberry St
Jackson, GA 30233",(770) 775-3000
Georgia,FARM SUPPLY TRUE VALUE,"100 LOUIS DRIVE
BARNESVILLE, GA 30204-1480",(770) 358-1813
Georgia,URBAN HARDWARE,"12305 Crabapple Rd
Alpharetta, GA 30004",(770) 299-8225
Georgia,GEORGE'S PAINT AND HARDWARE,"1839 BLUE RIDGE HWY
BLAIRSVILLE, GA 30512-0000",(706) 745-6380
Georgia,C & W HARDWARE,"16 Moonshiners Way
Dawsonville, GA 30534",(706) 525-5140
Georgia,ANDERSON FEED & HARDWARE,"88 Milles Place
Dahlonega, GA 30533",(706) 864-3364
Hawaii,HAWAII TRUE VALUE HDW,"19-4084 OLD VOLCANO RD
VOLCANO, HI 96785-9997",(808) 967-7969
Hawaii,IKEUCHI TRUE VALUE HARDWARE,"Mamane St
Honokaa, HI 96727",(808) 775-0600
Hawaii,KULA HARDWARE & NURSERY,"3100 Lower Kula Rd
Kula, HI 96790",(808) 878-2551
Hawaii,HAIKU TRUE VALUE HARDWARE,"810 Haiku Rd. Ste 265
Haiku, HI 96708-4801",(808) 633-4682
Hawaii,TAKES TRUE VALUE,"29 Mohala St
Kaunakakai, HI 96748",(808) 553-8373
Hawaii,SUNSHINE TRUE VALUE HARDWARE,"55-522 Hawi Road
Hawi, HI 96719",(808) 889-5371
Idaho,CAPITAL LUMBER TRUE VALUE HARDWARE,"3105 W State St
Boise, ID 83703-5875",(208) 343-5481
Idaho,SNAKE RIVER RANCH & LUMBER,"328 HIGHWAY 95
HOMEDALE, ID 83628-3482",(208) 337-5588
Idaho,CHATEAU DRUG,"4th And Leadville - Giacobbi Square
Ketchum, ID 83340-2197",(208) 726-5696
Idaho,SOUTHFORK HARDWARE,"107 GROVE ST
PARMA, ID 83660-5700",(208) 722-5171
Idaho,M&W MARKETS,"130 HIGHWAY 30
FILER, ID 83328-9601",(208) 326-4328
Idaho,DARTS TRUE VALUE HARDWARE,"121 S Main St
Payette, ID 83661-2850",(208) 642-3232
Idaho,COMMUNITY TRUE VALUE HARDWARE & BUILDING SUPPLY,"309 Boyd St
Murtaugh, ID 83344-5038",(208) 432-5454
Idaho,KRENGEL'S HARDWARE,"628 Main Ave. So
Twin Falls, ID 83301",(208) 736-0080
Idaho,K HARDWARE,"1101 State Street
Weiser, ID 83672",(208) 549-0424
Idaho,JEROME VALLEY WIDE COUNTRY STORE,"1466 S LINCOLN AVE
JEROME, ID 83338",(208) 324-2388
Idaho,CASCADE HARDWARE,"720 MAIN STREET
CASCADE, ID 83611-0001",(208) 382-5200
Idaho,STANDARD TRUE VALUE - DRIGGS,"535 VALLEY CENTRE DRIVE
DRIGGS, ID 83422-4872",(208) 228-0156
Idaho,STANDARD TRUE VALUE - BLACKFOOT,"462 W HIGHWAY 26
BLACKFOOT, ID 83221-5521",(208) 785-1142
Idaho,BUHL VALLEY WIDE COUNTRY STORE,"708 HWY 30 EAST
BUHL, ID 83316",(208) 543-4356
Idaho,GOODING VALLEY WIDE COUNTRY STORE,"2442 MAIN STREET
GOODING, ID 83330",(208) 934-5664
Idaho,WENDELL VALLEY WIDE COUNTRY STORE,"175 WEST MAIN STREET
WENDELL, ID 83355",(208) 536-5361
Idaho,SHOSHONE VALLEY WIDE COUNTRY STORE,"11 US HWY 26
SHOSHONE, ID 83352",(208) 886-2253
Idaho,REXBURG VALLEY WIDE COUNTRY STORE,"1175 W MAIN ST
REXBURG, ID 83440",(208) 356-5448
Idaho,SALMON VALLEY WIDE COUNTRY STORE,"500 S CHALLIS ST
SALMON, ID 83467",(208) 756-2060
Idaho,CARR'S HM LBR CO & TRUE VALUE HARDWARE,"120 S 3rd E
Mountain Home, ID 83647-3019",(208) 587-3361
Idaho,OWYHEE TRUE VALUE HARDWARE & GIFT,"1020 1st Street S
Nampa, ID 83651-3802",(208) 466-8401
Idaho,ROCKY MOUNTAIN TRUE VALUE,"132 SOUTH WASHINGYON
EMMETT, ID 83617",(208) 365-3135
Idaho,STOKES FRESHFOOD MARKET,"1310 Pomerelle Ave
Burley, ID 83318",(208) 678-0425
Idaho,SPENCE TRUE VALUE HARDWARE,"915 E White Ave
Moscow, ID 83843-3924",(208) 883-8131
Idaho,BARNEYS TRUE VALUE,"117 North Division Street
Pinehurst, ID 83850",(208) 682-2621
Idaho,SCOTTY'S TRUE VALUE AND CARQUEST,"201 S State St
Rigby, ID 83442-1425",(208) 745-6498
Idaho,MARSING TRUE VALUE HARDWARE,"222 Main St
Marsing, ID 83639",(208) 896-4162
Idaho,CALDWELL TRUE VALUE,"2321 Cleveland Blvd
Caldwell, ID 83605",(208) 459-8781
Idaho,NAMPA TRUE VALUE,"421 12th Avenue Road
Nampa, ID 83686-9999",(208) 461-6077
Idaho,STOKES MARKET,"217 SO STATE STREET
PRESTON, ID 83263-1628",(208) 852-1731
Illinois,BARNES TRUE VALUE LUMBER,"318 W Lincoln Ave
Harrisburg, IL 62946-2008",(618) 253-7277
Illinois,AYDT TRUE VALUE HARDWARE,"116 E Market St
Mc Leansboro, IL 62859-1317",(618) 643-3401
Illinois,ARANOFF TRUE VALUE,"8235 S Cottage Grove
chicago, IL 60619",(773) 846-4463
Illinois,MORRISON TRUE VALUE,"104 S. Genesee Street
Morrison, IL 61270-2638",(815) 772-4810
Illinois,GRAND TRUE VALUE RENTAL,"1262 S BRIDGE ST
YORKVILLE, IL 60560-1715",(630) 553-3111
Illinois,FOREST LUMBER COMPANY,"17280 S Cicero Ave
Country Club Hills, IL 60478-2199",(708) 799-8240
Illinois,NOVOTNY TRUE VALUE,"5615 N Johnsburg Rd
Johnsburg, IL 60051",(847) 497-3103
Illinois,BROADVIEW TRUE VALUE HARDWARE,"1815 W Roosevelt Rd
Broadview, IL 60155-2923",(708) 344-4499
Illinois,GRASSERS TRUE VALUE,"404 W MAIN ST
MCNABB, IL 61335-9663",(815) 882-2111
Illinois,MAX MCQUEEN TRUE VALUE LBR & HDW,"302 E MAIN ST
OAKLAND, IL 61943-7157",(217) 346-2125
Illinois,GILLARD'S HARDWARE & RENTAL,"1678 Falcon Ave.
Carmi, IL 62821",(618) 382-2727
Illinois,SHAW TRUE VALUE HARDWARE,"202 N Main St
Marissa, IL 62257-1344",(618) 295-2501
Illinois,NOONAN TRUE VALUE RENTAL,"3031 SOUTH KOKE MILL ROAD
SPRINGFIELD, IL 62711-7055",(217) 546-7368
Illinois,CARLSON TRUE VALUE HARDWARE,"125 E Front St
Wheaton, IL 60187-5319",(630) 668-1111
Illinois,ANIOL TRUE VALUE HARDWARE,"13416 S Baltimore Ave
Chicago, IL 60633-1826",(773) 646-0730
Illinois,WOOD MART TRUE VALUE,"2000 N 12TH ST
QUINCY, IL 62301",(217) 223-3791
Illinois,TRUE VALUE RENTAL,"1105 W WEIR ST
LITCHFIELD, IL 62056-1035",(217) 324-4000
Illinois,POLSKI HARDWARE,"5212 W Belmont Ave
Chicago, IL 60641-4209",(773) 545-5618
Illinois,TRUE VALUE,"405 W. Walnut
Lexington, IL 61753-0169",(309) 365-2241
Illinois,STEPHENS TRUE VALUE HARDWARE,"5401 Caseyville Ave
Washington Park, IL 62204-2105",(618) 874-0409
Illinois,AMERICAN TRUE VALUE RENTAL,"328 S MAIN STREET
JACKSONVILLE, IL 62650-2507",(217) 245-4333
Illinois,GILLARD'S HARDWARE,"120 KOEHLER ST.
GRAYVILLE, IL 62844-1205",(618) 375-4804
Illinois,EDWARDS HARDWARE,"2804 N. HALSTED ST
CHICAGO, IL 60657-0000",(773) 525-6104
Illinois,PALATINE TRUE VALUE,"790 West Euclid
Palatine, IL 60067-7396",(847) 705-9200
Illinois,JAYS TRUE VALUE,"4608 N Kedzie Ave
Chicago, IL 60625-4405",(773) 478-7704
Illinois,NOONAN TRUE VALUE,"510 Bruns Lane
Springfield, IL 62702-4619",(217) 787-7225
Illinois,KNAPP & STEINER TRUE VALUE HARDWARE,"114 S Second St
Cissna Park, IL 60924-0038",(815) 457-2270
Illinois,LEHMAN MIDTOWN TRUE VALUE,"3473 N Broadway St
Chicago, IL 60657-2519",(773) 472-4435
Illinois,MIDWEST TRUE VALUE HARDWARE & PAINT,"2538 E 79th St
Chicago, IL 60649-5124",(773) 374-3390
Illinois,CHICAGO COAST TRUE VALUE,"6942 N Western Ave #44
Chicago, IL 60645-4711",(773) 743-1902
Illinois,CHICAGO TRUE VALUE HARDWARE,"3111 W 111th St
Chicago, IL 60655-2205",(773) 445-5200
Illinois,PLAZA TRUE VALUE HARDWARE,"11813 S Michigan Ave
Chicago, IL 60628-6214",(773) 264-2665
Illinois,MUNDELEIN TRUE VALUE HARDWARE,"516 N Seymour Ave
Mundelein, IL 60060-1837",(847) 566-6233
Illinois,ADDISON BUILDING MATERIALS,"3201 Busse Rd
Arlington Heights, IL 60005-4610",(847) 437-1205
Illinois,LEMBKE & SONS TRUE VALUE HARDWARE,"6734 Pershing Rd
Berwyn, IL 60402-4070",(708) 788-8956
Illinois,GASSER TRUE VALUE,"11359 W Industrial Park Ave
Galena, IL 61036-8112",(815) 777-1298
Illinois,TRUE VALUE OF GREENVILLE,"222 E Harris Ave
Greenville, IL 62246-2150",(618) 664-3682
Illinois,H & B TRUE VALUE,"5329 N Milwaukee Ave
Chicago, IL 60630-1222",(773) 631-5966
Illinois,GILLES TRUE VALUE HARDWARE,"7 N Sycamore St
Villa Grove, IL 61956-1535",(217) 832-8123
Illinois,JOHNSON TRUE VALUE,"501 E. Chestnut St
Mount Pulaski, IL 62548-1344",(217) 792-5911
Indiana,TRUE VALUE HARDWARE,"1119 S Anthony Blvd
Fort Wayne, IN 46803-1306",(260) 422-7492
Indiana,GRAND TRUE VALUE RENTAL,"635 MACARTHUR
JASPER, IN 47546-3670",(812) 481-2211
Indiana,CARROLL COUNTY TRUE VALUE,"1273 ALCO WAYS
DELPHI, IN 46923-9309",(765) 564-1000
Indiana,UPLAND TRUE VALUE HARDWARE,"800 East 500 South
Upland, IN 46989",(765) 998-2421
Indiana,ROSELAWN TRUE VALUE HARDWARE,"5653 E State Rd 10
Roselawn, IN 46372",(219) 345-3111
Indiana,CIRCLE SUPPLY,"1725 W STATE RD 28
FRANKFORT, IN 46041-9147",(765) 659-4641
Indiana,BLOOMINGTON HARDWARE,"2700 E Covenanter Dr
Bloomington, IN 47407-5455",(812) 339-7575
Indiana,STOLL BROS TRUE VALUE LUMBER LOOGOOTEE,"710 Industrial Avenue
Loogootee, IN 47553",(812) 295-2400
Indiana,JOHN HALL TRUE VALUE HARDWARE,"205-207 S Main St
Goshen, IN 46526-3722",(574) 533-3293
Indiana,GOECKER BUILDING SUPPLY & TRUE VALUE,"1800 S Walnut St
Seymour, IN 47274-9261",(812) 522-4181
Indiana,GOECKER BUILDING SUPPLYS TRUE VALUE,"2885 N State Hwy 3
North Vernon, IN 47265-7194",(812) 346-3627
Indiana,BRADYS THIS IS IT TRUE VALUE,"5306 W 25th Ave
Gary, IN 46406-3216",(219) 844-6831
Indiana,DAUBY'S TRUE VALUE,"1522 10th St
Tell City, IN 47586-1320",(812) 547-2566
Indiana,AYRES TRUE VALUE HARDWARE,"22 W Columbia St
Flora, IN 46929-1328",(574) 967-3822
Indiana,LUCAS ACKERMAN TRUE VALUE HARDWARE SUPPLY,"300 N Main St
Brownstown, IN 47220-1529",(812) 358-4552
Indiana,SCHNELLVILLE MILL TRUE VALUE,"8451 E Schnellville Rd
Birdseye, IN 47513-9417",(812) 389-2232
Indiana,STOLL BROS. TRUE VALUE LUMBER,"509 S East St
Odon, IN 47562",(812) 636-4053
Indiana,256 SUPPLY TRUE VALUE HARDWARE,"330 W Main St
Austin, IN 47102",(812) 794-6256
Indiana,PLYMOUTH TRUE VALUE,"1920 N OAK DRIVE
PLYMOUTH, IN 46563-3495",(574) 935-3511
Indiana,DANNEMILLER TRUE VALUE HARDWARE & SERVICE CENTER,"2991 S Grove Blvd
Bargersville, IN 46106",(317) 888-4109
Indiana,MAJORS TRUE VALUE HARDWARE,"8501 N State Road 9
Hope, IN 47246-9368",(812) 546-5614
Indiana,NORTHGATE TRUE VALUE HARDWARE,"2400 Broadway St
Anderson, IN 46012-1611",(765) 642-2400
Indiana,AKARD TRUE VALUE HARDWARE,"25 Boone Village
Zionsville, IN 46077-1231",(317) 873-5255
Indiana,MENY'S TRUE VALUE,"2805 Newton St
Jasper, IN 47546",(812) 634-9200
Indiana,MENY'S TRUE VALUE,"5410 E Main Street
Dubois, IN 47527",(812) 678-4000
Indiana,MENY'S TRUE VALUE,"1855 Main Street
Ferdinand, IN 47532",(812) 367-1850
Indiana,FUSEK'S TRUE VALUE EAST,"9501 East Washington Street
Indianapolis, IN 46229",(317) 636-7377
Indiana,LAKE SHORE TRUE VALUE HARDWARE,"7120 W 133rd Ave
Cedar Lake, IN 46303-9447",(219) 374-5981
Indiana,CEDAR LAKE TRUE VALUE HARDWARE,"9708 W Lincoln Plaza
Cedar Lake, IN 46303-8799",(219) 374-9711
Indiana,CROWN POINT TRUE VALUE,"200 Franciscan Drive
Crown Point, IN 46307",(219) 310-8796
Indiana,LOWELL TRUE VALUE HARDWARE,"2052 E. Commercial Ave.
Lowell, IN 46356",(219) 690-3744
Indiana,ENYARTS TRUE VALUE HOME CENTER,"1619 Main St
Rochester, IN 46975-2621",(574) 223-4920
Indiana,TOPS HOME CENTER - GREENSBURG IN,"916 W 4th St
Greensburg, IN 47240-1037",(812) 663-4366
Indiana,REMINGTON TRUE VALUE,"508 Harrington St.
Remington, IN 47977-8862",(219) 261-2860
Indiana,TOPS HOME CENTER - ELWOOD IN,"2927 South A St
Elwood, IN 46036-2229",(765) 552-2212
Indiana,FUSEK'S TRUE VALUE,"350 E New York St - Ste 100
Indianapolis, IN 46204",(317) 636-7377
Indiana,PORTLAND TRUE VALUE,"1100 N. Meridian St
Portland, IN 47371",(260) 726-6263
Indiana,TOPS HOME CENTER - RUSHVILLE IN,"212 S Main ST
Rushville, IN 46173",(765) 932-1290
Indiana,ELLETTSVILLE TRUE VALUE,"4610 W RICHLAND PLAZA DR
BLOOMINGTON, IN 47404-9775",(812) 876-2632
Iowa,TIEFENTHALERS TRUE VALUE HOME CENTER,"110 East Main
Breda, IA 51436",(712) 673-2325
Iowa,"KEMPKER'S TRUE VALUE AND RENTAL, INC.","608 S 9TH St
Burlington, IA 52601",(319) 752-1584
Iowa,STALLS TRUE VALUE FARM & HOME,"1731 Central Ave
Estherville, IA 51334-2438",(712) 362-3725
Iowa,TODD'S TRUE VALUE,"312 S Main St
Inwood, IA 51240-7808",(712) 753-4626
Iowa,BREEDING TRUE VALUE HARDWARE,"1317 N John Wayne Dr
Winterset, IA 50273-2400",(515) 462-2984
Iowa,HUBER STORE,"101 MAIN ST
FORT ATKINSON, IA 52144-7404",(563) 534-7222
Iowa,VOGEL AND THOMAS HARDWARE,"702 DAVIS AVENUE
CORNING, IA 50841-1419",(641) 322-4911
Iowa,KUETER TRUE VALUE,"220 S RIVERVIEW ST
BELLEVUE, IA 52031-1354",(563) 872-4459
Iowa,K & K TRUE VALUE HARDWARE,"1818 Grant St
Bettendorf, IA 52722-4927",(563) 359-4474
Iowa,TRUE VALUE HARDWARE AND HOME STORE,"221 W 6th
Carroll, IA 51401-2343",(712) 792-9363
Iowa,TRUE VALUE,"916 Okoboji Ave
Milford, IA 51351-1515",(712) 338-4323
Iowa,GASSER TRUE VALUE,"111 Westgate Drive
Maquoketa, IA 52060-2954",(563) 652-2446
Iowa,FARVER TRUE VALUE HARDWARE,"2617 1st Ave E
Newton, IA 50208-2700",(641) 791-9614
Iowa,"KEMPKER'S TRUE VALUE AND RENTAL, INC.","1904 Ave H
Fort Madison, IA 52627-4229",(319) 372-3515
Iowa,THOMPSON TRUE VALUE HARDWARE,"106 S Center St
Marshalltown, IA 50158-2821",(641) 753-6647
Iowa,FIVE STAR COOPERATIVE TRUE VALUE,"1949 N Linn Ave
New Hampton, IA 50659-9406",(641) 394-3052
Iowa,SHEA TRUE VALUE HARDWARE,"115 S Green Ave
Primghar, IA 51245-7720",(712) 957-2205
Iowa,"KEMPKER'S TRUE VALUE AND RENTAL, INC.","1405 E Washington
Mount Pleasant, IA 52641",(319) 385-1377
Iowa,PAULLINA HARDWARE,"104 E broadway Street
Paullina, IA 51046",(712) 949-3723
Iowa,FOGLE TRUE VALUE & HARDWARE,"1101 N 18TH STREET
CENTERVILLE, IA 52544-2245",(641) 856-6353
Iowa,"KEMPKER'S TRUE VALUE AND RENTAL, INC.","502 EAST 1ST STREET
HUXLEY, IA 50124-9721",(515) 597-2338
Iowa,GASSER'S TRUE VALUE,"128 INDUSTTRAIL PARK RDL
CASCADE, IA 52033-7738",(563) 852-7725
Iowa,RICEVILLE TRUE VALUE,"112 Woodland Ave
Riceville, IA 50466",(641) 985-2214
Iowa,KELLY HARDWARE,"96 10th St. North
Northwood, IA 50459",(641) 324-1763
Iowa,WEBSTER CITY TRUE VALUE,"541 Second St
Webster City, IA 50595",(515) 832-6300
Iowa,M & H TRUE VALUE HARDWARE,"1126 Main St
Rock Valley, IA 51247-1345",(712) 476-5903
Iowa,CRESTON TRUE VALUE HARDWARE,"801 West Townline
Creston, IA 50801-1124",(641) 782-2882
Iowa,FAIRFIELD TRUE VALUE,"2100 West Burlington Ave.
Fairfield, IA 52556",(641) 209-9200
Iowa,BLOOMFIELD TRUE VALUE,"211 Weaver Road
Bloomfield, IA 52537",(641) 664-3511
Iowa,ALBIA TRUE VALUE HARDWARE,"123 14th Ave W
Albia, IA 52531",(641) 932-2929
Iowa,ECONOMART FOODS COLUMBUS JUNCTION,"113 East Walnut Street
Columbus Junction, IA 52738",(319) 728-2313
Iowa,STUART TRUE VALUE HARDWARE & LUMBER,"112 N DIVISION ST
STUART, IA 50250",(515) 523-2332
Iowa,SAMPSON HARDWARE,"190 N. 1st St.
Carlisle, IA 50047",(515) 259-9872
Iowa,TRUE VALUE FARM & HOME CENTER,"416 River Ave N
Belmond, IA 50421-1039",(641) 444-3933
Iowa,VERN'S TRUE VALUE,"901 3rd Ave. S.E.
Independence, IA 50644-2857",(319) 334-3719
Iowa,SPELLERS TRUE VALUE,"1027 E. 4th St.
Waterloo, IA 50703",(319) 233-3172
Iowa,DEMARIS HARWARE,"309 W. 4th St
Saint Ansgar, IA 50472",(641) 736-4303
Iowa,MEYER TRUE VALUE,"115 W MISSION ST.
Strawberry Point, IA 52076-4400",(563) 933-4505
Iowa,HAMPTON HARDWARE,"416 Central Ave W
Hampton, IA 50441",(641) 456-1900
Iowa,LUMBER RIDGE HOME SOURCE,"829 1st Ave SE
oelwein, IA 50662",(319) 283-2122
Kansas,ISHAM TRUE VALUE HDW,"811 UNION ST
COFFEYVILLE, KS 67337-5823",(620) 251-0790
Kansas,COLUMBUS TRUE VALUE,"321 E MAPLE
COLUMBUS, KS 66725-1805",(620) 429-2291
Kansas,ROUTE 66 TRUE VALUE,"109 E. 12TH STREET
BAXTER SPRINGS, KS 66713-2702",(620) 856-3300
Kansas,MCPHERSON TRUE VALUE HOME CENTER,"300 N Centennial Dr
Mcpherson, KS 67460",(620) 241-1669
Kansas,CLARK FARM & HOME STORE TRUE VALUE,"4TH & COTTONWOOD
STRONG CITY, KS 66869-9646",(620) 273-6656
Kansas,HEINEN TRUE VALUE FARM SUPPLY,"307 Main St
Seneca, KS 66538-1923",(785) 336-2110
Kansas,GRAND TRUE VALUE RENTAL,"1505 VINE ST
HAYS, KS 67601-3429",(785) 625-7391
Kansas,ACKERMAN TRUE VALUE HARDWARE,"3147 U.S. HWY 24
Beloit, KS 67420-1577",(785) 738-5733
Kansas,ACKERMAN TRUE VALUE SUPPLY,"1119 U.S. HWY 24
Osborne, KS 67473-1731",(785) 346-2113
Kansas,HUPP TRUE VALUE HARDWARE,"728 E Harry St
Wichita, KS 67211-4301",(316) 267-6531
Kansas,MARK II LUMBER,"825 E 6TH STREET
EMPORIA, KS 66801-0000",(620) 342-0218
Kansas,VALLEY CENTER TRUE VALUE,"506 S MERIDIAN AVE
VALLEY CENTER, KS 67147-2145",(316) 755-1771
Kansas,DIXON'S TRUE VALUE,"325 N Main St
Kingman, KS 67068-1335",(620) 532-2631
Kansas,NEWTONS TRUE VALUE HARDWARE,"116 W Main St
Cherryvale, KS 67335-1322",(620) 336-2276
Kansas,LA TRUE VALUE HARDWARE,"631 Kansas Ave
Kansas City, KS 66105-1327",(913) 342-1025
Kansas,BELLEVILLE HOMETOWN LUMBER,"2409 US 81 Hwy
Belleville, KS 66935",(785) 527-5695
Kansas,ULYSSES BUILDING SUPPLY TRUE VALUE,"332 S Main
Ulysses, KS 67880",(620) 356-3877
Kansas,GRAND TRUE VALUE RENTAL OF PAR,"2925 MAIN ST
PARSONS, KS 67357-2645",(620) 421-3304
Kansas,NEWTON TRUE VALUE HARDWARE,"2801 West Main
Independence, KS 67301",(620) 331-2276
Kansas,STRASSER TRUE VALUE HARDWARE,"910 Southwest Blvd
Kansas City, KS 66103-1928",(913) 236-5858
Kansas,OAKLEY FARM & HOME CENTER,"124 Center
Oakley, KS 67748",(785) 671-3193
Kansas,BULGER TRUE VALUE,"1185 W SANTE FE
OLATHE, KS 66061-3281",(913) 782-5555
Kansas,COTTINS HARDWARE & RENTAL,"1832 Massachusetts St
Lawrence, KS 66044-4258",(785) 843-2981
Kansas,GARDEN TRUE VALUE,"1615 Taylor Plz W
Garden City, KS 67846-4025",(620) 275-4136
Kansas,ELKHART TRUE VALUE LUMBER,"850 West State Line Rd
Elkhart, KS 67950",(620) 697-4515
Kansas,COOK'S HOME AUTO & GIFT,"599 S. FOSSIL
RUSSELL, KS 67665-3519",(785) 483-1623
Kansas,HOMETOWN TRUE VALUE HARDWARE,"317 W 2nd St
Minneapolis, KS 67467-2313",(785) 392-2692
Kansas,OWENS TRUE VALUE,"113 E Washington St
Saint Francis, KS 67756-5677",(785) 332-2411
Kansas,TOP SHELF LUMBER & HARDWARE TRUE VALUE,"300 South Main St
Smith Center, KS 66967",(785) 282-6060
Kansas,OBERLIN FARM AND SUPPLY,"213 south penn, ave
Oberlin, KS 67749",(785) 470-7437
Kansas,TROY'S TRUE VALUE,"136 N Main St
Halstead, KS 67056-1708",(316) 835-2163
Kansas,NUTS AND BOLTS TOPEKA,"1321 SW 21ST STREET
TOPEKA, KS 66604-3066",(785) 233-9606
Kansas,HESSTON TRUE VALUE,"141 N Main St
Hesston, KS 67062-9143",(620) 327-4332
Kansas,BROWN'S TRUE VALUE,"411 Main St.
Atwood, KS 67730-1825",(785) 626-9623
Kansas,CLEAVER FARM & HOME,"2103 S Sante Fe
Chanute, KS 66720",(620) 431-6070
Kansas,NEMNICH TRUE VALUE,"212 N. Douglas Ave
Ellsworth, KS 67439",(785) 472-3202
Kansas,HAYSVILLE TRUE VALUE HARDWARE,"325 N Main
Haysville, KS 67060-1159",(316) 522-8665
Kansas,MACK TRUE VALUE HARDWARE,"6004 Johnson Dr
Mission, KS 66202-3331",(913) 432-3104
Kansas,LABETTE HARDWARE,"723 4TH STREET
Oswego, KS 67356",(620) 795-2331
Kansas,DIXON DRUG,"422 Broadway
Tribune, KS 67879-7701",(620) 376-4224
Kentucky,MOORES TRUE VALUE HARDWARE,"13529 Kentucky Rte 80
Garrett, KY 41630",(606) 358-4379
Kentucky,TRUE VALUE HARDWARE,"123 W G L Smith St
Morgantown, KY 42261-8601",(270) 526-3328
Kentucky,FREDERICK & MAY LUMBER CO.,"919 PRESTONBURG STREET
WEST LIBERTY, KY 41472-1227",(606) 743-3136
Kentucky,IDEAL TRUE VALUE HOME CENTER,"512 Adela Ave
Ludlow, KY 41016-1301",(859) 491-6666
Kentucky,JOHNSON LUMBER CO,"715 E MAIN ST
SCOTTSVILLE, KY 42164-1630",(270) 237-3296
Kentucky,KEITHS HARDWARE,"1201 Bardstown Rd
Louisville, KY 40204-1303",(502) 451-3133
Kentucky,ORMSBY TRUE VALUE HARDWARE,"1520 South Main
London, KY 40741-2014",(606) 864-2446
Kentucky,MURRAY TRUE VALUE HOME & AUTO HARDWARE,"972 Chestnut St
Murray, KY 42071-1965",(270) 753-2571
Kentucky,BRYANT & SON TRUE VALUE HARDWARE,"372 S 5th St
Williamsburg, KY 40769-1257",(606) 549-2385
Kentucky,R & S VRTY & TRUE VALUE HARDWARE,"100 Manchester Shopping Center
Manchester, KY 40962-1401",(606) 598-8222
Kentucky,WESTCOTT TRUE VALUE HARDWARE,"29276 US Hwy 119
South Williamson, KY 41503-3948",(606) 237-1313
Kentucky,GREEN RIVER TRUE VALUE HM CENTER,"932 Campbellsville St
Liberty, KY 42539-3110",(606) 787-7151
Kentucky,GORDONS TRUE VALUE HARDWARE,"321 Washington Avenue
Owensboro, KY 42301-5451",(270) 683-1115
Kentucky,ELKHORN CITY TRUE VALUE HARDWARE,"185 Main Street
Elkhorn City, KY 41522-9043",(606) 754-4591
Kentucky,CHEVY CHASE HARDWARE,"883 East High Street
Lexington, KY 40502",(859) 269-9611
Kentucky,MAYFIELD TRUE VALUE,"1776 STATE ROUTE 121S
MAYFIELD, KY 42066-4962",(270) 247-6001
Kentucky,BRYANT TRUE VALUE OF CORBIN,"1405 S Main Street
Corbin, KY 40701-1930",(606) 528-2175
Kentucky,GORDONS FARM & TRUE VALUE HARDWARE,"6180 Kentucky 54
Philpot, KY 42366-9642",(270) 729-4261
Kentucky,VAN HOOK TRUE VALUE HARDWARE,"121 E Pike St
Cynthiana, KY 41031-1527",(859) 234-1844
Kentucky,HOMETOWN TRUE VALUE HARDWARE,"258 Parkway Dr
Salyersville, KY 41465-9245",(606) 349-6959
Kentucky,TRUE VALUE HARDWARE,"508 N. Dixie BLVD
Radcliff, KY 40160",(270) 351-3134
Kentucky,LAWLESS-SMITH TRUE VALUE SPLY,"979 Steve Wariner Dr
Russell Springs, KY 42642-4544",(270) 866-3131
Kentucky,CLARK TRUE VALUE,"624 SOUTH MAIN ST.
MADISONVILLE, KY 42431-3040",(270) 452-2533
Kentucky,GIBBS TRUE VALUE HARDWARE,"1000 13th St
Ashland, KY 41101-2640",(606) 325-4681
Kentucky,GIBBS TRUE VALUE HARDWARE - GRAYSON,"670 South State Hwy 7
Grayson, KY 41143",(606) 474-4681
Kentucky,JTOWN HARDWARE AND RENTAL,"10513 Watterson Trail
Louisville, KY 40299",(502) 267-7406
Kentucky,EADS HARDWARE,"203 Commerce Dr
Paris, KY 40361",(859) 987-6630
Kentucky,HANK BROS.TRUE VALUE HARDWARE,"3101 Lone Oak Rd
Paducah, KY 42003-5743",(270) 554-4001
Kentucky,HANK BROTHERS TRUE VALUE HARDWARE,"3525 Wayne Sullivan Dr
Paducah, KY 42003-0313",(270) 443-8236
Kentucky,BELLERIVE TRUE VALUE HARDWARE,"170 Bellerive Blvd
Nicholasville, KY 40356",(859) 368-0010
Kentucky,MARION TRUE VALUE,"223 Sturgis Rd
Marion, KY 42064-1235",(270) 965-5425
Louisiana,MID POINT FEED AND SEED,"19744 HWY 40
COVINGTON, LA 70435-9315",(985) 892-2002
Louisiana,TRUE VALUE HARDWARE,"533 6th St
Mamou, LA 70554-3721",(337) 468-3513
Louisiana,GOLDEN MEADOW TRUE VALUE HARDWARE,"205 N Bayou Dr
Golden Meadow, LA 70357-2713",(985) 475-7441
Louisiana,MOSES TRUE VALUE,"1007 E 1ST ST
DERIDDER, LA 70634-4301",(337) 463-5520
Louisiana,CLEGG'S NURSERY - SIEGEN LANE,"5696 SIEGEN LANE
BATON ROUGE, LA 70809-4145",(225) 292-9153
Louisiana,KENTWOOD TRUE VALUE,"717 AVE G
KENTWOOD, LA 70444-2601",(985) 614-1060
Louisiana,REEVES TRUE VALUE HARDWARE,"1113 EAST THOMAS STREET
HAMMOND, LA 70401-1742",(985) 222-2305
Louisiana,REECO TRUE VALUE HARDWARE,"1762 Canal Blvd
Thibodaux, LA 70301-5225",(985) 448-2270
Louisiana,GRAND TRUE VALUE RENTAL,"1007 ST PATRICK HWY
THIBODAUX, LA 70301-2537",(985) 447-1887
Louisiana,SONNIERS WESTERN AUTO,"1115 THIRD AVE
KINDER, LA 70648-0277",(337) 738-2627
Louisiana,BUDGET BUILD HOME CENTER,"2204 E. E. Wallace Blvd.
Ferriday, LA 71334",(318) 757-8482
Louisiana,CLEGG'S NURSERY - DENHAM SPRINGS,"31275 LA HIGHWAY 16
DENHAM SPRINGS, LA 70726-8931",(225) 791-6060
Louisiana,GRAND TRUE VALUE RENTAL,"600 BARATARIA AVE.
HOUMA, LA 70360-4321",(985) 876-3107
Louisiana,GRAND TRUE VALUE RENTAL,"487 HWY 171 N
LAKE CHARLES, LA 70607-5346",(337) 855-7791
Louisiana,BREAUX BRIDGE TRUE VALUE HARDWARE,"219 S Main St
Breaux Bridge, LA 70517-5115",(337) 332-4579
Louisiana,GRAND TRUE VALUE RENTAL,"5612 CANAL BLVD
NEW ORLEANS, LA 70124-2813",(504) 483-7713
Louisiana,BRASSEUX'S HARDWARE INC,"9611 MAURICE AVE
MAURICE, LA 70555-0001",(337) 385-2500
Louisiana,DESOTO TOWN & COUNTRY,"2379 HWY 171
STONEWALL, LA 71078-0001",(318) 925-0303
Louisiana,LACOMBE TRUE VALUE HARDWARE,"28017 Highway 190
Lacombe, LA 70445-3279",(985) 882-5766
Louisiana,ELLZEYS TRUE VALUE HARDWARE,"42991 Hwy 23
Venice, LA 70091-4209",(504) 534-2391
Louisiana,DOUBLE W TRUE VALUE HARDWARE,"108 Brumley Road
Duson, LA 70529-4021",(337) 981-7494
Louisiana,TYNER-PETRUS TRUE VALUE HARDWARE,"101 Mill St
West Monroe, LA 71291",(318) 322-4474
Louisiana,GRAND TRUE VALUE RENTAL,"2004 E COLLEGE STREET
LAKE CHARLES, LA 70607-2075",(337) 478-3115
Louisiana,CAJUN TRUE VALUE HARDWARE,"607 E 1ST ST
KAPLAN, LA 70548-5101",(337) 643-7851
Louisiana,HOME BUILDING TRUE VALUE MATERIALS,"435 E Napoleon St
Sulphur, LA 70663-3458",(337) 527-5287
Louisiana,CHENEVERT TRUE VALUE HARDWARE #3,"2989 Monterrey Dr
Baton Rouge, LA 70814-4124",(225) 924-7464
Louisiana,ACADIAN TRUE VALUE HARDWARE,"7350 Scenic Hwy
Baton Rouge, LA 70807-5850",(225) 355-8270
Louisiana,ACADIAN TRUE VALUE HARDWARE,"1733 N Acadian Thruway W
Baton Rouge, LA 70802-1661",(225) 343-7862
Louisiana,MIKES TRUE VALUE HARDWARE,"540 Brownswitch Rd
Slidell, LA 70458",(985) 641-8400
Louisiana,WATSON TRUE VALUE HARDWARE,"34972 Old La Hwy 16
Denham Springs, LA 70706",(225) 664-4883
Louisiana,BRASSEUX'S HARDWARE,"300 South State Street
Abbeville, LA 70510-5920",(337) 893-1824
Louisiana,MAXWELL TRUE VALUE HDW. & LBR.,"484 HIGHWAY 80
DELHI, LA 71232-2345",(318) 878-3718
Louisiana,INDUSTRIAL SERVICE & SUPPLY,"1212 W LINCOLN RD
VILLE PLATTE, LA 70586-3050",(337) 363-1817
Louisiana,FARMERS TRUE VALUE HARDWARE,"221 S Adams Ave
Rayne, LA 70578-5835",(337) 334-2507
Louisiana,B & B HARDWARE & RENTAL,"13222 WEST MAIN STREET
LAROSE, LA 70373-2404",(985) 693-6824
Louisiana,CRAMER EQUIPMENT & SUPPLY CO,"325 N PARKERSON AVE.
CROWLEY, LA 70526-5046",(337) 393-6395
Louisiana,STANFORDS TRUE VALUE HARDWARE CENTER,"3637 Williams Blvd
Kenner, LA 70065-3416",(504) 443-1313
Louisiana,SMITH'S TV HDWE & EVERYTHING RENTAL CTR,"300 E Laurel Ave
Eunice, LA 70535-3420",(337) 457-3113
Maine,BIDDEFORD TAYLOR TRUE VALUE RENTAL,"6 COMMERCIAL STREET
BIDDEFORD, ME 04005-4408",(207) 282-5104
Maine,GRAND TRUE VALUE RENTAL,"191 PARSONS ROAD
PRESQUE ISLE, ME 04769-5115",(207) 760-9200
Maine,BROOKS BROS.,"73 MAIN STREET
BETHEL, ME 04217-4016",(207) 824-2158
Maine,GRAND TRUE VALUE RENTAL,"428 NORTH ST
HOULTON, ME 04730-3535",(207) 532-9200
Maine,WARREN TRUE VALUE HARDWARE,"420 Camden Rd
Warren, ME 04864-4275",(207) 273-3100
Maine,BEAR HILL TRUE VALUE HARDWARE,"163 Jefferson St
Waldoboro, ME 04572-6011",(207) 832-6066
Maine,HAYES TRUE VALUE HARDWARE,"204 Portland Road
Bridgton, ME 04009-4226",(207) 647-3342
Maine,PORT HARDWARE,"153 Port Road
Kennebunk, ME 04043",(207) 967-2371
Maine,SPRINGVALE HARDWARE,"489 Main St
Springvale, ME 04083-1499",(207) 324-2474
Maine,HAMILTON MARINE,"174 Main Street
Jonesport, ME 04649-3338",(207) 497-2778
Maine,STEEP FALLS BUILDING SUPPLY,"190 Ossipee Trail West
Standish, ME 04084",(207) 642-2211
Maine,CORNISH HARDWARE,"13 MAPLE ST
CORNISH, ME 04020-3101",(207) 625-8838
Maine,GRAY TRUE VALUE HARDWARE,"97 Shaker Rd
Gray, ME 04039-9531",(207) 657-3502
Maine,FREEPORT HARDWARE,"262 ROUTE 1, STE 1
FREEPORT, ME 04032-7015",(207) 865-9557
Maine,CAMPBELL'S AGWAY TRUE VALUE,"30 Garland Road
Winslow, ME 04901-0600",(207) 872-7039
Maine,CAMPBELL'S AGWAY TRUE VALUE,"398 Madison Avenue
Skowhegan, ME 04976-4229",(207) 474-2566
Maine,CAMPBELL'S AGWAY TRUE VALUE,"535 Maine Ave
Farmingdale, ME 04344-2901",(207) 582-4604
Maine,K & G AUTO & TRUE VALUE HARDWARE,"65 Main St
Richmond, ME 04357-1126",(207) 737-4401
Maine,CAMPBELL'S TRUE VALUE,"66 Main St
Madison, ME 04950-1223",(207) 696-3977
Maine,NORTHLAND TRUE VALUE HARDWARE,"1355 Auburn Rd
Turner, ME 04282",(207) 225-6000
Maine,DOVER TRUE VALUE HARDWARE,"69 East Main Street
Dover Foxcroft, ME 04426-1324",(207) 564-2274
Maine,KATAHDIN TRUE VALUE,"225 Aroostook Ave
Millinocket, ME 04462-0001",(207) 723-8600
Maine,MAC'S HARDWARE,"289 School Street
Unity, ME 04988",(207) 948-3800
Maine,CHAMPAGNE TRUE VALUE LUMBER & HARDWARE,"5 Champagne Dr
Jackman, ME 04945-0068",(207) 668-5281
Maine,JOHNSON'S TRUE VALUE HARDWARE,"188 North St
Calais, ME 04619-1608",(207) 454-2551
Maine,AMES TRUE VALUE HARDWARE & SUPPLY,"447 Bath Road
Wiscasset, ME 04578-4627",(207) 882-7710
Maine,SHOPPERS TRUE VALUE HARDWARE,"Mill Creek Shopping Center
South Portland, ME 04106-3697",(207) 799-6191
Maine,PINEO'S TRUE VALUE,"292 Main Street
Machias, ME 04654-0001",(207) 255-8387
Maryland,LUSBY MOTOR COMPANY INC.,"155 Main St
Prince Frederick, MD 20678",(410) 535-0442
Maryland,LUSBY'S TRUE VALUE,"122 MARKET ST
POCOMOKE CITY, MD 21851-1025",(410) 957-2900
Maryland,HODGES TRUE VALUE HARDWARE & HOME CENTER,"1517 S Philadelphia Blvd
Aberdeen, MD 21001-3916",(410) 273-6338
Maryland,GLEN ARM LUMBER TRUE VALUE,"12126 Long Green Pike
Glen Arm, MD 21057-9255",(410) 592-7131
Maryland,TRUE VALUE HARDWARE OF CUMBERLAND,"239 N Mechanic Street
Cumberland, MD 21502-2312",(301) 722-3032
Maryland,CARROLL ISLAND TRUE VALUE HARDWARE,"124 Carroll Island Rd
Baltimore, MD 21220",(410) 335-5434
Maryland,GRAND TRUE VALUE RENTAL,"9093 CENTREVILLE RD
EASTON, MD 21601-7009",(410) 820-7450
Maryland,THE LUMBERYARD,"1206 S Talbot St
Saint Michaels, MD 21663-2636",(410) 745-2533
Maryland,CHESAPEAKE HARDWARE,"5570-C SHADY SIDE ROAD
CHURCHTON, MD 20733-9639",(443) 607-4162
Maryland,KENT ISLAND TRUE VALUE,"26 Kent Town Market
Chester, MD 21619-2632",(410) 643-3500
Maryland,CLEMENT HARDWARE,"500 Ritchie Highway
Severna Park, MD 21146",(410) 647-4611
Maryland,A G HUNGERFORD & SON INC.,"12165 Rock Point Rd
Newburg, MD 20664",(301) 259-2540
Maryland,MONTEGO BAY TRUE VALUE,"12827 Coastal Hwy
Ocean City, MD 21842-4716",(410) 250-8665
Maryland,CHRISTOPHERS GLEN ECHO HARDWARE,"7301 Mcarthur Blvd
Bethesda, MD 20816",(301) 229-3700
Maryland,CHOPTANK SUPPLY INCORPORATED,"802 Crystal Avenue
Denton, MD 21629",(410) 479-1233
Maryland,CARROLL COUNTY TRUE VALUE,"4001 Houck Ave
Hampstead, MD 21074",(410) 374-4876
Maryland,CLARK SALES & SERVICE,"1607 WHITEFORD ROAD
DARLINGTON, MD 21034-1099",(410) 457-4100
Maryland,KEFAUVER TRUE VALUE LUMBER,"1333 W Jarrettsville Rd
Forest Hill, MD 21050-1103",(410) 836-6770
Maryland,FRATZ TRUE VALUE HARDWARE,"405 S Main St
Accident, MD 21520-2171",(301) 746-8672
Maryland,K & B TRUE VALUE,"912 Forest Dr
Annapolis, MD 21403-1756",(410) 268-3939
Maryland,HYATT TRUE VALUE BLDG SUPPLY,"26200 Ridge Rd
Damascus, MD 20872-1830",(301) 253-2131
Maryland,SOLOMON'S TRUE VALUE HARDWARE AND RENTAL,"20 Creston Ln
Solomons, MD 20688-3015",(410) 326-1000
Maryland,RIDGE HARDWARE,"13210 Point Lookout Rd
Ridge, MD 20680",(301) 872-0444
Massachusetts,TAYLOR TRUE VALUE RENTAL,"7 HIGH ST
GREAT BARRINGTON, MA 01230-1508",(413) 528-1770
Massachusetts,COUNTY LINE TRUE VALUE HARDWARE,"341 STURBRIDGE RD
BRIMFIELD, MA 01010-9640",(413) 245-7507
Massachusetts,WABAN HARDWARE,"1641 BEACON ST.
WABAN, MA 02468-1512",(617) 244-4566
Massachusetts,TAYLOR TRUE VALUE RENTAL,"197 MILL ST
LEOMINSTER, MA 01453-3297",(978) 537-9793
Massachusetts,TAYLOR TRUE VALUE RENTAL,"531 BROADWAY
HAVERHILL, MA 01832-1203",(978) 374-0136
Massachusetts,TAYLOR TRUE VALUE RENTAL,"22 UNION SQUARE
GARDNER, MA 01440-3047",(978) 632-8800
Massachusetts,JEROME'S PARTY PLUS,"253 UNION ST
WESTFIELD, MA 01085-2463",(413) 562-1777
Massachusetts,TAYLOR RENTAL ARLINGTON,"78 BOW ST
ARLINGTON, MA 02474-2715",(781) 646-9747
Massachusetts,TAYLOR TRUE VALUE RENTAL,"71 MECHANIC STREET
BELLINGHAM, MA 02019-1633",(508) 384-9444
Massachusetts,SHIRLEYS TRUE VALUE HARDWARE,"374 State Rd
Vineyard Haven, MA 02568-5624",(508) 693-3070
Massachusetts,TAYLOR TRUE VALUE RENTAL,"200 SHAKER RD
EAST LONGMEADOW, MA 01028-2733",(413) 525-2576
Massachusetts,TJ'S TRUE VALUE RENTAL,"577 GRANBY RD
SOUTH HADLEY, MA 01075-2122",(413) 533-5503
Massachusetts,BEACON HARDWARE,"513 CHURCH ST.
NEW BEDFORD, MA 02745-5106",(508) 995-1766
Massachusetts,TJ'S TRUE VALUE RENTAL,"301 RUSSELL ST
HADLEY, MA 01035-9522",(413) 584-4184
Massachusetts,BOURASSAS TRUE VALUE HDW.,"1837 ACUSHNET AVE
NEW BEDFORD, MA 02746-2117",(508) 995-6366
Massachusetts,BRUCKMANNS TRUE VALUE HARDWARE,"179 S Broadway
Lawrence, MA 01843-1426",(978) 686-4105
Massachusetts,TAYLOR TRUE VALUE RENTAL,"26 WASHINGTON ST
WELLESLEY HILLS, MA 02481-1705",(781) 237-4156
Massachusetts,TAYLOR TRUE VALUE RENTAL,"1059 WASHINGTON ST
EAST WEYMOUTH, MA 02189-1931",(781) 337-0793
Massachusetts,DANVERS TRUE VALUE,"63 Maple St
Danvers, MA 01923-2841",(978) 777-3718
Massachusetts,EVERETT SUPPLY & TRUE VALUE HARDWARE,"403 Main St
Everett, MA 02149-5728",(617) 387-6524
Massachusetts,SHIRLEY TRUE VALUE HARDWARE,"472 Shirley St
Winthrop, MA 02152-1248",(617) 846-2050
Massachusetts,E Z TRUE VALUE,"18 W Main St
West Brookfield, MA 01585-2817",(508) 867-7300
Massachusetts,ROUND'S HARDWARE,"290 Main Street
Stoneham, MA 02180",(781) 438-0116
Massachusetts,NORWOOD TRUE VALUE,"670 Washington St
Norwood, MA 02062-3546",(781) 352-4420
Massachusetts,WINBERG'S TRUE VALUE,"352 Bedford St.
Lakeville, MA 02347",(508) 947-5263
Massachusetts,TW'S WATSON FAMILY HARDWARE,"1 COLE PARKWAY
SCITUATE, MA 02066-0001",(781) 544-6077
Massachusetts,STANDARD MARINE OUTFITTERS,"137 POPE ISLAND
NEW BEDFORD, MA 02740-0137",(508) 990-7918
Massachusetts,DONATO TRUE VALUE TOOLS & HARDWARE,"41 Los Angeles St
Newton, MA 02458-1016",(617) 969-1785
Massachusetts,ASHBURNHAM TRUE VALUE HARDWARE,"41 Main St
Ashburnham, MA 01430-1247",(978) 827-5245
Massachusetts,SUDBURY TRUE VALUE RENTAL,"712 BOSTON POST RD
SUDBURY, MA 01776-3330",(978) 443-7368
Massachusetts,LEE HARDWARE,"221 Main Street
Lee, MA 01238",(413) 243-0786
Massachusetts,KELLY?S TRUE VALUE RENTAL,"161 State St
Newburyport, MA 01950",(978) 465-6650
Massachusetts,LORDEN TRUE VALUE HARDWARE,"53 Main St
Pepperell, MA 01463-1527",(978) 433-2348
Massachusetts,TEDFORD'S BUILDING MATERIALS AND HARDWARE,"10 BROWN SQUARE
IPSWICH, MA 01938-1831",(978) 356-4387
Massachusetts,VANDERHOOF HARDWARE CO.,"28 Main St
Concord, MA 01742",(978) 369-2243
Massachusetts,MARJAM CO.,"10 ALLEN STREET #185
SPRINGFIELD, MA 01108-1922",(413) 781-6110
Massachusetts,ABORN TRUE VALUE HARDWARE,"438 Harvard Street
Brookline, MA 02446-2437",(617) 739-9000
Massachusetts,RICHMOND TRUE VALUE HARDWARE,"899 Washington St
Braintree, MA 02184-5450",(781) 843-0066
Massachusetts,ATLAS TRUE VALUE HARDWARE,"1871 CENTRE STREET
WEST ROXBURY, MA 02132",(617) 325-9494
Massachusetts,YUMONT TRUE VALUE HARDWARE,"702 CENTRE STREET
JAMAICA PLAIN, MA 02130",(617) 524-4572
Michigan,ARGYLE TRUE VALUE HARDWARE,"5009 Ubly Road
Argyle, MI 48410-7703",(989) 658-8287
Michigan,JONESVILLE TRUE VALUE HARDWARE,"217 E CHICAGO ST
JONESVILLE, MI 49250-1002",(517) 849-9888
Michigan,BOLEMA TRUE VALUE BUILDING SUPPLIES,"1230 E Laketon Ave
Muskegon, MI 49442-6059",(231) 773-3391
Michigan,DECATUR LUMBER,"312 E Sherwood
Decatur, MI 49045-1148",(269) 423-7006
Michigan,HARBOR BEACH TRUE VALUE,"208 State St # 210
Harbor Beach, MI 48441-1205",(989) 479-6038
Michigan,BEN'S SUPERCENTER,"4436 MAIN ST
BROWN CITY, MI 48416-9701",(810) 346-2835
Michigan,SLIVENSKY HARDWARE,"107 SUPERIOR AVE
CRYSTAL FALLS, MI 49920-0001",(906) 875-4515
Michigan,STUDZ HARDWARE INC.,"4457 S Telegraph
Dearborn Heights, MI 48125",(313) 563-1058
Michigan,IVANREST TRUE VALUE HARDWARE & VARIETY,"3291 28th St SW
Grandville, MI 49418-1422",(616) 534-8838
Michigan,HAMMER TIME HARDWARE,"17400 LIVERNOIS AVE
DETROIT, MI 48221-3714",(313) 340-1200
Michigan,CARDS TRUE VALUE HARDWARE,"307 S Main St
Camden, MI 49232-9509",(517) 368-5101
Michigan,VILLAGE TRUE VALUE LUMBER,"1019 1st Street
Lake Odessa, MI 48849-1108",(616) 374-8944
Michigan,TRUE VALUE BARGAIN DEPOT,"2111 GREENWOOD
PRESCOTT, MI 48756-0001",(989) 873-4240
Michigan,BEN'S SUPERCENTER,"6233 CHURCH ST
CASS CITY, MI 48726-1111",(989) 912-3600
Michigan,LYNN AUTO TRUE VALUE HARDWARE,"303 Water Tower Dr
Kincheloe, MI 49788-1503",(906) 495-5955
Michigan,DICKINSON TRUE VALUE HOME CTR,"1500 W BREITUNG AVE
KINGSFORD, MI 49802-5127",(906) 774-5800
Michigan,TOWN 'N' COUNTRIES TRUE VALUE,"27740 FORD ROAD
GARDEN CITY, MI 48135-3400",(734) 422-2750
Michigan,AA HARDWARE,"8749 JOY ROAD
DETROIT, MI 48204-3285",(313) 934-2266
Michigan,PUBLIC TRUE VALUE HARDWARE& LBR,"1001 E 7 MILE RD
DETROIT, MI 48203-2161",(313) 891-7125
Michigan,GRAY & SON TRUE VALUE HARDWARE,"6747 W Warren Ave
Detroit, MI 48210-1135",(313) 898-4200
Michigan,AA HARDWARE II,"11616 WHITTIER RD
DETROIT, MI 48224-1540",(313) 527-4900
Michigan,HASLETT TRUE VALUE HARDWARE,"1581 HASLETT ROAD
HASLETT, MI 48840-8424",(517) 339-2829
Michigan,HAMMER TIME TRUE VALUE HARDWARE,"16380 E WARREN AVE
DETROIT, MI 48224-2716",(313) 444-1123
Michigan,TRUE VALUE RENTAL,"1109 SALZBURG AVE
BAY CITY, MI 48706-6302",(989) 686-2741
Michigan,GRAND TRUE VALUE RENTAL,"58904 US 131
THREE RIVERS, MI 49093-8231",(269) 279-6041
Michigan,TAYLOR TRUE VALUE RENTAL,"62 S WAVERLY ROAD
HOLLAND, MI 49423-3053",(616) 392-8539
Michigan,TAYLOR TRUE VALUE,"1888 MITCHELL RD
PETOSKEY, MI 49770-9686",(231) 347-1840
Michigan,SCHMITZER HARDWARE,"11944 Conquest St
Birch Run, MI 48415-9294",(989) 624-9222
Michigan,GILL-ROY'S HARDWARE,"4421 HANSON AVENUE
LEWISTON, MI 49756-8834",(810) 659-2291
Michigan,SWIFT TRUE VALUE HARDWARE,"402 Shelden Ave
Houghton, MI 49931-2138",(906) 482-0530
Michigan,TRUE VALUE RENTAL OF NORTHERN,"3575 14 MILE RD
CEDAR SPRINGS, MI 49319-9117",(616) 866-7670
Michigan,BEN'S SUPERCENTER,"6541 PLAZA DR
MARLETTE, MI 48453-1299",(989) 635-4069
Michigan,HAMMER TIME HARDWARE,"1117 STATE STREET
SAGINAW, MI 48602-5437",(989) 753-5611
Michigan,HAYDEN & SONS TRUE VALUE HARDWARE,"125 S Broadway St
Cassopolis, MI 49031-1242",(269) 445-2801
Michigan,VERNON TRUE VALUE HARDWARE,"7200 E M71
Vernon, MI 48476-9154",(989) 288-2273
Michigan,HOWELL TRUE VALUE HARDWARE,"1076 S Michigan Avenue
Howell, MI 48843-2672",(517) 548-1138
Michigan,WESTBROOK TRUE VALUE HARDWARE,"76 Howard Ave
Croswell, MI 48422-1223",(810) 679-3440
Michigan,MATTSONS TRUE VALUE,"223 S Ensley St
Howard City, MI 49329-8656",(231) 937-4381
Michigan,KERTON TRUE VALUE HARDWARE & LUMBER,"1122 N Saginaw St
Holly, MI 48442-1353",(248) 634-8951
Michigan,TECUMSEH TRUE VALUE HARDWARE,"2800 W. Chicago Blvd
Tecumseh, MI 49286-8301",(517) 423-7761
Minnesota,THE SAWMILL,"1380 7th Street
Granite Falls, MN 56241-1507",(320) 564-4221
Minnesota,TRUE VALUE,"423 1st Ave S
Saint James, MN 56081-1725",(507) 375-4151
Minnesota,CHISAGO TRUE VALUE,"10680 South Ave Ste A
Chisago City, MN 55013-9577",(651) 257-4134
Minnesota,TRUE VALUE,"108 S Main St
Mahnomen, MN 56557-4008",(218) 935-5148
Minnesota,CAMBRIDGE TRUE VALUE,"355 Garfield Street South
Cambridge, MN 55008-1152",(763) 689-4700
Minnesota,PROCTOR TRUE VALUE BLDG SPLY,"132 3RD AVE
PROCTOR, MN 55810-1616",(218) 624-3651
Minnesota,GRAND TRUE VALUE RENTAL,"2309 HWY 12 E
WILLMAR, MN 56201-5823",(320) 214-8744
Minnesota,ST FRANCIS TRUE VALUE HARDWARE,"3645 Bridge St NW
Saint Francis, MN 55070-9813",(763) 753-1265
Minnesota,NORTHWOODS TRUE VALUE,"730 Highway 169
Tower, MN 55790-8232",(218) 753-7750
Minnesota,HOOTERS LUMBER TRUE VALUE,"61904 State Hwy 28
Chokio, MN 56221-3124",(320) 324-7171
Minnesota,MILLERVILLE COOPERATIVE,"16523 COUNTY ROAD 7 NW
BRANDON, MN 56315-8244",(320) 876-2258
Minnesota,ROLLINGSTONE TV LUMBER,"111 ELM ST
ROLLINGSTONE, MN 55969-9749",(507) 689-2125
Minnesota,FARIBAULT FLEET SUPPLY,"80 WESTERN AVE
FARIBAULT, MN 55021-4517",(507) 334-3232
Minnesota,MARK'S HOME & MORE,"300 JAKE STREET
PERHAM, MN 56573-2100",(218) 346-6673
Minnesota,HARRYS TRUE VALUE HARDWARE,"216 E Main St
Waterville, MN 56096-1453",(507) 362-4377
Minnesota,TRUE VALUE,"527 Main St
Henderson, MN 56044",(507) 248-3230
Minnesota,"HOME SOLUTIONS TRUE VALUE, APPLIANCES & MATTRESSES","520 Faxon Rd
Norwood Young Ameri, MN 55368-9734",(952) 467-2404
Minnesota,LITTLE FALLS FLEET SUPPLY,"1800 1st Ave. NE
Little Falls, MN 56345-3381",(320) 632-9240
Minnesota,SAUK CENTRE FLEET SUPPLY TRUE VALUE,"1050 Centre St
Sauk Centre, MN 56378-1701",(320) 352-5261
Minnesota,LONG PRAIRIE FLEET SUPPLY,"940 Commerce Rd
Long Prairie, MN 56347-1525",(320) 732-6195
Minnesota,COX TRUE VALUE HARDWARE & APPLIANCE,"101 S Grant St
Houston, MN 55943-8443",(507) 896-3146
Minnesota,OSAKIS TRUE VALUE,"209 Central Ave
Osakis, MN 56360",(320) 859-4621
Minnesota,C & S SUPPLY TRUE VALUE,"1951 N Riverfront Dr
Mankato, MN 56001-3129",(507) 387-1171
Minnesota,HAMEL TRUE VALUE BUILDING CENTER,"18710 Highway 55
Plymouth, MN 55446-1941",(763) 478-6601
Minnesota,KENDELL TRUE VALUE LUMBER,"115 Franklin Street
Winona, MN 55987",(507) 454-3120
Minnesota,MAPLE LAKE TRUE VALUE LUMBER,"120 Oak Ave South
Maple Lake, MN 55358-0727",(320) 963-3612
Minnesota,LAKEFIELD TRUE VALUE,"304 Main St
Lakefield, MN 56150-1200",(507) 662-5100
Minnesota,CALEDONIA TRUE VALUE,"520 Old Highway Dr
Caledonia, MN 55921-1317",(507) 725-3986
Minnesota,FAIRMONT TRUE VALUE,"462 S STATE STREET
FAIRMONT, MN 56031",(507) 235-8783
Minnesota,TOWN & COUNTRY TRUE VALUE,"900 Atlantic Ave
Morris, MN 56267",(320) 589-1922
Minnesota,PIPESTONE TRUE VALUE,"207 E. Main
Pipestone, MN 56164",(507) 825-3792
Minnesota,GROTH LUMBER TRUE VALUE,"6747 PACIFIC AVE
WRIGHT, MN 55798-8273",(218) 357-2261
Minnesota,ARROW SAINT PETER,"201 S MINNESOTA AVENUE
SAINT PETER, MN 56082-2521",(507) 931-3830
Minnesota,ARROW OWATONNA,"122 W. Vine St
Owatonna, MN 55060-2385",(507) 451-4966
Minnesota,ARROW NORTHFIELD,"670 S. Water St
Northfield, MN 55057-2457",(507) 645-0617
Minnesota,ARROW ROCHESTER,"1201 S. Broadway - Crossroads Cente
Rochester, MN 55904-3862",(507) 292-6674
Minnesota,ARROW ROCHESTER,"1500 N. Broadway
Rochester, MN 55906-4146",(507) 282-0095
Minnesota,ARROW SHAKOPEE,"485 Marshall Road
Shakopee, MN 55379-2610",(952) 233-5010
Minnesota,ARROW SAINT CLOUD,"2006 Veterans Dr
St Cloud, MN 56303-3220",(320) 253-0370
Minnesota,MARVS TRUE VALUE,"31620 125th St NW
Princeton, MN 55371-3391",(763) 389-3201
Mississippi,KLYCE TRUE VALUE HARDWARE,"213 S Main St
Sardis, MS 38666-1724",(662) 487-2151
Mississippi,WALKER RENT ALL HARDWARE,"19079 Pineville Rd
Long Beach, MS 39560",(228) 864-0864
Mississippi,BELMONT TRUE VALUE HARDWARE,"9416 Hwy 61
Cary, MS 39054",(662) 873-6207
Mississippi,SARTAINS HOME & AUTO TRUE VALUE HARDWARE,"421 N Main St
Water Valley, MS 38965-2507",(662) 473-1711
Mississippi,ALEXANDER TRUE VALUE HARDWARE,"803 Hill St
Ellisville, MS 39437-2417",(601) 477-3312
Mississippi,HOME TOWN LBR & SPLY TRUE VALUE,"7812 LAMAR POOL RD
BILOXI, MS 39532-8787",(228) 872-3250
Mississippi,DIAMONDHEAD TRUE VALUE,"4405A Aloha Drive
Diamondhead, MS 39525",(228) 222-4808
Mississippi,TEDFORD TRUE VALUE HOME & AUTO,"101 Bailey Alley
Bruce, MS 38915-9694",(662) 983-2340
Mississippi,CRYSTAL SPRINGS HARDWARE,"306 E RAILROAD AVE
CRYSTAL SPRINGS, MS 39059-0937",(601) 892-1461
Mississippi,CLAYTON TRUE VALUE SUPPLY,"1381 Main St
Tunica, MS 38676",(662) 363-2122
Mississippi,ALEXANDER TRUE VALUE HARDWARE,"2488 Highway 15 South
Bay Springs, MS 39422",(601) 764-2161
Mississippi,REVETTES TRUE VALUE HARDWARE,"243 Main St
State Line, MS 39362-9528",(601) 848-7902
Mississippi,TRUE VALUE BUILDING MATERIALS,"125 Mcmahan Drive
Batesville, MS 38606",(662) 578-7555
Mississippi,THE TRUE VALUE HARDWARE STORE,"155 Hwy 15 By-Pass N
Pontotoc, MS 38863-1914",(662) 489-7440
Mississippi,ROLLING FORK TRUE VALUE,"19999 Hwy 61
Rolling Fork, MS 39159-5205",(662) 873-6216
Mississippi,THURMOND'S TRUE VALUE HARDWARE,"120 Court Square
Lexington, MS 39095-3635",(662) 834-2611
Mississippi,TRUE VALUE PASS ROAD,"504 E PASS ROAD
GULFPORT, MS 39507-0000",(228) 284-1733
Mississippi,HYDE BROTHERS TRUE VALUE HARDWARE,"861 S State St
Clarksdale, MS 38614-4803",(662) 624-2556
Mississippi,TRUE VALUE BUILDING MATERIALS,"560 N ROBINSON RD
SENATOBIA, MS 38668-2149",(662) 560-6260
Mississippi,MILLS TRUE VALUE HARDWARE,"205 Clinton Blvd
Clinton, MS 39056-5119",(601) 924-2424
Mississippi,TAYLOR TRUE VALUE RENTAL,"4219 LINCOLN ROAD EXT
HATTIESBURG, MS 39402-3065",(601) 261-5060
Mississippi,TRUE VALUE HOME CENTER,"1865 S Commerce St
Grenada, MS 38901-5106",(662) 226-4611
Missouri,SCHEIDT TRUE VALUE HARDWARE,"7320 Manchester Rd
Maplewood, MO 63143",(314) 647-1411
Missouri,HEIMAN TRUE VALUE,"Third & Vernon
Rockville, MO 64780-0039",(660) 598-2585
Missouri,HUNT'S HARDWARE,"205 E Main St
Miller, MO 65707-1001",(417) 452-3766
Missouri,GRAND TRUE VALUE RENTAL PARTY PLUS,"616 E KARSCH BLVD
FARMINGTON, MO 63640-1226",(573) 756-1630
Missouri,LIBERTY RENTAL 4 U,"410 N. CHURCH RD.
LIBERTY, MO 64068-1094",(816) 792-9922
Missouri,DICKEY BUB ROLLA,"1040 FORUM DR
ROLLA, MO 65401-2507",(573) 426-3900
Missouri,TRUE VALUE RENTAL,"16728 STATE HWY 13
BRANSON WEST, MO 65737-8839",(417) 272-0056
Missouri,DICKEY BUB TRUE VALUE,"1 Union Village Shopping Center
Union, MO 63084-2247",(636) 583-1177
Missouri,S & H TRUE VALUE HARDWARE,"7 Route A
Lockwood, MO 65682-9118",(417) 232-4543
Missouri,FARMERS TRUE VALUE EXCHANGE,"225 S Jefferson Ave
Lebanon, MO 65536-3259",(417) 532-3174
Missouri,DICKEY BUB TRUE VALUE,"708 East High Street
Potosi, MO 63664-1408",(573) 436-1177
Missouri,MILLS IRON & SUPPLY CO.,"1919 S Westwood Blvd
Poplar Bluff, MO 63901",(573) 785-2628
Missouri,GRAND TRUE VALUE RENTAL,"2043 S GARRISON AVE
CARTHAGE, MO 64836-3613",(417) 358-2800
Missouri,TRUE VALUE BUILDING SUPPLIES,"Rt 3 Box 3022 Hwy 160 W
Alton, MO 65606",(417) 778-6375
Missouri,SARCOXIE HARDWARE,"4119 Blackberry Rd
Sarcoxie, MO 64862",(417) 548-7312
Missouri,ASH GROVE TRUE VALUE,"307 Perryman
Ash Grove, MO 65604-8721",(417) 751-2911
Missouri,FREVERT TRUE VALUE HARDWARE,"409 S State Rte 291
Liberty, MO 64068-1914",(816) 781-4710
Missouri,FRIEND TRUE VALUE LUMBER,"145 W. Hwy 32
Licking, MO 65542-9898",(573) 674-3115
Missouri,DAVIS TRUE VALUE HARDWARE,"238 Hwy St
Doniphan, MO 63935-1024",(573) 996-3811
Missouri,PEARL BROS TRUE VALUE HARDWARE,"617 Main St
Joplin, MO 64801-2315",(417) 623-6848
Missouri,SEBUS BROTHERS TRUE VALUE,"405 Main St
Weston, MO 64098-1203",(816) 386-2211
Missouri,MIDWEST LUMBER & SUPPLY INC.,"1007 N Orange
Butler, MO 64730",(660) 679-3137
Missouri,DICKEY BUB TRUE VALUE,"100 Hilltop Village Center Drive
Eureka, MO 63025-1107",(636) 587-3900
Missouri,YOUNG'S TRUE VALUE HARDWARE,"417 East St
Mountain View, MO 65548-8565",(417) 934-1020
Missouri,WILLARD TRUE VALUE,"658 Hunt Rd
Willard, MO 65781-0001",(417) 685-3073
Missouri,C&W HARDWARE,"110 S. Mainstreet USA
Marceline, MO 64658",(660) 376-2837
Missouri,LOCKWOOD TRUE VALUE HARDWARE,"729 MAIN STREET
LOCKWOOD, MO 65682-0051",(417) 232-8064
Missouri,J BROTHERS TRUE VALUE HOME CEN,"1115 SPRINGFIELD ROAD-UNIT 1
AVA, MO 65608-5474",(417) 683-4171
Missouri,MIDLAND TRUE VALUE HARDWARE,"12012 Blue Ridge Ext
Grandview, MO 64030-1154",(816) 763-1300
Missouri,POWELL'S TRUE VALUE,"409 W. 4th St.
Appleton City, MO 64724-1405",(660) 476-5600
Missouri,RITCHIE & SONS TRUE VALUE,"113 N Ogden St
Sturgeon, MO 65284-9216",(573) 687-3313
Missouri,SUNRISE TRUE VALUE HARDWARE,"321 State Road F
Sunrise Beach, MO 65079-7393",(573) 374-9154
Missouri,JEFF'S TRUE VALUE HARDWARE,"2300 KENTUCKY AVENUE
PLATTE CITY, MO 64079",(816) 858-2414
Missouri,BRAD'S TRUE VALUE,"530 E MOUNT VERNON BLVD
MOUNT VERNON, MO 65712-2102",(417) 466-3769
Missouri,HANDYMAN TRUE VALUE HARDWARE,"500 W Washington St
Florissant, MO 63031-5917",(314) 837-1360
Missouri,HANDYMAN TRUE VALUE HARDWARE,"5405 Telegraph Rd
St. Louis, MO 63129-3555",(314) 894-8800
Missouri,HOLTS SUMMIT HARDWARE LLC,"190 W SIMON BLVD
HOLTS SUMMIT, MO 65043-1050",(573) 606-8390
Missouri,SOUTHSIDE HARDWARE,"6401 Hampton Ave
St Louis, MO 63109-3610",(314) 351-0204
Missouri,BURKE TRUE VALUE HARDWARE,"1207 St Francis St
Kennett, MO 63857-1513",(573) 888-1528
Missouri,JOURNAGAN TRUE VALUE HARDWARE,"1200 E Church St
Aurora, MO 65605-2321",(417) 678-4488
Montana,TAYLORS TRUE VALUE FARM STORE,"714 1/2 Roosevelt Hwy
Shelby, MT 59474-1800",(406) 434-5547
Montana,TRUE VALUE SUPERSTORE,"1313 W PARK ST #1
LIVINGSTON, MT 59047-2623",(406) 222-1181
Montana,FARMERS UNION LUMBER TRUE VALUE,"1012nd Ave. S
Wolf Point, MT 59201-1504",(406) 653-1612
Montana,STILLWATER LUMBER AND BUILDING CENTER,"1 S. Pratten St
Columbus, MT 59019",(406) 322-5322
Montana,STILLWATER LUMBER AND BUILDING,"66 S WOODARD AVE
ABSAROKEE, MT 59001-0001",(406) 328-4488
Montana,TRUE VALUE SUPERSTORE,"1313 W. Park Street Ste #1
Livingston, MT 59047-2623",(406) 222-1181
Montana,COUNTRY STORE STEVENSVILLE STORE #21,"3673 EASTSIDE HIGHWAY
STEVENSVILLE, MT 59870-6673",(406) 777-5527
Montana,RONAN TRUE VALUE HARDWARE,"63540 US Highway 93
Ronan, MT 59864",(406) 676-2740
Montana,BUTTE TRUE VALUE,"1301 HARRISON AVE
BUTTE, MT 59701-4801",(406) 723-7944
Montana,STOKES MARKET TRUE VALUE,"212 COTTONWOOD STREET
ANACONDA, MT 59711-1857",(406) 563-5383
Montana,DOUGS TRUE VALUE HARDWARE,"901 Main St
Thompson Falls, MT 59873",(406) 827-3251
Montana,ALL SEASONS HOME CENTER,"729 2nd Ave S
Glasgow, MT 59230",(406) 228-8288
Montana,HANSON'S TRUE VALUE,"1795 9th St West
Columbia Falls, MT 59912",(406) 892-3238
Montana,WESTERN RANCH SUPPLY,"7305 ENTRYWAY DR
BILLINGS, MT 59101-6244",(406) 252-6692
Montana,LEHMANS TRUE VALUE,"1420 Front St
Fort Benton, MT 59442",(406) 622-5042
Montana,BILLMAN'S TRUE VALUE HARDWARE,"133 W Railroad St
Cut Bank, MT 59427-2940",(406) 873-4123
Montana,ENNIS TRUE VALUE HARDWARE,"6 Sunrise Loop
Ennis, MT 59729-0648",(406) 682-4015
Montana,FAIRFIELD TRUE VALUE HARDWARE,"601 Central Ave
Fairfield, MT 59436",(406) 467-2509
Montana,HOMETOWN HARDWARE,"24 Main
Scobey, MT 59263",(406) 487-2628
Montana,TOWN & RANCH TRUE VALUE,"7821 Hwy 287
Townsend, MT 59644",(406) 266-4600
Montana,KOOTENAI DRUG TRUE VALUE,"611 E Missoula
Troy, MT 59935-0328",(406) 295-4361
Montana,LEWISTOWN TRUE VALUE,"301 W MAIN ST
LEWISTOWN, MT 59457-0000",(406) 538-5902
Nebraska,CALLAWAY TRUE VALUE,"105 E KIMBALL ST
CALLAWAY, NE 68825-2599",(308) 836-2831
Nebraska,TRUE VALUE HARDWARE,"1519 Stone St
Falls City, NE 68355-2662",(402) 245-2725
Nebraska,TRUE VALUE HARDWARE,"519 Nebraska Ave
Arapahoe, NE 68922-2832",(308) 962-7740
Nebraska,GLENNS TRUE VALUE HARDWARE AT PAWNEE CITY,"622 - 6th Street
Pawnee City, NE 68420",(402) 852-2280
Nebraska,COUNTRY SUPPLY TRUE VALUE,"205 Central Ave
Grant, NE 69140-3016",(308) 352-4554
Nebraska,STANTON HARDWARE,"914 IVY STREET
STANTON, NE 68779-2348",(402) 439-2183
Nebraska,GLENNS TRUE VALUE HARDWARE AT SOUTH CODDINGTON,"1550 S Coddington Ave Ste K
Lincoln, NE 68522",(402) 435-2120
Nebraska,GLENNS TRUE VALUE HARDWARE AT 70TH AND VAN DORN,"2825 S 70th St
Lincoln, NE 68506",(402) 489-2300
Nebraska,GLENNS TRUE VALUE HARDWARE AT WEST O,"1340 West O St.
Lincoln, NE 68528",(402) 435-0560
Nebraska,GLENNS TRUE VALUE HARDWARE AT HICKMAN,"6800 Hickman Rd
Hickman, NE 68372",(402) 792-2027
Nebraska,KERNER TRUE VALUE,"186 N 12th St
Tecumseh, NE 68450",(402) 335-3466
Nebraska,HERREN BROTHERS TRUE VALUE HARDWARE,"402 2nd St
Crawford, NE 69339-1054",(308) 665-1600
Nebraska,CHAPPELL LUMBER,"682 3rd St
Chappell, NE 69129",(308) 874-3304
Nebraska,HEBRON TRUE VALUE,"745 North 13th Street
Hebron, NE 68370",(402) 768-6895
Nebraska,WATTIER TRUE VALUE,"55786 Hwy 20
Randolph, NE 68771-0488",(402) 337-0455
Nebraska,HERREN BROTHERS TRUE VALUE LBR,"200 2ND ST
Harrison, NE 69346",(308) 668-2582
Nebraska,ORTMEIER TRUE VALUE HARDWARE & FARM STORE,"300 3rd St
Beemer, NE 68716-0247",(402) 528-3829
Nebraska,WISNER TRUE VALUE HARDWARE,"1019 Avenue E
Wisner, NE 68791-2248",(402) 529-6815
Nebraska,WEST POINT TRUE VALUE HARDWARE,"300 BUTTERFIELD ROAD
WEST POINT, NE 68788-1106",(402) 372-3122
Nebraska,TRUE VALUE,"303 North Main
Valentine, NE 69201-1841",(402) 376-1530
Nebraska,WILKE TRUE VALUE,"204 Grand Ave
Ravenna, NE 68869-1320",(308) 452-3598
Nebraska,KUSZAK HARDWARE & VARIETY,"635 O STREET
LOUP CITY, NE 68853-8003",(308) 745-1244
Nebraska,CENTRAL TRUE VALUE,"308 G St
Central City, NE 68826-1732",(308) 946-3386
Nebraska,KRUSE TRUE VALUE,"207 N Summit Ave
Hartington, NE 68739-5161",(402) 254-3840
Nebraska,OWENS TRUE VALUE HARDWARE,"541 Highway 61
Imperial, NE 69033",(308) 882-5611
Nebraska,MASTERS TRUE VALUE,"2505 Grand Ave Ste B
Kearney, NE 68847",(308) 708-7464
Nebraska,222 HARDWARE,"144 E 8th St
Cozad, NE 69130",(308) 784-2221
Nebraska,GORDON TRUE VALUE,"217 N Main Street
Gordon, NE 69343",(308) 282-1600
Nebraska,BOB'S TRUE VALUE,"1601 Plum Creek Parkway
Lexington, NE 68850",(308) 324-9945
Nevada,MOUND HOUSE TRUE VALUE HARDWARE & STORAGE,"10189 Hwy 50 East
Carson City, NV 89706-7440",(775) 246-7530
Nevada,KINGSBURY HARDWARE,"264 KINGSBURY GRADE
STATELINE, NV 89449-9800",(775) 588-5681
Nevada,RENNER TRUE VALUE HARDWARE,"2289 Highway 208
Smith, NV 89430-9710",(775) 465-2217
Nevada,TRUE VALUE HARDWARE,"401 W Goldfield Ave
Yerington, NV 89447-2387",(775) 463-1261
Nevada,LINCOLN TRUE VALUE,"169 Clover St
Caliente, NV 89008",(775) 726-3891
Nevada,NORTH VALLEYS HARDWARE,"160 Lemmon Drive
Reno, NV 89506-8799",(775) 677-0155
Nevada,STANDARD TRUE VALUE - LV RANCHO,"1767 N RANCHO DR
LAS VEGAS, NV 89106-1020",(702) 979-5609
Nevada,STANDARD TRUE VALUE - LAS VEGAS,"1640 E TROPICANA AVE
LAS VEGAS, NV 89119-7436",(702) 798-9960
Nevada,HOME HARDWARE & VARIETY,"387 S Moapa Valley Blvd
Overton, NV 89040",(702) 397-2555
Nevada,HOME HARDWARE & VARIETY,"706 Canyon Rd
Boulder City, NV 89005-1844",(702) 293-4199
Nevada,C&K HARDWARE,"70 Manley Ranch Rd
Round Mountain, NV 89045-9657",(775) 377-2416
Nevada,BROWN TRUE VALUE,"221 S Bridge St
Winnemucca, NV 89445-3108",(775) 623-2541
Nevada,SHELLY'S TRUE VALUE HARDWARE,"440 Greenbrae Drive
Sparks, NV 89431-3135",(775) 358-1841
Nevada,MATA HARDWARE,"6370 MAE ANNE AVE # 1&2
RENO, NV 89523-4733",(775) 287-2020
New Hampshire,GILFORD TRUE VALUE HARDWARE,"64 GILFORD EAST DRIVE
GILFORD, NH 03249-6550",(603) 524-5366
New Hampshire,TAYLOR TRUE VALUE RENTAL,"432 PORTLAND AVE
ROLLINSFORD, NH 03869-5906",(603) 742-1987
New Hampshire,PIP RENTAL,"67 NH RT. 11
FARMINGTON, NH 03835-3835",(603) 332-0911
New Hampshire,TAYLOR TRUE VALUE RENTAL,"276 N State Street
Concord, NH 03301-3405",(603) 224-1931
New Hampshire,TAYLOR TRUE VALUE RENTAL,"160 DANIEL WEBSTER HWY
BELMONT, NH 03220-3036",(603) 524-5553
New Hampshire,HUDSON TRUE VALUE HARDWARE,"114 Derry Road
Hudson, NH 03051-3709",(603) 883-3100
New Hampshire,ALTON TRUE VALUE & COUNTRY SUPPLY,"3 Monument Sq
Alton, NH 03809",(603) 875-3241
New Hampshire,HERITAGE TRUE VALUE HARDWARE,"1382 1st New Hampshire Tpke
Northwood, NH 03261-3216",(603) 942-7741
New Hampshire,WESTVILLE TRUE VALUE HARDWARE,"63 Plaistow Rd
Plaistow, NH 03865",(603) 382-5600
New Hampshire,COASTAL LIVING PAINT & HARDWARE,"82 Lafayette Road
Hampton Falls, NH 03844-2304",(603) 926-7777
New Hampshire,FRANCONIA HARDWARE INC.,"334 Main St
Franconia, NH 03580",(603) 823-5541
New Hampshire,HANOVER TRUE VALUE,"7 South Street
Hanover, NH 03755-2162",(603) 643-2308
New Hampshire,BRIDGE STREET TRUE VALUE,"122 BRIDGE STREET
PELHAM, NH 03076",(603) 635-1521
New Hampshire,COUNTRY 3 CORNERS TRUE VALUE,"833 S Stark Hwy
Weare, NH 03281-5033",(603) 529-7539
New Hampshire,LEBLANC TRUE VALUE HARDWARE,"621 Hayward St
Manchester, NH 03103-4419",(603) 623-6742
New Hampshire,DEPOT HOME CENTER,"56 Depot Street
Charlestown, NH 03603",(603) 826-3251
New Jersey,L E RITTER LUMBER CO.,"74 Second Street
Belvidere, NJ 07823",(908) 475-2366
New Jersey,ROJO TRUE VALUE HARDWARE,"4413-4415 Park Ave
Union City, NJ 07087",(201) 867-3375
New Jersey,DOWN-NECK EQUIPMENT TRUE VALUE,"192-222 CLIFFORD STREET
NEWARK, NJ 07105-1903",(973) 690-5533
New Jersey,VIOLA TRUE VALUE HOME CENTER,"180 Washington Ave
Nutley, NJ 07110-1922",(973) 667-7000
New Jersey,BUNCHERS TRUE VALUE HARDWARE,"320 Millburn Ave
Millburn, NJ 07041-1621",(973) 376-0776
New Jersey,BERKELEY HARDWARE & PAINT,"503 Springfield Ave
Berkeley Heights, NJ 07922-1180",(908) 464-2900
New Jersey,PINE HILL HARDWARE,"900 Erial Rd
Pine Hill, NJ 08021",(856) 783-1038
New Jersey,GRAND TRUE VALUE RENTAL OF BLOOMFIELD,"668 BLOOMFIELD AVENUE
BLOOMFIELD, NJ 07003-2520",(973) 748-7000
New Jersey,SUMMIT TRUE VALUE HARDWARE,"107 PARK AVE
SUMMIT, NJ 07901-3949",(908) 273-1170
New Jersey,GENERAL LUMBER TRUE VALUE,"200 Clinton Street
Hoboken, NJ 07030",(201) 659-5664
New Jersey,VERONA IND & BLDG SPLY CO INC,"186 VERONA AVE
NEWARK, NJ 07104-3632",(973) 483-8100
New Jersey,BRAEN SUPPLY,"1434 Ringwood Avenue
Haskell, NJ 07420",(973) 835-1419
New Jersey,SERGEANTSVILLE GRAIN & FEED,"735 Route 523
Sergeantsville, NJ 08557",(609) 397-0807
New Jersey,TRUE VALUE RENTAL OF ROCKAWAY,"319 ROUTE 46
ROCKAWAY, NJ 07866-3833",(973) 627-6227
New Jersey,LIMA HARDWARE & PLUMBING TRUE,"2306 BERGENLINE AVE
UNION CITY, NJ 07087-3524",(201) 867-1486
New Jersey,BECKER TRUE VALUE HARDWARE,"430 Highway 34
Colts Neck, NJ 07722",(732) 431-5858
New Jersey,GRAND TRUE VALUE RENTAL OF HACKETTSTOWN,"105 MAPLE AVENUE
HACKETTSTOWN, NJ 07840-0000",(908) 850-8515
New Jersey,DREYER'S LUMBER TRUE VALUE,"20 Watchung Ave
Chatham, NJ 07928-2751",(973) 635-5151
New Jersey,MARMORA HARDWARE,"29 S Shore Rd
Marmora, NJ 08223-1401",(609) 390-8499
New Jersey,WARDS TRUE VALUE,"206-212 Main St-Closter Dock Rd
Closter, NJ 07624-1905",(201) 768-7759
New Jersey,BOSTWICK TRUE VALUE HARDWARE,"Elmer & Center St
Elmer, NJ 08318-2262",(856) 358-7191
New Jersey,WEST TRENTON TRUE VALUE HARDWARE,"16 W Upper Ferry Road
Ewing, NJ 08628-2714",(609) 882-0811
New Jersey,AUDUBON HARDWARE & SUPPLY CO.,"106 Chestnut St
Audubon, NJ 08106-1510",(856) 547-2612
New Jersey,R & M HARDWARE,"284 WANAQUE AVE
POMPTON LAKES, NJ 07442",(973) 831-0082
New Jersey,REUBEN HARDWARE,"2323 S Main Rd
Vineland, NJ 08360-7134",(856) 692-4308
New Jersey,JASPAN BROTHERS HARDWARE,"117 First Ave
Atlantic Highlands, NJ 07716-1240",(732) 291-1500
New Jersey,I S SMICK LUMBER,"Rte 49 & Cottage Ave
Quinton, NJ 08072-0127",(856) 935-0500
New Jersey,TAYLOR HARDWARE INC.,"914 Main St
Belmar, NJ 07719-2724",(732) 681-0511
New Jersey,WALLACE TRUE VALUE HARDWARE,"750 Asbury Ave & 751 West Ave
Ocean City, NJ 08226",(609) 399-2227
New Jersey,MOORESTOWN TRUE VALUE HARDWARE,"300 Mill St
Moorestown, NJ 08057",(856) 235-0800
New Jersey,MONTGOMERY TRUE VALUE,"1325 Rt. 206
Skillman, NJ 08558-1922",(609) 683-5100
New Jersey,CENTRAL PAINT & BUILDING SUPPL,"896 BROADWAY
BAYONNE, NJ 07002-3052",(201) 858-4000
New Jersey,CORRADO'S GARDEN CENTER,"600 GETTY AVENUE
CLIFTON, NJ 07011-2161",(973) 340-3393
New Jersey,CORRADO'S TRUE VALUE HARDWARE,"65 RIVER ROAD
NORTH ARLINGTON, NJ 07031-8361",(201) 991-1150
New Jersey,CORRADO'S TRUE VALUE,"201 BERDAN AVE.
WAYNE, NJ 07470-3236",(973) 646-2199
New Jersey,MARLTON TRUE VALUE,"230 NORTH MAPLE AVENUE
MARLTON, NJ 08053-9400",(856) 334-5982
New Jersey,OCEAN GROVE HARDWARE,"51 Main Ave
Ocean Grove, NJ 07756-1562",(732) 774-4741
New Jersey,JASPAN TRUE VALUE HARDWARE,"91 Main St
Manasquan, NJ 08736-3037",(732) 223-1667
New Jersey,MONTVALE HARDWARE & PAINT SUPP,"8 RAILROAD AVENUE
MONTVALE, NJ 07645-2111",(201) 391-5200
New Jersey,GARDNER TRUE VALUE HARDWARE,"2489 Route 9
Ocean View, NJ 08230-1077",(609) 624-1625
New Mexico,TABET LUMBER & CONCRETE TRUE VALUE,"606 Baca Ave
Belen, NM 87002-3516",(505) 864-4478
New Mexico,SUN VALLEY HARDWARE #5,"1401 SILVER HEIGHTS BLVD
SILVER CITY, NM 88061-5529",(575) 538-2651
New Mexico,SUN VALLEY HARDWARE #3,"3567 SOUTH MAIN STREET
MESILLA PARK, NM 88047-0640",(575) 647-3648
New Mexico,SUN VALLEY HARDWARE #5,"400 EAST SMITH
TRUTH OR CONSEQUENCES, NM 87901-0640",(575) 894-3648
New Mexico,MOUNTAIN SUPPLY TRUE VALUE,"3429 MOUNTAIN VIEW BLVD
ANGEL FIRE, NM 87710-9999",(575) 377-2393
New Mexico,HENRYS TRUE VALUE HDW,"17342 STATE HWY 84 N
TIERRA AMARILLA, NM 87575-9998",(575) 588-7443
New Mexico,SUN VALLEY HARDWARE #2,"1700 COLUMBUS ROAD
DEMING, NM 88030-0640",(575) 544-3004
New Mexico,PWI #675,"1715 VADO RD
VADO, NM 88072-7103",(575) 233-2988
New Mexico,RICHARDS TRUE VALUE HARDWARE,"6429 US Hwy 550
Cuba, NM 87013",(575) 289-3705
New Mexico,ISAACS TRUE VALUE HARDWARE,"22 Main St
Clayton, NM 88415-3038",(575) 374-9621
New Mexico,JICARILLA TRUE VALUE,"Hawks Dr And US 64
Dulce, NM 87528",(575) 759-3453
New Mexico,LOMAS TRUE VALUE,"5112 Lomas Boulevard NE Ste B
Albuquerque, NM 87110-6452",(505) 255-2700
New Mexico,HEIGHTS TRUE VALUE,"5200 Eubank
Albuquerque, NM 87111",(505) 296-4000
New Mexico,ELDORADO TRUE VALUE,"7 CALIENTE ROAD
SANTA FE, NM 87508-3100",(505) 466-6522
New Mexico,TUCUMCARI LUMBER TRUE VALUE,"221 S 1st St
Tucumcari, NM 88401",(575) 461-1251
New Mexico,RIO RANCHO TRUE VALUE,"2108 Southern Blvd SE
Rio Rancho, NM 87124-3728",(505) 891-2300
New Mexico,PAT ROMERO FEED & SUPPLY TRUE VALUE,"406 Pecos St
Las Vegas, NM 87701",(505) 425-9771
New Mexico,TRUE VALUE HARDWARE,"101 Parker Ave
Santa Rosa, NM 88435-2346",(575) 472-3656
New Mexico,BIG JO TRUE VALUE HARDWARE,"1311 Siler Rd
Santa Fe, NM 87507-3151",(505) 473-2255
New Mexico,POJOAQUE TRUE VALUE,"5 W Gutierrez Ste 6
Santa Fe, NM 87506-0956",(505) 455-7111
New Mexico,DIAMOND G HOME CENTER & RENTAL,"225 El Morro
Grants, NM 87020",(505) 287-8861
New Mexico,RUIDOSO TRUE VALUE,"1013 MECHEM DR
RUIDOSO, NM 88345-7046",(575) 258-4525
New York,MCDONOUGH'S VALLEY HARDWARE,"1901 North Main St
Keene Valley, NY 12943",(518) 576-4330
New York,MIKCO BLDG MATERIALS,"179 CHRYSTIE
NEW YORK, NY 10002-1202",(212) 228-3388
New York,TAYLOR TRUE VALUE RENTAL,"1217 ERIE BLVD W
ROME, NY 13440-8303",(315) 336-7370
New York,VALUE DRUG TRUE VALUE,"349 NEW YORK AVE
HUNTINGTON, NY 11743-3342",(631) 427-2919
New York,MARDEN HARDWARE TRUE VALUE,"741 YONKERS AVE
YONKERS, NY 10704-2028",(914) 968-7636
New York,NOSTRAND TRUE VALUE HARDWARE,"1785 NOSTRAND AVE
BROOKLYN, NY 11226-7132",(718) 693-6327
New York,TAYLOR TRUE VALUE RENTAL,"3131 ERIE BLVD E
DEWITT, NY 13214-1201",(315) 446-7101
New York,AQUARIUS TRUE VALUE HARDWARE,"601 Amsterdam Ave
New York, NY 10024-1800",(212) 362-4173
New York,TAYLOR TRUE VALUE RENTAL,"4978 BROADWAY
DEPEW, NY 14043-3926",(716) 681-0860
New York,CAYUGA LUMBER,"801 W State St
Ithaca, NY 14850-3311",(607) 273-0245
New York,OMNI TRUE VALUE,"1226 N Wellwood Ave
West Babylon, NY 11704",(631) 756-1125
New York,S&J TRUE VALUE,"608 E 133RD STREET
BRONX, NY 10454-4606",(718) 585-2853
New York,IRVINGTON HARDWARE,"81 Main St
Irvington, NY 10533",(914) 591-7710
New York,PINE BUSH HOME & GARDEN,"105 Depot St
Pine Bush, NY 12566-6609",(845) 744-2011
New York,SAMPLE LUMBER,"53 CAMPGROUND ROAD
MOOERS, NY 12958-3501",(518) 236-7788
New York,UNITED TRUE VALUE HARDWARE,"7905 3rd Ave
Brooklyn, NY 11209-3601",(718) 748-0590
New York,P-B HARDWARE,"117 Main St
Port Byron, NY 13140",(315) 776-4313
New York,ISLAND HARDWARE INC.,"5 Waterfront Park
Fishers Island, NY 06390-0741",(631) 788-7233
New York,ALLERS TRUE VALUE LUMBER,"217 W Montauk Hwy
Lindenhurst, NY 11757-5654",(631) 226-6666
New York,VAN NEST HARDWARE,"669 Morris Park Ave
Bronx, NY 10462-3502",(718) 829-2338
New York,GLENDALE TRUE VALUE LUMBER,"71-21 73rd Place
Glendale, NY 11385",(718) 821-1840
New York,WADLER BROS INC.,"47293 Rt 28
Fleischmanns, NY 12430",(845) 254-5500
New York,LAFARGEVILLE AGWAY,"20410 Nys Route 411
La Fargeville, NY 13656",(315) 658-2211
New York,ALLEN AND PALMER TRUE VALUE,"112 N MAIN ST
NORTHVILLE, NY 12134-7025",(518) 863-4717
New York,GLOVERSVILLE TRUE VALUE,"25 BLEECKER STREET
GLOVERSVILLE, NY 12078-2909",(518) 773-2525
New York,CAPITAL PAINT & TRUE VALUE HAR,"3155 AMBOY ROAD
STATEN ISLAND, NY 10306-2796",(718) 987-1114
New York,TAYLOR TRUE VALUE RENTAL OF PORT JEFFERSON,"555 Hallock Ave Ste 5
Port Jefferson Stat, NY 11776-1221",(631) 928-2555
New York,KAMCO SUPPLY TRUE VALUE ALBANY,"36 Railroad Avenue
Albany, NY 12205-5721",(518) 729-1122
New York,RAINDEW TRUE VALUE,"35-15 Francis Lewis Blvd
flushing, NY 11358",(718) 539-7559
New York,KINGS WEST HARDWARE,"900 CONKLIN ST
FARMINGDALE, NY 11735-2411",(631) 249-4054
New York,ONPOINT FAMILY CENTER,"25-39 PARSONS BLVD
FLUSHING, NY 11354-1247",(718) 762-8041
New York,NUTHOUSE HARDWARE,"202 E 29th St
New York, NY 10016-8501",(212) 545-1447
New York,TARZIAN HARDWARE,"193 7th Ave
Brooklyn, NY 11215-3099",(718) 788-4120
New York,TAYLOR TRUE VALUE RENTAL,"5752 RT 209
KERHONKSON, NY 12446-3109",(845) 626-4747
New York,BRITTON TRUE VALUE HARDWARE,"125 Forest Ave
Locust Valley, NY 11560-1738",(516) 204-1781
New York,C & S TRUE VALUE HARDWARE,"788 Amsterdam Ave
New York, NY 10025",(212) 222-8720
New York,CENTURY TRUE VALUE,"275 E Sunrise Hwy
Lindenhurst, NY 11757",(631) 888-8810
New York,GENERAL STORE TRUE VALUE,"326 ROSLYN ROAD
ROSLYN HEIGHTS, NY 11577-2214",(516) 621-2227
New York,SAUGERTIES LUMBER TRUE VALUE,"223 Ulster Ave
Saugerties, NY 12477",(845) 246-4915
New York,ADVANTAGE TRUE VALUE,"82 Brown Pl
Bronx, NY 10454-4504",(718) 742-1200
North Carolina,COMMUNITY LUMBER,"1003 W. CORBETT AVE
SWANSBORO, NC 28584-8459",(910) 326-5051
North Carolina,GRAND TRUE VALUE RENTAL OF CLINTON,"611 WARSAW RD
CLINTON, NC 28328-3631",(910) 596-2228
North Carolina,TRUE VALUE RENTAL,"214 STAGE COACH TRL
GREENSBORO, NC 27409-1812",(336) 852-0881
North Carolina,DIXIE HARDWARE,"980 US HWY 158 E
SUNBURY, NC 27979-1000",(252) 465-8036
North Carolina,OCRACOKE TRUE VALUE,"950 Irvin Garrish Hwy
Ocracoke, NC 27960",(252) 928-4911
North Carolina,AMERICAN HARDWARE,"3509 1st Ave SW
Hickory, NC 28602-1603",(828) 328-3591
North Carolina,TRUE VALUE RENTAL,"13948 CAPITAL BOULEVARD
WAKE FOREST, NC 27587-6613",(919) 554-1444
North Carolina,WEST JEFFERSON TRUE VALUE HARDWARE,"104 Main St
West Jefferson, NC 28694-9123",(336) 246-3421
North Carolina,GRAND TRUE VALUE RENTAL OF DUNN,"306 SOUTH POWELL AVE
DUNN, NC 28334-0001",(910) 892-2050
North Carolina,FORT DOBBS HARDWARE,"406 Turnersburg Hwy
Statesville, NC 28625-2799",(704) 872-2300
North Carolina,L R WEST TRUE VALUE,"633 W RIDGEWAY ST
WARRENTON, NC 27589-1606",(252) 257-4779
North Carolina,SOUTHERN STATES - 78067,"814 CONOVER BOULEVARD WEST
CONOVER, NC 28613-2926",(704) 462-7274
North Carolina,SOUTHERN STATES - 79417,"1620 EAST ROOSEVELT BOULEVARD
MONROE, NC 28112-4017",(704) 283-2712
North Carolina,SOUTHERN STATES - 77877,"539 EAST PLAZA DRIVE
MOORESVILLE, NC 28115-8011",(704) 360-3938
North Carolina,SOUTHERN STATES - 79137,"3213 TAYLORSVILLE ROAD
STATESVILLE, NC 28625-2966",(704) 878-8950
North Carolina,JEFFERSON TRUE VALUE RENTAL,"427 S MAIN ST
JEFFERSON, NC 28640-9519",(336) 246-8136
North Carolina,CAUDELL TRUE VALUE LUMBER,"162 Sheek St
Mocksville, NC 27028",(336) 751-2167
North Carolina,HENDERSON TRUE VALUE,"2206 St Andrews St North
Tarboro, NC 27886",(252) 823-2138
North Carolina,TRUE VALUE OF SALISBURY,"1818 W Innes St
Salisbury, NC 28144-4304",(980) 330-6700
North Carolina,COMMUNITY HARDWARE,"102 S. Center St
Princeton, NC 27569",(919) 936-5161
North Carolina,WILLIAMS TRUE VALUE HARDWARE,"3011 BRIDGES ST MOREHEAD PLZ
MOREHEAD CITY, NC 28557-3531",(252) 726-7158
North Carolina,SAMPSON FARMERS TRUE VALUE HARDWARE,"1325 LISBON STREET
CLINTON, NC 28328-4611",(910) 592-2360
North Carolina,JONES TRUE VALUE HARDWARE,"1019 N BREAZEALE AVENUE
MOUNT OLIVE, NC 28365-1105",(919) 658-8783
North Carolina,HERITAGE HARDWARE TRUE VALUE,"7818 HWY 801 S
COOLEEMEE, NC 27014-9800",(336) 284-2234
North Carolina,OLMSTED VILLAGE HARDWARE,"244 Central Park Avenue
Pinehurst, NC 28374",(910) 255-0150
North Carolina,DAVIS TRUE VALUE,"70 NEW CLYDE HIGHWAY
CANTON, NC 28716-4210",(828) 492-0755
North Carolina,JAMESTOWN TRUE VALUE,"715 W Main Street
Jamestown, NC 27282",(336) 915-2400
North Carolina,BYRUM TRUE VALUE HARDWARE,"314 S Broad St
Edenton, NC 27932-1934",(252) 482-2131
North Carolina,GIBBS HARDWARE,"66 East Main Street
Old Fort, NC 28762",(828) 668-4249
North Carolina,MELVIN'S TRUE VALUE HARDWARE,"100 S. Main St.
Randleman, NC 27317",(336) 498-3925
North Carolina,ISLAND TRUE VALUE TACKLE & HARDWARE,"801 N Lake Park Blvd
Carolina Beach, NC 28428-4828",(910) 458-3049
North Carolina,ENCHANTED GARDENS,"3200 Hwy 92 E
Washington, NC 27889-8613",(252) 923-0862
North Carolina,BRIDGES HARDWARE & HOME CENTER TRUE VALUE,"301 W King Street
Kings Mountain, NC 28086-3302",(704) 739-5461
North Carolina,NEDO TRUE VALUE SHOPPING CENTER,"57866 Highway 12
Hatteras, NC 27943",(252) 986-2545
North Carolina,LUMBER RIVER TRADING/TRUE VALUE HARDWARE,"1675 N Roberts Ave
Lumberton, NC 28358-2281",(910) 738-7788
North Carolina,PEMBROKE HARDWARE,"7331 Hwy 711
Pembroke, NC 28372",(910) 521-3406
North Carolina,BURNEY TRUE VALUE HARDWARE,"11865 HWY 15-501S
Aberdeen, NC 28315-2763",(910) 944-1516
North Carolina,TAYLORSVILLE TRUE VALUE,"1351 nc hwy 16 s
Taylorsville, NC 28681",(828) 632-5143
North Carolina,BURNEY TRUE VALUE HARDWARE OF SEVEN LAKES,"270 N. TRADE ST.
SEVEN LAKES, NC 27376",(910) 944-1516
North Carolina,HARDWARE GENERAL,"386 East Street
Pittsboro, NC 27312",(919) 642-3688
North Dakota,CASH & CARRY TRUE VALUE LUMBER,"203 1st St S
New Rockford, ND 58356-1950",(701) 947-5364
North Dakota,MARTELLS CARQUEST,"3885 HWY 13
WISHEK, ND 58495-9701",(701) 452-4200
North Dakota,KINDRED IMPLEMENT & TRUE VALUE HARDWARE,"321 Hwy 46
Kindred, ND 58051-4400",(701) 428-9119
North Dakota,NODAK RANCH AND HOME SUPPLY TRUE VALUE,"8030 Highway 83 South East
Linton, ND 58552-9025",(701) 254-4200
North Dakota,COOPERSTOWN TRUE VALUE,"401 4TH ST SW
COOPERSTOWN, ND 58425-7534",(701) 797-2424
North Dakota,ELLENDALE TRUE VALUE,"139 Main St
Ellendale, ND 58436-7101",(701) 349-3274
North Dakota,GRAFTON TRUE VALUE,"85 E 4th St.
Grafton, ND 58237",(701) 352-1633
North Dakota,ELGIN TRUE VALUE,"104 Main
Elgin, ND 58533-7106",(701) 584-2802
North Dakota,CAVALIER TRUE VALUE,"213 W Main St
Cavalier, ND 58220-0603",(701) 265-8855
North Dakota,LISBON TRUE VALUE,"406 Main St
Lisbon, ND 58054-4142",(701) 683-4642
Ohio,CHAMPION TRUE VALUE,"4319 Mahoning Ave NW
Warren, OH 44483-1930",(330) 847-6999
Ohio,CARTER-JONES LUMBER 496,"216 E MAIN STREET
SUGARCREEK, OH 44681-0001",(330) 852-4611
Ohio,TAYLOR TRUE VALUE RENTAL,"450 W FAIR AVENUE
LANCASTER, OH 43130-1746",(740) 994-4371
Ohio,SMREKAR TRUE VALUE HARDWARE,"6112 14 ST CLAIR AVE
CLEVELAND, OH 44103-1628",(216) 431-5479
Ohio,THE HARDWARE EXCHANGE TRUE VALUE,"141 S Sandusky
Delaware, OH 43015",(740) 363-1301
Ohio,WESTERN AUTO ASSOC STORE,"265 MAIN ST
CONNEAUT, OH 44030-2651",(440) 599-8306
Ohio,CARTER-JONES LUMBER 70,"14601 KINSMAN ROAD
MIDDLEFIELD, OH 44062-9245",(440) 834-8164
Ohio,TRUE VALUE OF SALEM #59,"2340 East State Street
Salem, OH 44460",(330) 337-5350
Ohio,BUSY BEAVER BUILDING CENTER #74,"15891 STATE ROUTE 170
EAST LIVERPOOL, OH 43920-0001",(412) 828-2323
Ohio,TAYLOR TRUE VALUE RENTAL,"37360 FRENCH CREEK ROAD
AVON, OH 44011-1708",(440) 934-3736
Ohio,FACKLER TRUE VALUE RENTAL,"2326 NEWARK-GRANVILLE RD
GRANVILLE, OH 43023-9290",(740) 522-3128
Ohio,TORCH TRUE VALUE HARDWARE,"13510 Lorain Ave
Cleveland, OH 44111-3434",(216) 251-1063
Ohio,TRUE VALUE OF CANTON #61,"843 30TH STREET NW
CANTON, OH 44709-2901",(330) 477-8569
Ohio,C & E TRUE VALUE HARDWARE,"470 Richland Ave
Athens, OH 45701-3748",(740) 593-7705
Ohio,MCNEAR TRUE VALUE HARDWARE,"4113 CENTRAL AVE
SHADYSIDE, OH 43947-1275",(740) 676-9579
Ohio,CARSNER TRUE VALUE HARDWARE,"117 W Main St
Cardington, OH 43315-1008",(419) 864-6035
Ohio,LUMBER SERVICES TRUE VALUE,"1060 Trump Rd NW
Carrollton, OH 44615-9461",(330) 627-4980
Ohio,SANDER'S MARKET,"501 W MAIN ST
CARROLLTON, OH 44615-1029",(330) 476-6294
Ohio,TRUE VALUE OF MINERVA,"16400 Bayard Rd
Minerva, OH 44657",(330) 868-7709
Ohio,CARTER-JONES LUMBER 160,"1890 LOGAN-LANCASTER RD SE
LANCASTER, OH 43130-0001",(740) 654-7611
Ohio,TRUE VALUE OF ST MARY'S,"1677 Celina Road
St. Mary's, OH 45885",(419) 394-7851
Ohio,CARTER-JONES LUMBER 77,"1047 N TUSCARAWAS AVENUE
DOVER, OH 44622-2713",(330) 343-7737
Ohio,CORNERSBURG TRUE VALUE,"3408 Canfield Rd
Youngstown, OH 44512",(330) 792-4361
Ohio,TURNEY'S ACE HARDWARE,"12670 WEST GEAUGA PLAZA
CHESTERLAND, OH 44026-0000",(440) 729-2130
Ohio,CARTER-JONES LUMBER 495,"6139 SR 39
MILLERSBURG, OH 44654-0001",(330) 674-9060
Ohio,SHELIGA DRUG TRUE VALUE,"6025 Saint Clair Ave
Cleveland, OH 44103-1449",(216) 431-1035
Ohio,ATTICA LUMBER & TRUE VALUE HARDWARE,"406 E Tiffin St
Attica, OH 44807-9755",(419) 426-3451
Ohio,KREDO BROADVIEW TRUE VALUE HARDWARE,"7907 Broadview Rd
Broadview Heights, OH 44147-1201",(440) 526-6800
Ohio,MAPLE HEIGHTS TRUE VALUE HARDWARE,"16460 Broadway Ave
Maple Heights, OH 44137-2659",(216) 662-0300
Ohio,WEAVERS TRUE VALUE HARDWARE,"124 N Mill St
Fredericksburg, OH 44627-9593",(330) 695-6825
Ohio,ASSOCIATED BUYERS TRUE VALUE,"115 S Stone St
Fremont, OH 43420-2651",(419) 332-2621
Ohio,FULLER'S TRUE VALUE,"160 N Market St # 162
East Palestine, OH 44413-2019",(330) 426-9566
Ohio,JOE'S TRUE VALUE,"54 South Main St
Mount Gilead, OH 43338-1433",(419) 946-7811
Ohio,SANDER'S MARKET,"344 S CHESTNUT ST
JEFFERSON, OH 44047-1317",(440) 624-4150
Ohio,WESTERN OHIO TRUE VALUE HARDWARE,"4405 State Route 66
Minster, OH 45865-8727",(419) 628-3804
Ohio,CRAMER TRUE VALUE HARDWARE,"11925 Hamilton Ave
Cincinnati, OH 45231-1030",(513) 825-3399
Ohio,CRAMER TRUE VALUE HARDWARE,"8428 Vine St
Cincinnati, OH 45216-1132",(513) 761-7418
Ohio,DETTWILLER TRUE VALUE LUMBER,"634 E Main St
Pomeroy, OH 45769-1161",(740) 992-5500
Ohio,WESTERN OHIO TRUE VALUE,"702 N Eastern Ave
St. Henry, OH 45883-9580",(419) 678-3828
Ohio,SILVERTON TRUE VALUE HARDWARE,"7144 Montgomery Rd
Cincinnati, OH 45236-3801",(513) 891-2172
Oklahoma,VASSARS TRUE VALUE,"1046 E Main St
Cushing, OK 74023-2840",(918) 225-1624
Oklahoma,ADAM TRUE VALUE HARDWARE & AG SPLY,"1112 S George Nigh Expy
Mcalester, OK 74501-7196",(918) 423-4381
Oklahoma,KENNEDY TRUE VALUE,"715 Fir
Perry, OK 73077-4236",(580) 336-5420
Oklahoma,B & B TRUE VALUE HARDWARE,"509 Highway 54 W
Guymon, OK 73942-4533",(580) 338-7701
Oklahoma,NORICK'S TRUE VALUE,"10920 N. MAY AVENUE
OKLAHOMA CITY, OK 73120-6202",(405) 936-9000
Oklahoma,HALLS TRUE VALUE HARDWARE,"100 MAIN & BROADWAY
STONEWALL, OK 74871-0336",(580) 265-4645
Oklahoma,LINCOLN COUNTY TRUE VALUE HARDWARE,"308 W 15th St
Chandler, OK 74834-4204",(405) 258-0770
Oklahoma,LONE GROVE TRUE VALUE,"406 CASE CIRCLE
ARDMORE, OK 73401-0634",(580) 657-3339
Oklahoma,LINDLY'S HARDWARE,"911 S MAIN ST
JAY, OK 74346-3872",(918) 253-2316
Oklahoma,E&A AUTO,"207 E. MAIN STREET
DAVIS, OK 73030-1903",(580) 369-3371
Oklahoma,MIDTOWN HARDWARE,"4311 E. 31ST STREET
TULSA, OK 74135-1512",(918) 743-3344
Oklahoma,CHECOTAH TRUE VALUE HARDWARE,"602 ENTERPRISE AVENUE
CHECOTAH, OK 74426",(918) 473-2646
Oklahoma,QUINTON TRUE VALUE HARDWARE,"1020 Main
Quinton, OK 74561",(918) 469-2970
Oklahoma,DURANT TRUE VALUE LUMBER,"115 S 3rd Ave
Durant, OK 74701-5010",(580) 924-2400
Oklahoma,SOUTHEAST TRUE VALUE HARDWARE,"612 Highway 2 N
Wilburton, OK 74578-3621",(918) 465-5417
Oklahoma,EUFAULA TRUE VALUE HARDWARE,"625 South Main
Eufaula, OK 74432",(918) 689-2574
Oklahoma,HARTSHORNE TRUE VALUE,"1108 Pennsylvania Ave
Hartshorne, OK 74547",(918) 297-3636
Oklahoma,POTEAU TRUE VALUE HARDWARE,"101 CLAYTON AVE.
POTEAU, OK 74953",(918) 647-3808
Oklahoma,STROUD TRUE VALUE HARDWARE,"224 W. Main St.
Stroud, OK 74079-3609",(918) 968-3942
Oklahoma,SALLISAW TRUE VALUE HARDWARE,"808 E CHEROKEE
SALLISAW, OK 74955-4848",(918) 775-2530
Oklahoma,GRAND TRUE VALUE RENTAL OF GRO,"64047 E 290 RD
GROVE, OK 74344-8005",(918) 786-5758
Oklahoma,ROSS TRUE VALUE HARDWARE,"412 W Choctaw Ave #416
Chickasha, OK 73018-2432",(405) 224-2222
Oklahoma,ROSS TRUE VALUE,"100 S Choctaw Ave
El Reno, OK 73036-2649",(405) 262-3456
Oklahoma,KEITH TRUE VALUE,"911 S Lee
Fort Gibson, OK 74434-1298",(918) 478-2327
Oklahoma,HINTON TRUE VALUE,"2220 N BROADWAY
Hinton, OK 73047",(405) 542-6264
Oklahoma,PETERS TRUE VALUE HARDWARE,"1865 N. Osage Ave.
Dewey, OK 74029-2314",(918) 534-2430
Oklahoma,HOPE TRUE VALUE HARDWARE,"614 S Green Ave
Purcell, OK 73080-5237",(405) 527-2034
Oklahoma,SISCO TRUE VALUE HARDWARE,"1116 S Main St
Grove, OK 74344-2800",(918) 786-4101
Oklahoma,PETTY'S COMMUNITY HARDWARE,"17699 SE 29TH
CHOCTAW, OK 73020-0001",(405) 390-8888
Oklahoma,BENSON TRUE VALUE HARDWARE,"102 S Woody Guthrie St
Okemah, OK 74859-4047",(918) 623-0192
Oklahoma,HOOKER HARDWARE & AUTO,"116 E. Hwy 54
Hooker, OK 73945",(580) 652-1225
Oregon,WOODSTOCK HARDWARE AND GARDEN,"4430 SE WOODSTOCK BLVD.
PORTLAND, OR 97206-0000",(503) 771-6731
Oregon,JOHN BOY'S MERCANTILE,"186 E Main
Alsea, OR 97324-9407",(541) 487-4462
Oregon,CAMPS TRUE VALUE HARDWARE,"1070 E POWELL BLVD
GRESHAM, OR 97030-8030",(503) 665-1138
Oregon,OREGON FEED AND IRRIGATION,"2215 NW 6TH ST
REDMOND, OR 97756-1214",(541) 923-5166
Oregon,M&W MARKETS,"900 SW 23RD ST
REDMOND, OR 97756-9584",(541) 548-5070
Oregon,TRUE VALUE RENTAL,"2207 Baseline St
Cornelius, OR 97113-8617",(503) 992-7368
Oregon,MID COLUMBIA PRODUCERS TRUE VALUE HARDWARE,"820 Hwy 206
Wasco, OR 97065",(541) 442-5701
Oregon,KILGORE BLACKMAN BUILDING MATERIALS,"5444 Commercial St SE
Salem, OR 97306-1120",(503) 581-1611
Oregon,GRANGE CO-OP HOME & GARDEN SHOWPLACE,"2531 S Pacific Hwy
Medford, OR 97501-8760",(541) 772-4730
Oregon,NYSSA MERCANTILE,"119 MAIN STREET
NYSSA, OR 97913-0001",(541) 372-6470
Oregon,RICHLAND FEED & SEED,"114 1st St
Richland, OR 97870",(541) 893-6136
Oregon,KIMMEL TRUE VALUE HARDWARE & APPL,"1816 1st St
Tillamook, OR 97141-2202",(503) 842-4204
Oregon,MERRILL TRUE VALUE LUMBER,"234 E Front St
Merrill, OR 97633",(541) 798-5911
Oregon,JOHN DAY TRUE VALUE,"161 E Main St
John Day, OR 97845-1210",(541) 575-0632
Oregon,VERNONIA TRUE VALUE HARDWARE,"834 Bridge St
Vernonia, OR 97064-1224",(503) 429-6364
Oregon,STEARNS TRUE VALUE HARDWARE,"204 SE LOCUST
OAKLAND, OR 97462-9754",(541) 459-4213
Oregon,DON'S LUMBER & TRUE VALUE HARDWARE,"603 1ST ST
ADRIAN, OR 97901-5099",(541) 372-2433
Oregon,GRANGE CO-OP TRUE VALUE,"225 S Front Street
Central Point, OR 97502-2393",(541) 664-6691
Oregon,WILCO FARM STORES - SPRINGFIELD,"1401 21st Street
Springfield, OR 97477-3478",(541) 726-0950
Oregon,WILCO FARM STORES - CANBY,"195 S Hazel Dell Way
Canby, OR 97013-7824",(503) 266-2213
Oregon,WILCO FARM STORES - OREGON CITY,"19224 S. Molalla Ave.
Oregon City, OR 97045-8976",(503) 656-0616
Oregon,WILCO FARMERS - MCMINNVILLE,"2741 N Hwy 99w
Mcminnville, OR 97128-9209",(503) 472-6154
Oregon,WILCO FARMERS - 08 STAYTON,"1385 N FIRST AVE
STAYTON, OR 97383-1209",(503) 769-6301
Oregon,WILCO FARMERS - 10 LEBANON,"2950 SOUTH SANTIAM HWY
LEBANON, OR 97355-2334",(541) 258-5085
Oregon,WILCO FARMERS - 15 CORVALLIS,"1905 NE FOUR ACRE PLACE
CORVALLIS, OR 97330-4209",(541) 753-4100
Oregon,WILCO FARMERS - 16 BEND,"2717 E HIGHWAY 20
BEND, OR 97701-9595",(541) 388-7439
Oregon,WILCO FARMERS - 19 SALEM,"3285 COMMERCIAL ST SE
SALEM, OR 97302-4535",(503) 364-0840
Oregon,WILCO FARMERS - 22 LAKE OSWEGO,"17711 JEAN WAY
LAKE OSWEGO, OR 97035-0001",(800) 382-5339
Oregon,JEFFERSON STREET SUPPLY,"214 GREENWOOD STREET
LA GRANDE, OR 97850-2632",(541) 963-3636
Oregon,HALFWAY FEED & SEED,"281 S MAIN ST
HALFWAY, OR 97834-5001",(541) 742-2345
Oregon,ESTACADA TRUE VALUE,"310 S MAIN ST
ESTACADA, OR 97023-9006",(503) 630-3769
Oregon,KALINA TRUE VALUE,"2115 Broadway St
Malin, OR 97632",(541) 723-2681
Oregon,PACIFIC CITY TRUE VALUE HARDWARE,"34995 RIVER AVE
PACIFIC CITY, OR 97135-9100",(503) 965-6295
Oregon,FRY'S TRUE VALUE,"175 S Main St
Milton-Freewater, OR 97862",(541) 938-5398
Oregon,WILCO FARMERS - 21 REDMOND,"1649 Odem Medo Way
Redmond, OR 97756",(541) 548-8345
Oregon,EAGLE VALLEY SUPPLY,"2570 EAGLE VALLEY RD.
YONCALLA, OR 97499",(541) 849-2144
Oregon,HANKINS HARDWARE TRUE VALUE,"1720 SE Hawthorne Blvd
Portland, OR 97214-3723",(503) 236-2372
Oregon,HANKINS HARDWARE TRUE VALUE,"3942 NE Martin Luther King Blv
Portland, OR 97212-1116",(503) 281-1218
Oregon,KINNEY BROS & KEELE TRUE VALUE HARDWARE,"460 SW 4th Ave
Ontario, OR 97914-2622",(541) 889-7629
Oregon,EUGENE TRUE VALUE HARDWARE,"2825 Willamette St
Eugene, OR 97405-8202",(541) 342-5191
Pennsylvania,C C ALLIS & SONS INC.,"1662 CC ALLIS ROAD - SR1010
WYALUSING, PA 18853",(570) 744-2631
Pennsylvania,JOES TRUE VALUE HOME CENTER,"535 Engle St.
Chester, PA 19013",(610) 497-2140
Pennsylvania,MONARCH HARDWARE COMPANY,"4502 Walnut St
Philadelphia, PA 19139-4587",(215) 387-4199
Pennsylvania,BLOSS HARDWARE,"218 MAIN STREET
BLOSSBURG, PA 16912-0001",(570) 638-2600
Pennsylvania,NITTANY VALLEY TRUE VALUE HARDWARE,"1169 Nittany Valley Dr
Bellefonte, PA 16823-6400",(814) 383-2809
Pennsylvania,SEREDAYS TRUE VALUE HARDWARE,"63 Garfield St
West Middlesex, PA 16159-3501",(724) 528-3224
Pennsylvania,DRAPER TRUE VALUE HARDWARE,"5277 Main St
Millerton, PA 16936-9611",(570) 537-6566
Pennsylvania,FAIRVIEW HARDWARE,"7248 W Ridge Rd
Fairview, PA 16415-1166",(814) 474-5011
Pennsylvania,S & H SUPPLY COMPANY,"243 STATE ROUTE 435
CLIFTON TOWNSHIP, PA 18424-7787",(570) 842-7172
Pennsylvania,ALEXSON GRAND TRUE VALUE RENTAL,"3 PASTUSZEK BLVD
LINWOOD, PA 19061-4363",(610) 497-7774
Pennsylvania,GREENCASTLE TRUE VALUE & JUST ASK RENTAL,"785 S, Washington St
Greencastle, PA 17225-1343",(717) 597-7799
Pennsylvania,AMANDUS D MOYER LUMBER,"1202 E Phila St
Gilbertsville, PA 19525",(610) 367-2036
Pennsylvania,VILLAGE HARDWARE & HOBBIES,"17 S York Road
Hatboro, PA 19040",(215) 672-7390
Pennsylvania,GRAND TRUE VALUE RENTAL,"1910 SCRANTON CARBONDALE HWY
SCRANTON, PA 18508-1144",(570) 383-4197
Pennsylvania,BINKLEY & HURST RICHLAND,"700 E LINDEN ST
RICHLAND, PA 17087-9774",(717) 866-7518
Pennsylvania,UPPER DARBY TRUE VALUE HARDWARE,"6945 Marshall Rd
Upper Darby, PA 19082-4104",(610) 352-7771
Pennsylvania,ALLENSVILLE PLAN MILL TRUE VALUE HARDWARE,"108 E Main St
Allensville, PA 17002-9750",(717) 483-6386
Pennsylvania,A.P.M. TRUE VALUE HOME CENTER,"46 Gettysburg St
Arendtsville, PA 17303",(717) 677-6161
Pennsylvania,BERLIN LUMBER COMPANY,"2988 BERLIN PLANK ROAD
BERLIN, PA 15530-7006",(814) 267-4651
Pennsylvania,BOBS HARDWARE INC.,"2546-48 W Lehigh Ave
Philadelphia, PA 19132-3206",(215) 229-2058
Pennsylvania,OLDE EARTH TRUE VALUE RENTAL,"664 BLACKBURN RD
FRIEDENS, PA 15541-7305",(814) 443-9130
Pennsylvania,PENNDEL HARDWARE & HOBBIES INC.,"119 Bellevue Ave
Penndel, PA 19047-4053",(215) 757-2711
Pennsylvania,PENN HARDWARE,"7404 Frankford Ave
Philadelphia, PA 19136-3809",(215) 332-5110
Pennsylvania,TRUE VALUE OF MOON TOWNSHIP #67,"1011 BEAVER GRADE ROAD
MOON TOWNSHIP, PA 15108-9999",(412) 832-1324
Pennsylvania,A.D. MOYER LUMBER,"4514 EASTON AVENUE
BETHLEHEM, PA 18020-9760",(610) 868-2010
Pennsylvania,WARNER TRUE VALUE,"9848 ROUTE 6
Troy, PA 16947-9803",(570) 297-2141
Pennsylvania,BALDWINS HDWE & GIFT SHOP,"11 TROY ST
CANTON, PA 17724-1403",(570) 673-8540
Pennsylvania,AMANDUS D MOYER LUMBER INC.,"300 Armand Hammer Blvd
Pottstown, PA 19464-5088",(610) 327-1120
Pennsylvania,MC CARTNEY TRUE VALUE FEED & HDW,"1683 AIRPORT RD
FREDONIA, PA 16124-2503",(724) 475-3215
Pennsylvania,GRAND RENTAL STATION OF YORK,"2801 S Queen St
Dallastown, PA 17313-9590",(717) 741-2666
Pennsylvania,PIK-A-PANEL,"5000 Germantown Ave
Philadelphia, PA 19144",(215) 849-3300
Pennsylvania,TRUE VALUE OF LATROBE #69,"712 INDUSTRIAL BLVD STE 2
LATROBE, PA 15650-1660",(724) 539-1222
Pennsylvania,HOMETOWN HARDWARE,"8820 Bridge Rd
Hummelstown, PA 17036",(717) 566-2538
Pennsylvania,OLD GLADWYNE TRUE VALUE HARDWA,"338 RIGHTERS MILL RD
GLADWYNE, PA 19035-1537",(610) 649-8653
Pennsylvania,ALLENSVILLE PLANING MILL & TRUE VALUE,"10381 Fairgrounds Road
Huntingdon, PA 16652",(814) 643-4551
Pennsylvania,ALLENSVILLE TRUE VALUE PLANNING MILL,"911 Electric Ave Rear
Lewistown, PA 17044-2222",(717) 248-9688
Pennsylvania,SWARTHMORE TRUE VALUE HARDWARE,"11 S Chester Rd
Swarthmore, PA 19081-1718",(610) 543-0105
Pennsylvania,DANIEL SHAFFERS INC.,"225 Water St
Hooversville, PA 15936",(814) 798-6211
Pennsylvania,ABSOLUTE EQUIPMENT,"3038 BABCOCK BLVD
PITTSBURGH, PA 15237-2790",(412) 931-6655
Pennsylvania,CORRY LUMBER,"630 COLUMBUS AVE
CORRY, PA 16407-0000",(814) 664-8641
Rhode Island,TAYLOR TRUE VALUE RENTAL OF WARWICK,"2296 POST RD
WARWICK, RI 02886-2242",(401) 739-4211
Rhode Island,JAMESTOWN TRUE VALUE,"5 Narragansett Ave
Jamestown, RI 02835-1113",(401) 423-2722
Rhode Island,VOSE TRUE VALUE HARDWARE,"849 Cumberland Hill Rd
Woonsocket, RI 02895-5611",(401) 762-4343
Rhode Island,ISLAND TRUE VALUE HARDWARE,"102 Ocean Ave
Block Island, RI 02807",(401) 466-5831
Rhode Island,S & T TRUE VALUE HARDWARE,"2300 Nooseneck Hill Rd
Coventry, RI 02816-6712",(401) 397-6300
Rhode Island,DURFEE TRUE VALUE HARDWARE,"65 Rolfe Sq
Cranston, RI 02910-3410",(401) 461-0800
Rhode Island,ONE STOP BUILDING SUPPLY CENTER,"236 Connell Hwy
Newport, RI 02840",(401) 847-8460
South Carolina,COLIGNY TRUE VALUE,"3 LAGOON ROAD
HILTON HEAD ISLAND, SC 29928-6405",(843) 785-2429
South Carolina,TRI-STAR TRUE VALUE,"12087 Wells Hwy
Seneca, SC 29678-1839",(864) 885-9556
South Carolina,DOBSON TRUE VALUE HARDWARE 2,"1407 Wade Hampton Blvd
Greer, SC 29650-1110",(864) 877-1827
South Carolina,TRUE VALUE,"235 E Main St
Bennettsville, SC 29512-3157",(843) 479-8222
South Carolina,JARRARD HARDWARE,"3019 Geer Hwy
Marietta, SC 29661-9112",(864) 836-6341
South Carolina,HEMINGWAY HARDWARE AND SUPPLY,"34 LEWIS RD
HEMINGWAY, SC 29554-6192",(843) 558-1144
South Carolina,COWPENS TRUE VALUE,"187 BATTLEGROUND RD
COWPENS, SC 29330-9519",(864) 463-6200
South Carolina,WALKER'S TRUE VALUE HARDWARE,"2502 main street
conway, SC 29526",(843) 488-9922
South Carolina,BULLIS TRUE VALUE HARDWARE,"100 S Blackstock Rd
Spartanburg, SC 29301-2557",(864) 576-5433
South Carolina,EAST BAY TRUE VALUE HARDWARE,"1409A King Street
Charleston, SC 29403",(843) 577-9196
South Carolina,CITY TRUE VALUE,"125 Church St
Chester, SC 29706-2903",(803) 581-0335
South Carolina,ROBINSONS HARDWARE,"110 N Main St
Jonesville, SC 29353-1524",(864) 674-6372
South Carolina,MULLINS HARDWARE COMPANY,"304 Gapway St
Mullins, SC 29574",(843) 464-6268
South Carolina,GOLDMAN'S TRUE VALUE,"2615 Columbia Hwy N
Aiken, SC 29805",(803) 649-0372
South Carolina,WINNSBORO HOME CENTER,"340 S Vanderhorst
Winnsboro, SC 29180",(803) 635-4711
South Carolina,WEST ASHLEY TRUE VALUE,"1119 Wappoo Road
Charleston, SC 29407",(843) 203-3736
South Carolina,ROCK HILL TRUE VALUE,"1735 Heckle Blvd
Rock Hill, SC 29732-1885",(803) 329-8665
South Carolina,GREENWOOD TRUE VALUE HARDWARE,"1814 MONTAGUE AVENUE EXT
GREENWOOD, SC 29649-0001",(864) 229-2005
South Carolina,TRIANGLE TRUE VALUE HARDWARE,"1500 Kateway
Greenwood, SC 29646-3722",(864) 229-2005
South Carolina,LORIS TRUE VALUE HARDWARE,"4355 Main St
Loris, SC 29569-2613",(843) 756-0333
South Carolina,ALL SEASONS TRUE VALUE/JUST ASK RENTAL,"866 Folly Rd
Charleston, SC 29412-3452",(843) 795-4101
South Carolina,DENMARK TRUE VALUE,"4823 CAROLINA HWY
DENMARK, SC 29042-0000",(803) 793-3342
South Carolina,KINGSTREE TRUE VALUE HARDWARE,"110 S Longstreet Street
Kingstree, SC 29556-3903",(843) 355-6382
South Carolina,BLACKWELL TRUE VALUE HARDWARE STORE,"1279 Yeaman's Hall Rd.
Hanahan, SC 29410",(843) 747-9651
South Carolina,ALL SEASONS TRUE VALUE/JUST ASK RENTAL,"2876 Maybank Hwy
Johns Island, SC 29455-4807",(843) 559-1555
South Carolina,LOW COUNTRY TRUE VALUE HARDWARE,"1640 N Hwy 17
Mount Pleasant, SC 29464-3310",(843) 881-3882
South Carolina,MCLESKEY-TODD TRUE VALUE,"21 Plaza Dr. Ste. F
Travelers Rest, SC 29690-1662",(864) 834-4856
South Carolina,CLINTON TRUE VALUE,"200 E Carolina Ave
Clinton, SC 29325",(864) 833-6779
South Carolina,LEXINGTON TRUE VALUE HARDWARE,"2028 Augusta Hwy
Lexington, SC 29072",(803) 808-0207
South Dakota,KENS TRUE VALUE LUMBER,"9006 North Hwy 12 & 83
Selby, SD 57472",(605) 649-7788
South Dakota,BURKE TRUE VALUE,"906 Main St
Burke, SD 57523",(605) 775-2804
South Dakota,KOENIG TRUE VALUE LUMBER & HM CTR,"30209 US Highway 18
Fairfax, SD 57335-5344",(605) 654-2101
South Dakota,ROUNDUP BUILDING CENTER,"405 ROUNDUP ST
BELLE FOURCHE, SD 57717-0001",(605) 892-2094
South Dakota,THUNE TRUE VALUE HARDWARE,"1400 N Main St
Mitchell, SD 57301-1463",(605) 996-7508
South Dakota,SCHMIDT COUNTRY TRUE VALUE,"303 N Park Ave
Marion, SD 57043",(605) 648-3631
South Dakota,MIDWEST AG CENTER TRUE VALUE,"620 E 7th St
Platte, SD 57369-2114",(605) 337-3231
South Dakota,FENSEL ELECTRIC AND PLUMBING,"1220 E North County Rd
Freeman, SD 57029",(605) 925-4251
South Dakota,WESSINGTON SPRINGS TRUE VALUE,"240 E MAIN
WESSINGTON SPRINGS, SD 57382-0001",(605) 539-9761
South Dakota,LACROIX'S TRUE VALUE,"302 MAIN ST
MARTIN, SD 57551-0302",(605) 685-6266
South Dakota,WILSON TRUE VALUE HARDWARE,"700 Main Ave
Armour, SD 57313-2121",(605) 724-2796
South Dakota,GETTYSBURG TRUE VALUE,"107 W Commercial
Gettysburg, SD 57442-1102",(605) 765-2183
South Dakota,ROBSON TRUE VALUE HARDWARE,"2322 W 12th St
Sioux Falls, SD 57104-3811",(605) 338-2361
South Dakota,WINNER TRUE VALUE,"205 Main
Winner, SD 57580-1799",(605) 842-1830
Tennessee,KING TRUE VALUE HARDWARE,"129 N Main St
Jamestown, TN 38556",(931) 879-8159
Tennessee,EMERY TRUE VALUE HARDWARE,"131 Island Dr.
Pigeon Forge, TN 37863-5283",(865) 365-4138
Tennessee,TRUE VALUE OF MOUNTAIN CITY,"1107 South Shady Street
Mountain City, TN 37683-2005",(423) 727-8316
Tennessee,GRAND RENTAL STATION,"2215 E Andrew Johnson Hwy
Greeneville, TN 37745",(423) 639-6160
Tennessee,LIBERTY HARDWARE,"101 S. ELM AVENUE
ERWIN, TN 37650-1157",(423) 743-6161
Tennessee,THE BUILDING CENTER,"1300 W MAIN ST
LIVINGSTON, TN 38570-2208",(931) 823-5621
Tennessee,CLINTON HOME CENTER,"130 J D Yarnell Ind Pkwy
Clinton, TN 37716-3911",(865) 457-1593
Tennessee,UNDERWOOD TRUE VALUE HARDWARE,"409 Beersheba Hwy
Mc Minnville, TN 37110-2718",(931) 473-9659
Tennessee,TRUE VALUE HARDWARE & GENERAL STORE,"810 N Locust Ave
Lawrenceburg, TN 38464-2804",(931) 762-7516
Tennessee,WILBURN TRUE VALUE HARDWARE,"109 W Broadway
Lenoir City, TN 37771-2914",(865) 986-3501
Tennessee,HARRISON FARM & HOME SUPPLY,"1172 Main Street
Sneedville, TN 37869",(423) 733-2958
Tennessee,KELTONS HARDWARE AND PET,"2870 Old Fort Parkway
Murfreesboro, TN 37128-4157",(615) 893-5125
Tennessee,WILTON SPRINGS TRUE VALUE HARDWARE,"303 Wilton Springs Rd
Newport, TN 37821",(423) 623-9777
Tennessee,TRUE VALUE OF OAKBROOK,"9814 East Brainerd Rd
Ooltewah, TN 37363",(423) 269-7888
Tennessee,SHELBYVILLE LUMBER CO.,"917 North Main St
Shelbyville, TN 37160",(931) 684-5731
Tennessee,HAYNES TRUE VALUE HARDWARE,"1807 Memorial Blvd
Murfreesboro, TN 37129-1546",(615) 893-3173
Tennessee,WHITE BLUFF BUILDING SUPPLY INC.,"4978 Hwy 70 E
White Bluff, TN 37187-9224",(615) 797-3111
Tennessee,HARPETH TRUE VALUE HARDWARE,"203 Downs Blvd
Franklin, TN 37064-3823",(615) 794-3641
Tennessee,WINNINGHAM TRUE VALUE HARDWARE,"303 W Main St
Livingston, TN 38570-1829",(931) 823-6475
Texas,HOOVER TRUE VALUE HARDWARE,"500 E Polk St
Burnet, TX 78611-2613",(512) 756-2139
Texas,RED'S SAFE AND LOCK SERVICE,"220 Pasadena Blvd
Pasadena, TX 77506-2310",(713) 477-7128
Texas,CALLAHANS T V GENERAL STORE,"501 Hwy 183 South
Austin, TX 78741-3601",(512) 385-3452
Texas,BREMOND TRUE VALUE,"219 S Main
Bremond, TX 76629-5296",(254) 746-7421
Texas,PWI #113,"10269 HWY 84
PRAIRIE HILL, TX 76678-0001",(254) 344-2727
Texas,PWI #400,"10330 I-10 EAST
BAYTOWN, TX 77520-0001",(281) 383-0144
Texas,SUN VALLEY EQUIPMENT SALES,"117 N FABENS ST
FABENS, TX 79838-0428",(915) 764-2239
Texas,MARTINI TRUE VALUE HARDWARE,"7145 Lawndale St
Houston, TX 77023-4248",(713) 926-7466
Texas,Z BAR TRADING CO.,"103 W OAK STREET
SANDERSON, TX 79848-0001",(432) 290-4407
Texas,SIMPLY HOME AND RANCH SUPPLY,"2706 S STOCKTON
MONAHANS, TX 79756-1169",(432) 943-5200
Texas,GRAHMANN'S TRUE VALUE,"515 N MAIN ST
SCHULENBURG, TX 78956-1563",(979) 743-4332
Texas,D & D FARM & RANCH,"516 IH 10 EAST
SEGUIN, TX 78155-1329",(830) 379-7340
Texas,PWI #110,"5934 W IH 20
ODESSA, TX 79763-5500",(432) 381-5569
Texas,PRICE HARDWARE,"302 N WILLIAMS
ATLANTA, TX 75551-2350",(903) 796-7995
Texas,KAUTSCH TRUE VALUE,"705 W HIGHWAY 83
ALAMO, TX 78516-2528",(956) 787-2721
Texas,RR SUPPLY TRUE VALUE,"205 WEST O'REILLY STREET
PRESIDIO, TX 79845-0195",(432) 229-2545
Texas,KING FEED,"14210 RANCH RD 12
WIMBERLEY, TX 78676-5326",(512) 847-2618
Texas,J & B TRUE VALUE HARDWARE,"11635 Highway 105 E
Conroe, TX 77306-5371",(936) 760-2012
Texas,OLNEY TRUE VALUE HARDWARE,"205 E Main St
Olney, TX 76374-1923",(940) 564-2656
Texas,COX TRUE VALUE HARDWARE & AUTO,"210 S Main St
Morton, TX 79346-3004",(806) 266-8811
Texas,GROCE HOME & AUTO,"105 W BUCK
CALDWELL, TX 77836-1701",(979) 567-3213
Texas,POPULAR SUPPLY TRUE VALUE,"821 N Main St
Borger, TX 79007-3532",(806) 273-3752
Texas,D & M TRUE VALUE,"400 W Montgomery St
Willis, TX 77378-8602",(936) 890-6401
Texas,LONE STAR HARDWARE,"233 S BROADWAY
ASPERMONT, TX 79502-0177",(940) 989-2911
Texas,FAIRMOUNT TRUE VALUE,"2335 FAIRDALE RD
HEMPHILL, TX 75948-7250",(409) 579-2259
Texas,VAN ALSTYNE TRUE VALUE HARDWARE,"330 EAST VAN ALSTYNE PARKWAY
VAN ALSTYNE, TX 75495-5697",(903) 482-4084
Texas,TRUE VALUE CANUTILLO,"7310 Doniphan Dr
Canutillo, TX 79835",(915) 877-1968
Texas,RAINOSEK'S TRUE VALUE,"101 E 2nd Street
Hallettsville, TX 77964-2735",(361) 798-2261
Texas,TRAVIS BROTHERS SUPPLY,"632 Washington Blvd
Beaumont, TX 77705-2346",(409) 833-1441
Texas,BRAYDEN'S HARDWARE & RENTAL,"1940 N MAIN STREET
JUNCTION, TX 76849-0000",(325) 446-9101
Texas,MASON TRUE VALUE HARDWARE,"1201 N Jefferson Ave
Mount Pleasant, TX 75455-2446",(903) 572-6737
Texas,LOTT TRUE VALUE HOME CENTER,"804 Ave F Northwest
Childress, TX 79201-3516",(940) 937-2002
Texas,FAMILY FARM STORES,"501 North Dumas Ave
Dumas, TX 79029-2417",(806) 935-7719
Texas,JOHNNYS TRUE VALUE HARDWARE,"914 W Tyler Ave
Harlingen, TX 78550-6159",(956) 428-4011
Texas,DR IKES TRUE VALUE HOME CENTER,"430 Fm 496 East
Zapata, TX 78076-3545",(956) 765-8430
Texas,SOMERSET TRUE VALUE,"19790 Kurz St
Somerset, TX 78069-4579",(830) 429-3663
Texas,ULBRICHS TRUE VALUE HARDWARE,"1107 17th St
Hondo, TX 78861-1831",(830) 426-2442
Texas,MCKEE LUMBER COMPANY,"104 N 7th St
Corsicana, TX 75110-5318",(903) 874-6581
Texas,K C TRUE VALUE,"1302 Pena St
Carrizo Springs, TX 78834-3634",(830) 876-3229
Texas,SPRING TRUE VALUE HARDWARE,"18935 Kuykendahl Rd
Spring, TX 77379-3459",(281) 370-0733
Utah,KEARSLEY TRUE VALUE HDW,"520 STATE ST
CLEARFIELD, UT 84015-1733",(801) 773-4836
Utah,MILFORD TRUE VALUE HARDWARE,"590 N MAIN
MILFORD, UT 84751-8001",(435) 387-2496
Utah,SOUTHERN UTAH TRUE VALUE LUMBER,"255 N 200 W
Cedar City, UT 84721-3537",(435) 586-4459
Utah,TROPIC TRUE VALUE,"121 N MAIN STREET PO BOX 59
TROPIC, UT 84776-0059",(435) 679-8814
Utah,TRUE VALUE,"265 N. State St
Morgan, UT 84050",(801) 829-4144
Utah,STANDARD PLUMBING - BRIGHAM CITY,"370 W 1175 S
BRIGHAM CITY, UT 84302-3198",(435) 723-7744
Utah,HY-KO TRUE VALUE HARDWARE,"1908 West Industrial Cir
Salt Lake City, UT 84104-4202",(801) 973-6099
Utah,VALLEY BUILDER TRUE VALUE,"310 N Main St
Gunnison, UT 84634",(435) 528-7211
Utah,SMITHFIELD TRUE VALUE HARDWARE,"99 N Main St
Smithfield, UT 84335-1957",(435) 563-3211
Utah,UTE TRUE VALUE,"7074 East 900 South
Fort. Duchesne, UT 84026",(435) 722-3282
Utah,STANDARD TRUE VALUE - LAYTON,"879 W HILL FIELD RD #C
LAYTON, UT 84041-4604",(801) 544-6521
Utah,STANDARD TRUE VALUE - SPRINGVILLE,"740 SOUTH 1750 WEST
SPRINGVILLE, UT 84663-0001",(801) 396-3268
Utah,STANDARD TRUE VALUE - BOUNTIFUL,"563 W 750 S
BOUNTIFUL, UT 84010-7256",(801) 296-2071
Utah,STANDARD TRUE VALUE - TOOELE,"63 E 1100 N
TOOELE, UT 84074-9629",(435) 882-2181
Utah,STANDARD TRUE VALUE - AMERICAN FORK,"641 S 500 E
AMERICAN FORK, UT 84003-2531",(801) 768-2711
Utah,STANDARD TRUE VALUE - OGDEN,"1926 WALL AVE
OGDEN, UT 84401-0314",(801) 334-8822
Utah,STANDARD TRUE VALUE - ROY,"4460 S 1900 W
ROY, UT 84067-2616",(801) 731-2501
Utah,STANDARD TRUE VALUE - SANDY,"9150 S 300 W
SANDY, UT 84070-2641",(801) 255-7005
Utah,STANDARD TRUE VALUE - ST GEORGE,"88 E 1160 S
ST GEORGE, UT 84770-5353",(435) 652-1420
Utah,STANDARD TRUE VALUE - LOGAN,"1885 SOUTH HWY 89-91
LOGAN, UT 84321-8210",(435) 752-0000
Utah,FLAMING GORGE MARKET AND MERCANTILE TRUE VALUE,"75 EAST HIGHWAY 43
MANILA, UT 84046-8001",(435) 784-3582
Utah,STANDARD TRUE VALUE - SOUTH SALT LAKE,"185 W 3300 S
SALT LAKE CITY, UT 84115-3703",(801) 485-2304
Utah,STANDARD TRUE VALUE - TREMONTON,"1270 W MAIN ST
TREMONTON, UT 84337-9379",(435) 538-1390
Utah,STANDARD TRUE VALUE - NORTH OGDEN,"1964 N 400 E
NORTH OGDEN, UT 84414-7242",(801) 823-8060
Utah,STANDARD TRUE VALUE - HEBER CITY,"777 W 100 S
HEBER CITY, UT 84032-3739",(435) 657-9621
Utah,STANDARD TRUE VALUE - WEST JORDAN,"4346 W NEW BINGHAM HWY
WEST JORDAN, UT 84088-7803",(801) 280-4230
Utah,DAVIS FOOD AND DRUG #4,"495 N. STATE STREET
LAVERKIN, UT 84745-1857",(435) 635-0774
Utah,CEDAR MOUNTAIN TRUE VALUE,"76 Movie Ranch Rd
Duck Creek Village, UT 84762",(435) 682-3330
Utah,STANDARD TRUE VALUE - BEAVER,"660 N MAIN ST
BEAVER, UT 84713-0001",(385) 695-3900
Utah,MONTICELLO MERC TRUE VALUE,"80 South Main Street
Monticello, UT 84535",(435) 587-2256
Utah,BRACKEN TRUE VALUE,"591 E Main
Enterprise, UT 84725",(435) 878-2251
Utah,LUMBER PLUS TRUE VALUE HARDWARE,"227 East 300 S
Kanab, UT 84741-3608",(435) 644-2779
Utah,BRIAN FARM SERVICE TRUE VALUE,"33 East 300 South
Loa, UT 84747",(435) 836-2884
Utah,FAMILY STORES TRUE VALUE,"4860 South Redwood Road
Taylorsville, UT 84123-4226",(801) 964-1600
Utah,LOSEE LUMBER TRUE VALUE,"696 N Highway 6
Delta, UT 84624-9196",(435) 864-4416
Utah,WALKERS TRUE VALUE HARDWARE,"260 S Main St
Moab, UT 84532-2509",(435) 259-8258
Utah,STRINGHAMS TRUE VALUE,"124 N Highway 198
Santaquin, UT 84655-8231",(801) 754-9000
Utah,TRUE VALUE PLAIN CITY,"3627 W 2600 North
Plain City, UT 84404",(801) 827-0990
Vermont,EVANSVILLE TRADING POST & TRUE VALUE,"645 Evansville Road
Orleans, VT 05860-9597",(802) 754-6305
Vermont,GOODRO TRUE VALUE OF KILLINGTON,"4489 Route 4
Killington, VT 05751",(802) 422-3469
Vermont,KENYONS TRUE VALUE,"93 N Main St
Northfield, VT 05663",(802) 485-9676
Vermont,KENYONS VARIETY,"3337 Main St
Waitsfield, VT 05673-6041",(802) 496-3922
Vermont,TRUE VALUE RENTAL,"3262 US ROUTE 5
DERBY, VT 05829-9677",(802) 766-2714
Vermont,VILLAGE HARDWARE-WILLISTON,"364 ESSEX ROAD
WILLISTON, VT 05495-0000",(802) 878-3301
Vermont,BROUGHTON TRUE VALUE HARDWARE,"3437 Vermont-Rte 22a
Bridport, VT 05734-4416",(802) 758-2477
Vermont,RICHMOND HOME SUPPLY INC.,"99 Railroad St
Richmond, VT 05477-7749",(802) 434-2887
Vermont,W W BUILDING SUPPLY,"7 Loop Rd
Newfane, VT 05345-9737",(802) 365-4333
Vermont,W W BUILDING SUPPLY,"434 Route 100
Wilmington, VT 05363",(802) 464-3022
Vermont,LARRABEE'S BUILDING SUPPLY,"1410 Rte 2 West
West Danville, VT 05873",(802) 684-3622
Vermont,WATERBURY TRUE VALUE,"838 WATERBURY- STOWE ROAD
WATERBURY, VT 05676-9730",(802) 244-8905
Vermont,MARTIN'S HARDWARE OF MIDDLEBURY,"859 Route 7 South
Middlebury, VT 05753",(802) 388-9500
Vermont,MARTIN'S FIRESIDE TRUE VALUE HARDWARE,"895 Putney rd #2
Brattleboro, VT 05301",(802) 254-4927
Vermont,MENARD'S FAMILY TRUE VALUE,"780 Brooklyn Street
Morrisville, VT 05661",(802) 888-3321
Vermont,MARTINS HARDWARE & BUILDING SUPPLY CO.,"68 West St
Bristol, VT 05443-1225",(802) 453-3617
Vermont,WELCH'S TRUE VALUE HARDWARE,"3626 Vermont Route 14
South Royalton, VT 05068",(802) 763-8140
Vermont,WILLIAMS HARDWARE INC.,"51 Main St Ste 1
Poultney, VT 05764-1204",(802) 287-5791
Vermont,WILLEY'S TRUE VALUE HARDWARE,"7 Breezy Ave
Greensboro, VT 05841-8000",(802) 533-2554
Vermont,J.B. COLTON,"66 Main St
Orleans, VT 05860-1135",(802) 754-6600
Virginia,GRAND TRUE VALUE RENTAL,"1625 BERRYVILLE PIKE
WINCHESTER, VA 22603-4815",(540) 667-1400
Virginia,AUGUSTA TRUE VALUE,"5788 N. LEE HIGHWAY
FAIRFIELD, VA 24435-0131",(540) 348-1159
Virginia,WINTERGREEN TRUE VALUE HARDWARE,"2230 Rockfish Valley Hwy
Nellysford, VA 22958-2304",(434) 361-1919
Virginia,GRAND TRUE VALUE RENTAL OF VINTON,"1000 VINYARD RD
VINTON, VA 24179-4718",(540) 343-1000
Virginia,BUDDIES TRUE VALUE HARDWARE,"517 E NELSON ST
LEXINGTON, VA 24450-2730",(540) 463-9880
Virginia,AUGUSTA TRUE VALUE,"18 Depot Lane
Weyers Cave, VA 24486-2302",(540) 234-9275
Virginia,SOUTHERN STATES 4401,"1796 LEE HIGHWAY
CLOVERDALE, VA 24077-3105",(540) 992-1100
Virginia,MYERS LUMBER & SUPPLY,"43550 Veterans Memorial Hwy
Pennington Gap, VA 24277-8043",(276) 546-2310
Virginia,HEAVENER TRUE VALUE,"801 Kabrich Street
Blacksburg, VA 24060-3342",(540) 552-1221
Virginia,HEAVENER TRUE VALUE RENTAL,"901 PROGRESS STREET
BLACKSBURG, VA 24060-9998",(540) 961-7368
Virginia,RAVEN TRUE VALUE,"Rte 67 & 460
Raven, VA 24639",(276) 964-5729
Virginia,ROUNTREYS TRUE VALUE,"508 Main St
Altavista, VA 24517-1810",(434) 369-5319
Virginia,ONANCOCK TRUE VALUE BUILDING SUPPLY,"135 Market St
Onancock, VA 23417-4226",(757) 787-2000
Virginia,SOLENBERGER'S TRUE VALUE HARDWARE,"832 Berryville Ave
Winchester, VA 22601",(540) 662-3457
Virginia,ONANCOCK TRUE VALUE BUILDING SUPPLY,"5254 Newman Lane
Eastville, VA 23347",(757) 678-5335
Virginia,NORTHAMPTON LUMBER COMPANY,"7409 Railroad Avenue
Nassawadox, VA 23413",(757) 442-6137
Virginia,AUGUSTA TRUE VALUE,"1205b Richmond Road
Staunton, VA 24401",(540) 885-1265
Virginia,MODERN TRUE VALUE HARDWARE,"263 Main St
Clintwood, VA 24228",(276) 926-6501
Virginia,RAMSEY TRUE VALUE HARDWARE,"703 N Royal Ave
Front Royal, VA 22630-2715",(540) 635-2547
Virginia,EDWARDS TRUE VALUE HARDWARE,"22217 Main St
Courtland, VA 23837",(757) 653-2122
Virginia,BERRYVILLE TRUE VALUE HARDWARE,"600 East Main St
Berryville, VA 22611",(540) 955-1900
Virginia,J E RICE CO.,"9124 Mathis Ave
Manassas, VA 20110",(703) 361-3141
Virginia,SOUTH BOSTON TRUE VALUE,"307 Broad St
South Boston, VA 24592-4611",(434) 572-6666
Virginia,SPECTRUM PAINT,"8520 Patterson Ave
Henrico, VA 23229",
Virginia,APPOMATTOX TRUE VALUE,"7194 Richmond Hwy
Appomattox, VA 24522",(434) 352-2699
Virginia,RIVERSIDE TRUE VALUE HARDWARE,"124 Trade St
Danville, VA 24541-3544",(434) 792-2026
Virginia,SMITHFIELD TRUE VALUE HARDWARE,"1409 S Church St
Smithfield, VA 23430-1827",(757) 357-3705
Virginia,SPECTRUM PAINT (58),"4307 W BROAD ST
RICHMOND, VA 23230-3305",(804) 359-5088
Virginia,EARLS TRUE VALUE HARDWARE,"300 Chatham Heights Rd
Fredericksburg, VA 22405-2577",(540) 373-8128
Virginia,BILLS TRUE VALUE,"2213 N. Buchanan Street
Arlington, VA 22207-2528",(703) 524-2503
Virginia,LOUISA TRUE VALUE HARDWARE,"401 East Main Street
Louisa, VA 23093-6518",(540) 967-2827
Virginia,HURDS INC.,"17342 General Puller Hwy
Deltaville, VA 23043-2316",(804) 776-9241
Virginia,WINDSOR TRUE VALUE,"5 Joyner Ave
Windsor, VA 23487",(757) 242-6123
Virginia,TRUE VALUE 360 HARDWARE & RENTAL,"625 Richmond Tappahanock Hwy
Manquin, VA 23106",(804) 769-1946
Virginia,MCKAY TRUE VALUE HARDWARE,"416 S 15th Ave
Hopewell, VA 23860-4508",(804) 458-3241
Washington,TRUE VALUE HARDWARE,"7707 SE 27th St Ste 110
Mercer Island, WA 98040-2844",(206) 232-7282
Washington,WINLOCK TRUE VALUE HARDWARE,"515 1st St
Winlock, WA 98596-9495",(360) 785-3251
Washington,YELM FARM & PET,"11242 BALD HILL RD SE
YELM, WA 98597-9503",(360) 400-4141
Washington,SPOKANE POWERTOOL & TRUE VALUE HARDWARE,"801 E Spokane Falls Blvd
Spokane, WA 99202-2158",(509) 489-4202
Washington,BLEYHL FARM SERVICE - GRANDVIEW,"940 E WINE COUNTRY RD
GRANDVIEW, WA 98930-8982",(509) 882-1225
Washington,PAPE' MACHINERY,"1 PATROL ST
OKANOGAN, WA 98840-1098",(509) 422-5440
Washington,ANDERSON'S TRUE VALUE,"220 North Tower
Centralia, WA 98531-4328",(360) 736-7650
Washington,DINGLE'S OF DAYTON TRUE VALUE,"179 E Main St
Dayton, WA 99328-1350",(509) 382-2581
Washington,BLEYHL FARM SERVICE- SUNNYSIDE,"1720 EASTWAY DRIVE
SUNNYSIDE, WA 98944-1649",(509) 837-5755
Washington,BLEYHL FARM SERVICE - ZILLAH,"1404 1ST AVENUE
ZILLAH, WA 98953-9654",(509) 829-6922
Washington,WASHINGTON TRUE VALUE HARDWARE & FURNITURE,"6 W Kennewick Ave
Kennewick, WA 99336-3832",(509) 582-2141
Washington,"BLEYHL FARM SERVICE - CHAPEL HILL, PASCO","6705 CHAPEL HILL BLVD
PASCO, WA 99301-1234",(509) 547-5577
Washington,C & H TRUE VALUE HARDWARE,"1403 Fruitvale Blvd
Yakima, WA 98902-1926",(509) 453-1912
Washington,GATEWAY TRUE VALUE HARDWARE,"912 Griffin Ave
Enumclaw, WA 98022-3414",(360) 825-3141
Washington,L & G RANCH SUPPLY TRUE VALUE,"2930 E Isaacs Ave
Walla Walla, WA 99362-9306",(509) 525-3730
Washington,MARTIN TRUE VALUE LUMBER & HARDWARE,"2730 Broadway
Everett, WA 98201-3644",(425) 259-3134
Washington,METHOW VALLEY LUMBER TRUE VALUE,"1309 Hwy 20 So
Twisp, WA 98856",(509) 997-8541
Washington,PORTAL WAY FARM AND GARDEN,"6100 Portal Way
Ferndale, WA 98248-0639",(360) 384-3688
Washington,GRAYLAND TRUE VALUE HARDWARE,"2044 STATE ROUTE 105
GRAYLAND, WA 98547-9602",(360) 267-2594
Washington,WILCO FARM STORE - BATTLE GROUND,"815 W Main Street
Battle Ground, WA 98604",(360) 687-3113
Washington,WILCO FARM STORE - KELSO,"200 Kelso Dr.
Kelso, WA 98626",(360) 423-0767
Washington,WILCO FARMERS - 05 GIG HARBOR,"3408 HUNT STREET NW
GIG HARBOR, WA 98335-2038",(253) 858-5213
Washington,WILCO FARMERS - 17 VANCOUVER,"1901C NE 162ND STREET
VANCOUVER, WA 98684-3007",(503) 343-6577
Washington,WILCO FARMERS - 18 PUYALLUP,"10409 E. CANYON ROAD
PUYALLUP, WA 98373-4252",(253) 864-4480
Washington,WILCO FARMERS - 20 BREMERTON,"4330 WHEATON WAY
BREMERTON, WA 98310-3064",(503) 343-6577
Washington,COUNTRY STORE TRUE VALUE,"8815 272ND STREET NW
STANWOOD, WA 98292-8078",(360) 629-7033
Washington,COUNTRY STORE FREELAND STORE #5,"5463 CAMERON ROAD
FREELAND, WA 98249-0001",(360) 331-1970
Washington,WOODLAND TRUE VALUE,"218 Davidson St
Woodland, WA 98674",(360) 225-8331
Washington,GREENWOOD TRUE VALUE HARDWARE,"7201 GREENWOOD AVE N
SEATTLE, WA 98103-5039",(206) 783-2900
Washington,ARNOLD TRUE VALUE HARDWARE RANCH & HOME,"615 S Main St
Ellensburg, WA 98926-3638",(509) 925-6181
Washington,CLEARVIEW TRUE VALUE HARDWARE,"16510 State Route 9 SE #B
Snohomish, WA 98296-8370",(360) 668-6363
Washington,KETTLE FALLS TRUE VALUE,"170 W 3rd Ave
Kettle Falls, WA 99141",(509) 738-9088
Washington,PACIFIC BUILDING CENTER & TRUE VALUE HARDWARE,"2677 Bell Rd
Blaine, WA 98230-9543",(360) 332-5335
Washington,PENHALLURICK'S TRUE VALUE,"711- C Stratford Road
Moses Lake, WA 98837-1578",(509) 765-3456
Washington,MARTY'S TRUE VALUE,"1st & William
Mattawa, WA 99349",(509) 932-4555
Washington,HADLOCK TRUE VALUE BUILDING SUPPLY,"901 Ness Corner Rd
Hadlock, WA 98339",(360) 385-1771
Washington,HELMS TRUE VALUE HARDWARE,"475 N Wenas Road
Selah, WA 98942-1161",(509) 697-8222
Washington,TRUE VALUE AT ARGONNE VILLAGE,"9211 E. Montgomery Ave
Spokane Valley, WA 99206",(509) 505-4996
Washington,THE CO-OP FARM AND GARDEN TRUE VALUE,"216 E Washington
Sequim, WA 98382-3485",(360) 683-4111
Washington,RIDERS TRUE VALUE,"117 E Wine Country
Grandview, WA 98930-1387",(509) 882-2039
West Virginia,BAISDEN BROS INC,"340 Riverview Ave
Logan, WV 25601-3428",(304) 752-3775
West Virginia,BUSY BEAVER BUILDING CENTER #66,"215 MARION SQUARE
FAIRMONT, WV 26554-0001",(681) 404-3263
West Virginia,THE BEST HARDWARE,"8709 MACCORKLE AVENUE
MARMET, WV 25315-1725",(304) 949-4151
West Virginia,BARKER HARDWARE,"212 SMOOT AVE
DANVILLE, WV 25053-9998",(304) 369-1922
West Virginia,BUSY BEAVER BUILDING CENTER #68,"731 BEVERLY PIKE
ELKINS, WV 26241-5541",(304) 606-2968
West Virginia,KERR'S TRUE VALUE HARDWARE,"29126 SR 55 EAST
WARDENSVILLE, WV 26851-9998",(304) 874-3012
West Virginia,ALASKYS TRUE VALUE CENTER,"3369 Husky Highway
Farmington, WV 26571",(304) 825-6113
West Virginia,AKERS TRUE VALUE SUPERSTORE,"1956 Coal Heritage Rd
Bluefield, WV 24701",(304) 800-4737
West Virginia,ADKINS TRUE VALUE HOME CENTER,"Rt 72 North
Parsons, WV 26287",(304) 478-2241
West Virginia,SANDYS TRUE VALUE HARDWARE & HOME CENTER,"US Rt 20 South
Nutter Fort, WV 26301",(304) 624-5691
West Virginia,SMITH'S TRUE VALUE,"4509 Pennsylvania Ave
Big Chimney, WV 25302",(304) 965-3313
West Virginia,MARTINS TRUE VALUE HARDWARE,"MAIN ST
PINE GROVE, WV 26419-0366",(304) 889-3166
Wisconsin,HOMETOWN BUILDING CENTER,"N 6344 State Hwy 25
Durand, WI 54736",(715) 672-5941
Wisconsin,MELROSE TRUE VALUE LUMBER,"101 Tanner St
Melrose, WI 54642-7212",(608) 488-2401
Wisconsin,MARTENS RELIABLE TRUE VALUE,"8010 N 76th St
Milwaukee, WI 53223-3202",(414) 355-2900
Wisconsin,MANNS TRUE VALUE HARDWARE,"1176 Main Rd
Washington Island, WI 54246-9015",(920) 847-2030
Wisconsin,KITZ & PFEIL TRUE VALUE HARDWARE,"40 E 1st St
Fond Du Lac, WI 54935-4204",(920) 923-8262
Wisconsin,YOURCHUCK TRUE VALUE HARDWARE,"24537 STATE ROAD 35 70
SIREN, WI 54872-0559",(715) 349-5200
Wisconsin,NEW GLARUS HARDWARE,"1420 State Highway 69
New Glarus, WI 53574",(608) 527-8717
Wisconsin,NELSON SHOPPING CENTER TRUE VALUE,"3449 State Rd 42
Fish Creek, WI 54212-9452",(920) 854-5752
Wisconsin,GRAND TRUE VALUE RENTAL,"1350 W WISCONSIN AVE
APPLETON, WI 54914-3262",(920) 968-1360
Wisconsin,LAONA MACHINE SUPPLY,"4902 US-8
LAONA, WI 54541-0001",(715) 674-3909
Wisconsin,THE LBR YARD TRUE VALUE HDWE,"HWY 13 NORTH
GLIDDEN, WI 54527-9800",(715) 264-4311
Wisconsin,GASSER TRUE VALUE,"3920 N Percival St
Hazel Green, WI 53811-9514",(608) 744-3243
Wisconsin,HORTON'S TRUE VALUE HARDWARE,"303 Dallas St
Chetek, WI 54728-9153",(715) 924-3692
Wisconsin,ASLESONS TRUE VALUE HARDWARE,"1415 U S Hwy 51
Stoughton, WI 53589-3739",(608) 873-3161
Wisconsin,DOWNER TRUE VALUE HARDWARE,"2629 N Downer Ave
Milwaukee, WI 53211-4245",(414) 332-2820
Wisconsin,NEW HOLSTEIN TRUE VALUE,"2204 Wisconsin Ave
New Holstein, WI 53061-1231",(920) 898-4864
Wisconsin,DEPERE TRUE VALUE HARDWARE,"1045 North Broadway
De Pere, WI 54115-2609",(920) 336-4822
Wisconsin,GASSER TRUE VALUE HARDWARE,"1704 Elm Street
Boscobel, WI 53805-1907",(608) 375-5428
Wisconsin,MEUNIERS TRUE VALUE,"131 Main Street
Gillett, WI 54124-9386",(920) 855-2844
Wisconsin,GASSER TRUE VALUE,"105 23RD STREET
BRODHEAD, WI 53520-1955",(608) 897-8636
Wisconsin,LAKELAND TRUE VALUE HARDWARE,"5967 County Hwy W
Manitowish Waters, WI 54545-3678",(715) 543-8036
Wisconsin,RIB LAKE TRUE VALUE,"700 Mill Ln
Rib Lake, WI 54470-9328",(715) 427-3663
Wisconsin,ROZMAN TRUE VALUE,"S83W20483 Janesville Rd
Muskego, WI 53150-9503",(262) 679-6781
Wisconsin,CLEAR LAKE TRUE VALUE,"530 3rd Ave NW
Clear Lake, WI 54005-0417",(715) 263-2375
Wisconsin,BIEBEL'S TRUE VALUE,"580 Hartbrook Drive
Hartland, WI 53029-1402",(262) 369-1070
Wisconsin,NELSON TRUE VALUE,"125 N Marquette Rd
Prairie Du Chien, WI 53821-1683",(608) 326-2491
Wisconsin,NELSON AGRI CENTER TRUE VALUE,"217 N Center Ave
Viroqua, WI 54665-1436",(608) 637-2192
Wisconsin,VIKING TRUE VALUE HARDWARE,"1240 SPRINGDALE STREET
MOUNT HOREB, WI 53572-2015",(608) 437-8717
Wisconsin,ISTHMUS HARDWARE,"555 W WASHINGTON AVE
Madision, WI 53703",(608) 286-1505
Wisconsin,NECEDAH TRUE VALUE,"205 S Main St
Necedah, WI 54646-8276",(608) 565-2232
Wisconsin,NORTHSIDE TRUE VALUE HARDWARE,"1415 N Richmond St
Appleton, WI 54911-3549",(920) 734-5944
Wisconsin,RONDEAUS TRUE VALUE SHOPPING CENTER,"13340 County Highway M
Cable, WI 54821",(715) 798-3211
Wisconsin,VIRCHS TRUE VALUE,"220 S. Main St.
Westfield, WI 53964-7507",(608) 296-2444
Wisconsin,PINTSCH'S TRUE VALUE HARDWARE,"17891 Hwy 32
Townsend, WI 54175",(715) 276-6888
Wisconsin,DOOR COUNTY COOP - RIO CREEK,"E4351 COUNTY RD K
ALGOMA, WI 54201",(920) 837-7777
Wisconsin,BIRCHWOOD TRUE VALUE,"101 S Main Street
Birchwood, WI 54817",(715) 354-3901
Wisconsin,DOOR COUNTY COOP - ALGOMA,"521 4TH STREET
ALGOMA, WI 54201-0001",(920) 487-5088
Wisconsin,ST'S TRUE VALUE HARDWARE,"118 PRENTICE AVE
ASHLAND, WI 54806-1840",(715) 682-9083
Wisconsin,LORLEBERG TRUE VALUE,"900 E Wisconsin Ave
Oconomowoc, WI 53066-3145",(262) 567-0267
Wisconsin,GASSER TRUE VALUE,"1509 Hwy 61 N
Lancaster, WI 53813-9412",(608) 723-6384
Wyoming,BENEDICT THRIFTWAY TRUE VALUE,"950 N HWY 414
MOUNTAIN VIEW, WY 82939-9999",(307) 782-3581
Wyoming,WESTON COUNTY TRUE VALUE HOME CENTER,"326 W Main St
Newcastle, WY 82701-2708",(307) 746-4891
Wyoming,VALLEY TRUE VALUE LUMBER & SUPPLY,"290 N 2nd St
Lander, WY 82520-2805",(307) 332-4646
Wyoming,SHERIDAN COMMERCIAL TRUE VALUE HARDWARE,"303 Broadway St
Sheridan, WY 82801-3916",(307) 672-2451
Wyoming,STANDARD TRUE VALUE - EVANSTON,"104 FRONT ST
EVANSTON, WY 82930-3630",(307) 789-1234
Wyoming,STANDARD TRUE VALUE - ROCK SPRINGS,"990 ELK STREET
ROCK SPRINGS, WY 82901-4526",(307) 362-0177
Wyoming,JAX MERCANTILE CO.,"1400 DELL RANGE BLVD
CHEYENNE, WY 82009-4801",(307) 775-6600
Wyoming,THAYNE TRUE VALUE HARDWARE & VARIETY,"120 Petersen Parkway
Thayne, WY 83127-0929",(307) 883-2464
Wyoming,TRUE VALUE OF LARAMIE,"1161 N 3rd St
Laramie, WY 82072-2513",(307) 721-8152
Wyoming,ALLBRIGHT'S TRUE VALUE HARDWARE,"215 S Main
Lusk, WY 82225-0779",(307) 334-3262
Wyoming,SHIVELY TRUE VALUE HARDWARE,"119 E Bridge St
Saratoga, WY 82331",(307) 326-8383
